G0  @ 3500.00)

G0  )

G21 (metric ftw)
G90 (absolute mode)
G92 X0.00 Y0.00 Z0.00 (you are here)

M300 S30 (pen down)
G4 P150 (wait 150ms)
M300 S50 (pen up)
G4 P150 (wait 150ms)
M18 (disengage drives)
M01 (Was registration test successful?)
M17 (engage drives if YES, and continue)

(Polyline consisting of 51 segments.)
G1  X60.279 Y100.000 F3500.00

M300 S30.00 (pen down)
G4 P150 (wait 150ms)
G1  X58.498 Y99.230 F3500.00

G1  X55.224 Y98.796 F3500.00

G1  X51.228 Y98.267 F3500.00

G1  X48.724 Y97.015 F3500.00

G1  X47.617 Y96.582 F3500.00

G1  X48.820 Y96.533 F3500.00

G1  X51.805 Y97.496 F3500.00

G1  X55.946 Y98.219 F3500.00

G1  X59.701 Y98.941 F3500.00

G1  X60.953 Y99.856 F3500.00

G1  X60.279 Y100.000 F3500.00

G1  X60.279 Y100.000 F3500.00

M300 S50.00 (pen up)
G4 P150 (wait 150ms)

(Polyline consisting of 51 segments.)
G1  X69.090 Y99.904 F3500.00

M300 S30.00 (pen down)
G4 P150 (wait 150ms)
G1  X69.523 Y90.804 F3500.00

G1  X70.197 Y85.219 F3500.00

G1  X70.775 Y78.623 F3500.00

G1  X71.016 Y73.471 F3500.00

G1  X70.871 Y69.764 F3500.00

G1  X71.112 Y56.861 F3500.00

G1  X70.679 Y45.980 F3500.00

G1  X69.716 Y44.824 F3500.00

G1  X67.742 Y44.728 F3500.00

G1  X64.179 Y43.621 F3500.00

G1  X60.327 Y42.754 F3500.00

G1  X56.476 Y42.321 F3500.00

G1  X52.335 Y41.358 F3500.00

G1  X48.580 Y40.539 F3500.00

G1  X47.376 Y40.010 F3500.00

G1  X49.254 Y38.806 F3500.00

G1  X51.083 Y37.602 F3500.00

G1  X52.528 Y39.143 F3500.00

G1  X53.876 Y40.443 F3500.00

G1  X54.839 Y39.913 F3500.00

G1  X55.416 Y37.891 F3500.00

G1  X39.287 Y34.521 F3500.00

G1  X39.432 Y38.180 F3500.00

G1  X38.806 Y39.480 F3500.00

G1  X37.987 Y40.684 F3500.00

G1  X38.228 Y39.528 F3500.00

G1  X38.325 Y38.662 F3500.00

G1  X37.506 Y39.287 F3500.00

G1  X35.436 Y39.913 F3500.00

G1  X30.910 Y41.213 F3500.00

G1  X30.091 Y43.139 F3500.00

G1  X31.199 Y44.680 F3500.00

G1  X33.028 Y45.546 F3500.00

G1  X33.751 Y47.713 F3500.00

G1  X31.632 Y51.854 F3500.00

G1  X28.551 Y55.513 F3500.00

G1  X27.588 Y57.439 F3500.00

G1  X25.758 Y62.494 F3500.00

G1  X25.036 Y65.479 F3500.00

G1  X23.832 Y69.668 F3500.00

G1  X22.340 Y73.905 F3500.00

G1  X20.655 Y77.660 F3500.00

G1  X19.210 Y80.741 F3500.00

G1  X20.318 Y82.667 F3500.00

G1  X21.810 Y85.267 F3500.00

G1  X22.581 Y87.338 F3500.00

G1  X22.773 Y87.675 F3500.00

G1  X20.896 Y85.026 F3500.00

G1  X19.644 Y82.812 F3500.00

G1  X18.873 Y80.501 F3500.00

G1  X20.366 Y76.986 F3500.00

G1  X22.099 Y72.412 F3500.00

G1  X23.399 Y68.560 F3500.00

G1  X24.699 Y64.564 F3500.00

G1  X26.095 Y59.894 F3500.00

G1  X27.155 Y57.102 F3500.00

G1  X26.240 Y56.379 F3500.00

G1  X24.410 Y55.272 F3500.00

G1  X23.640 Y54.213 F3500.00

G1  X20.173 Y56.331 F3500.00

G1  X16.322 Y58.402 F3500.00

G1  X15.214 Y60.183 F3500.00

G1  X14.251 Y61.964 F3500.00

G1  X13.481 Y62.446 F3500.00

G1  X13.770 Y64.179 F3500.00

G1  X14.492 Y66.346 F3500.00

G1  X13.240 Y67.453 F3500.00

G1  X11.218 Y66.972 F3500.00

G1  X10.640 Y65.094 F3500.00

G1  X10.063 Y63.601 F3500.00

G1  X7.848 Y64.998 F3500.00

G1  X5.344 Y65.816 F3500.00

G1  X4.526 Y64.083 F3500.00

G1  X5.681 Y62.494 F3500.00

G1  X7.174 Y61.387 F3500.00

G1  X5.296 Y59.413 F3500.00

G1  X3.515 Y58.594 F3500.00

G1  X3.370 Y56.331 F3500.00

G1  X4.429 Y55.368 F3500.00

G1  X6.307 Y56.139 F3500.00

G1  X7.752 Y56.476 F3500.00

G1  X6.596 Y54.646 F3500.00

G1  X5.296 Y52.720 F3500.00

G1  X5.922 Y51.131 F3500.00

G1  X7.752 Y52.046 F3500.00

G1  X10.881 Y53.587 F3500.00

G1  X13.674 Y54.550 F3500.00

G1  X18.681 Y53.491 F3500.00

G1  X22.244 Y51.661 F3500.00

G1  X23.062 Y49.880 F3500.00

G1  X24.410 Y47.087 F3500.00

G1  X27.443 Y45.498 F3500.00

G1  X29.321 Y44.728 F3500.00

G1  X29.754 Y42.995 F3500.00

G1  X30.380 Y40.684 F3500.00

G1  X31.199 Y35.291 F3500.00

G1  X31.921 Y29.754 F3500.00

G1  X35.773 Y27.684 F3500.00

G1  X39.336 Y26.095 F3500.00

G1  X39.191 Y24.218 F3500.00

G1  X40.299 Y21.521 F3500.00

G1  X41.502 Y20.751 F3500.00

G1  X41.406 Y13.866 F3500.00

G1  X40.973 Y6.644 F3500.00

G1  X40.299 Y1.926 F3500.00

G1  X40.732 Y0.096 F3500.00

G1  X46.076 Y0.048 F3500.00

G1  X51.420 Y0.000 F3500.00

G1  X51.420 Y1.204 F3500.00

G1  X50.554 Y3.515 F3500.00

G1  X48.291 Y4.478 F3500.00

G1  X45.546 Y6.259 F3500.00

G1  X44.150 Y8.233 F3500.00

G1  X44.247 Y14.348 F3500.00

G1  X44.391 Y20.510 F3500.00

G1  X45.498 Y20.896 F3500.00

G1  X47.328 Y22.484 F3500.00

G1  X47.713 Y25.421 F3500.00

G1  X47.569 Y27.443 F3500.00

G1  X51.757 Y28.455 F3500.00

G1  X56.379 Y29.417 F3500.00

G1  X56.909 Y27.829 F3500.00

G1  X58.402 Y24.940 F3500.00

G1  X59.701 Y23.688 F3500.00

G1  X59.701 Y17.525 F3500.00

G1  X59.172 Y10.640 F3500.00

G1  X58.787 Y7.463 F3500.00

G1  X59.364 Y4.333 F3500.00

G1  X61.675 Y3.804 F3500.00

G1  X64.324 Y3.130 F3500.00

G1  X68.079 Y3.081 F3500.00

G1  X69.668 Y6.692 F3500.00

G1  X68.753 Y10.159 F3500.00

G1  X65.383 Y9.918 F3500.00

G1  X64.468 Y9.437 F3500.00

G1  X63.361 Y10.592 F3500.00

G1  X62.157 Y12.085 F3500.00

G1  X62.301 Y18.296 F3500.00

G1  X62.879 Y24.747 F3500.00

G1  X64.468 Y26.288 F3500.00

G1  X64.998 Y30.573 F3500.00

G1  X67.694 Y31.873 F3500.00

G1  X70.775 Y32.643 F3500.00

G1  X71.449 Y49.157 F3500.00

G1  X73.086 Y52.480 F3500.00

G1  X74.916 Y53.876 F3500.00

G1  X75.638 Y56.379 F3500.00

G1  X77.371 Y59.124 F3500.00

G1  X81.223 Y62.109 F3500.00

G1  X84.401 Y63.457 F3500.00

G1  X86.519 Y63.842 F3500.00

G1  X87.578 Y64.372 F3500.00

G1  X89.023 Y63.024 F3500.00

G1  X90.804 Y61.675 F3500.00

G1  X91.767 Y62.735 F3500.00

G1  X89.649 Y66.057 F3500.00

G1  X88.300 Y67.549 F3500.00

G1  X90.082 Y68.031 F3500.00

G1  X92.104 Y69.138 F3500.00

G1  X91.574 Y71.160 F3500.00

G1  X90.178 Y72.075 F3500.00

G1  X88.493 Y71.497 F3500.00

G1  X87.338 Y71.353 F3500.00

G1  X88.204 Y73.279 F3500.00

G1  X89.360 Y75.734 F3500.00

G1  X88.445 Y76.649 F3500.00

G1  X86.712 Y75.975 F3500.00

G1  X85.412 Y73.616 F3500.00

G1  X83.919 Y71.690 F3500.00

G1  X83.245 Y74.194 F3500.00

G1  X80.790 Y75.782 F3500.00

G1  X79.634 Y74.049 F3500.00

G1  X80.501 Y72.123 F3500.00

G1  X81.223 Y68.897 F3500.00

G1  X81.127 Y66.346 F3500.00

G1  X77.949 Y63.649 F3500.00

G1  X74.386 Y61.772 F3500.00

G1  X72.894 Y62.638 F3500.00

G1  X71.979 Y64.612 F3500.00

G1  X71.642 Y68.031 F3500.00

G1  X71.642 Y72.845 F3500.00

G1  X71.449 Y77.805 F3500.00

G1  X70.920 Y82.282 F3500.00

G1  X70.438 Y90.563 F3500.00

G1  X69.764 Y95.811 F3500.00

G1  X69.090 Y99.904 F3500.00

M300 S50.00 (pen up)
G4 P150 (wait 150ms)

(Polyline consisting of 51 segments.)
G1  X63.072 Y99.904 F3500.00

M300 S30.00 (pen down)
G4 P150 (wait 150ms)
G1  X63.890 Y99.663 F3500.00

G1  X64.901 Y99.904 F3500.00

G1  X63.072 Y99.904 F3500.00

M300 S50.00 (pen up)
G4 P150 (wait 150ms)

(Polyline consisting of 51 segments.)
G1  X44.295 Y97.015 F3500.00

M300 S30.00 (pen down)
G4 P150 (wait 150ms)
G1  X41.117 Y96.196 F3500.00

G1  X37.025 Y95.908 F3500.00

G1  X33.173 Y95.667 F3500.00

G1  X29.754 Y94.463 F3500.00

G1  X27.732 Y94.126 F3500.00

G1  X29.754 Y94.030 F3500.00

G1  X33.365 Y94.896 F3500.00

G1  X37.650 Y95.185 F3500.00

G1  X41.935 Y95.474 F3500.00

G1  X45.209 Y96.485 F3500.00

G1  X46.654 Y96.726 F3500.00

G1  X44.295 Y97.015 F3500.00

M300 S50.00 (pen up)
G4 P150 (wait 150ms)

(Polyline consisting of 51 segments.)
G1  X27.106 Y93.934 F3500.00

M300 S30.00 (pen down)
G4 P150 (wait 150ms)
G1  X24.651 Y90.323 F3500.00

G1  X24.410 Y88.637 F3500.00

G1  X25.469 Y90.515 F3500.00

G1  X26.047 Y92.152 F3500.00

G1  X26.432 Y90.756 F3500.00

G1  X26.962 Y89.408 F3500.00

G1  X26.769 Y90.948 F3500.00

G1  X27.010 Y93.260 F3500.00

G1  X27.106 Y93.934 F3500.00

M300 S50.00 (pen up)
G4 P150 (wait 150ms)

(Polyline consisting of 51 segments.)
G1  X56.716 Y92.104 F3500.00

M300 S30.00 (pen down)
G4 P150 (wait 150ms)
G1  X56.379 Y90.515 F3500.00

G1  X55.272 Y88.300 F3500.00

G1  X54.068 Y87.771 F3500.00

G1  X53.298 Y88.782 F3500.00

G1  X52.143 Y89.552 F3500.00

G1  X52.431 Y87.867 F3500.00

G1  X52.191 Y84.738 F3500.00

G1  X51.324 Y83.149 F3500.00

G1  X50.554 Y83.678 F3500.00

G1  X48.965 Y85.267 F3500.00

G1  X48.243 Y87.434 F3500.00

G1  X47.906 Y89.263 F3500.00

G1  X47.232 Y87.915 F3500.00

G1  X45.450 Y86.326 F3500.00

G1  X43.669 Y87.819 F3500.00

G1  X42.898 Y89.023 F3500.00

G1  X42.465 Y88.156 F3500.00

G1  X42.850 Y85.845 F3500.00

G1  X41.984 Y84.641 F3500.00

G1  X40.876 Y84.015 F3500.00

G1  X40.010 Y84.834 F3500.00

G1  X38.758 Y85.604 F3500.00

G1  X39.239 Y83.871 F3500.00

G1  X39.673 Y81.223 F3500.00

G1  X39.143 Y79.442 F3500.00

G1  X39.865 Y80.838 F3500.00

G1  X43.187 Y84.882 F3500.00

G1  X47.617 Y85.604 F3500.00

G1  X51.902 Y80.453 F3500.00

G1  X52.335 Y79.971 F3500.00

G1  X52.817 Y84.930 F3500.00

G1  X56.716 Y88.204 F3500.00

G1  X61.050 Y87.097 F3500.00

G1  X63.312 Y84.304 F3500.00

G1  X64.324 Y80.693 F3500.00

G1  X63.842 Y77.901 F3500.00

G1  X63.987 Y77.660 F3500.00

G1  X65.479 Y77.901 F3500.00

G1  X66.538 Y76.793 F3500.00

G1  X66.298 Y74.145 F3500.00

G1  X64.275 Y71.160 F3500.00

G1  X57.342 Y67.116 F3500.00

G1  X55.224 Y66.635 F3500.00

G1  X57.053 Y66.635 F3500.00

G1  X59.701 Y66.972 F3500.00

G1  X62.398 Y66.057 F3500.00

G1  X64.179 Y64.757 F3500.00

G1  X63.168 Y64.179 F3500.00

G1  X52.335 Y61.724 F3500.00

G1  X45.113 Y63.216 F3500.00

G1  X42.706 Y64.901 F3500.00

G1  X42.369 Y66.009 F3500.00

G1  X40.202 Y64.468 F3500.00

G1  X40.684 Y63.987 F3500.00

G1  X41.647 Y62.109 F3500.00

G1  X44.969 Y53.972 F3500.00

G1  X49.350 Y48.772 F3500.00

G1  X49.350 Y48.724 F3500.00

G1  X54.405 Y47.954 F3500.00

G1  X58.931 Y50.457 F3500.00

G1  X59.605 Y54.213 F3500.00

G1  X60.376 Y57.102 F3500.00

G1  X61.050 Y58.835 F3500.00

G1  X60.664 Y60.953 F3500.00

G1  X62.590 Y63.072 F3500.00

G1  X64.805 Y64.853 F3500.00

G1  X62.879 Y66.201 F3500.00

G1  X61.675 Y67.742 F3500.00

G1  X66.972 Y73.616 F3500.00

G1  X67.164 Y76.553 F3500.00

G1  X65.864 Y78.334 F3500.00

G1  X64.805 Y80.453 F3500.00

G1  X62.157 Y86.808 F3500.00

G1  X61.724 Y88.878 F3500.00

G1  X61.772 Y90.852 F3500.00

G1  X60.857 Y89.793 F3500.00

G1  X59.894 Y88.541 F3500.00

G1  X58.450 Y88.830 F3500.00

G1  X57.535 Y90.274 F3500.00

G1  X56.716 Y92.104 F3500.00

G1  X56.716 Y92.104 F3500.00

M300 S50.00 (pen up)
G4 P150 (wait 150ms)

(Polyline consisting of 51 segments.)
G1  X27.636 Y88.397 F3500.00

M300 S30.00 (pen down)
G4 P150 (wait 150ms)
G1  X28.214 Y86.712 F3500.00

G1  X29.417 Y83.197 F3500.00

G1  X29.466 Y81.993 F3500.00

G1  X29.610 Y83.149 F3500.00

G1  X27.636 Y88.397 F3500.00

M300 S50.00 (pen up)
G4 P150 (wait 150ms)

(Polyline consisting of 51 segments.)
G1  X25.758 Y84.786 F3500.00

M300 S30.00 (pen down)
G4 P150 (wait 150ms)
G1  X24.025 Y83.245 F3500.00

G1  X24.073 Y79.008 F3500.00

G1  X25.662 Y77.227 F3500.00

G1  X27.203 Y77.805 F3500.00

G1  X27.829 Y80.019 F3500.00

G1  X27.251 Y83.390 F3500.00

G1  X25.758 Y84.786 F3500.00

M300 S50.00 (pen up)
G4 P150 (wait 150ms)

(Polyline consisting of 51 segments.)
G1  X56.476 Y81.945 F3500.00

M300 S30.00 (pen down)
G4 P150 (wait 150ms)
G1  X54.791 Y80.212 F3500.00

G1  X54.694 Y77.082 F3500.00

G1  X55.898 Y75.108 F3500.00

G1  X58.787 Y75.686 F3500.00

G1  X59.701 Y79.008 F3500.00

G1  X58.065 Y81.801 F3500.00

G1  X56.476 Y81.945 F3500.00

M300 S50.00 (pen up)
G4 P150 (wait 150ms)

(Polyline consisting of 51 segments.)
G1  X57.150 Y81.704 F3500.00

M300 S30.00 (pen down)
G4 P150 (wait 150ms)
G1  X58.209 Y80.934 F3500.00

G1  X59.268 Y78.575 F3500.00

G1  X58.642 Y76.168 F3500.00

G1  X57.294 Y75.205 F3500.00

G1  X55.802 Y75.975 F3500.00

G1  X55.031 Y78.623 F3500.00

G1  X56.187 Y81.175 F3500.00

G1  X57.150 Y81.704 F3500.00

M300 S50.00 (pen up)
G4 P150 (wait 150ms)

(Polyline consisting of 51 segments.)
G1  X29.851 Y81.512 F3500.00

M300 S30.00 (pen down)
G4 P150 (wait 150ms)
G1  X29.754 Y80.982 F3500.00

G1  X30.814 Y77.660 F3500.00

G1  X31.921 Y74.386 F3500.00

G1  X32.162 Y74.531 F3500.00

G1  X31.343 Y77.516 F3500.00

G1  X30.091 Y80.645 F3500.00

G1  X29.851 Y81.512 F3500.00

M300 S50.00 (pen up)
G4 P150 (wait 150ms)

(Polyline consisting of 51 segments.)
G1  X57.198 Y80.597 F3500.00

M300 S30.00 (pen down)
G4 P150 (wait 150ms)
G1  X56.283 Y80.212 F3500.00

G1  X55.994 Y76.986 F3500.00

G1  X58.257 Y77.419 F3500.00

G1  X58.353 Y79.393 F3500.00

G1  X57.198 Y80.597 F3500.00

M300 S50.00 (pen up)
G4 P150 (wait 150ms)

(Polyline consisting of 51 segments.)
G1  X46.269 Y80.260 F3500.00

M300 S30.00 (pen down)
G4 P150 (wait 150ms)
G1  X44.150 Y79.393 F3500.00

G1  X44.535 Y74.049 F3500.00

G1  X46.269 Y73.182 F3500.00

G1  X48.002 Y74.338 F3500.00

G1  X48.339 Y79.104 F3500.00

G1  X46.269 Y80.260 F3500.00

M300 S50.00 (pen up)
G4 P150 (wait 150ms)

(Polyline consisting of 51 segments.)
G1  X46.124 Y79.730 F3500.00

M300 S30.00 (pen down)
G4 P150 (wait 150ms)
G1  X48.339 Y77.949 F3500.00

G1  X47.809 Y74.675 F3500.00

G1  X46.172 Y73.664 F3500.00

G1  X44.584 Y74.964 F3500.00

G1  X44.391 Y78.623 F3500.00

G1  X46.124 Y79.730 F3500.00

M300 S50.00 (pen up)
G4 P150 (wait 150ms)

(Polyline consisting of 51 segments.)
G1  X52.817 Y78.960 F3500.00

M300 S30.00 (pen down)
G4 P150 (wait 150ms)
G1  X52.528 Y76.119 F3500.00

G1  X50.602 Y69.957 F3500.00

G1  X46.461 Y67.068 F3500.00

G1  X45.161 Y66.683 F3500.00

G1  X46.076 Y66.586 F3500.00

G1  X48.628 Y67.212 F3500.00

G1  X52.191 Y72.171 F3500.00

G1  X53.491 Y71.594 F3500.00

G1  X54.454 Y70.005 F3500.00

G1  X56.139 Y70.390 F3500.00

G1  X59.942 Y73.857 F3500.00

G1  X58.546 Y72.894 F3500.00

G1  X55.657 Y70.583 F3500.00

G1  X53.876 Y71.834 F3500.00

G1  X52.720 Y76.023 F3500.00

G1  X52.817 Y78.960 F3500.00

G1  X52.817 Y78.960 F3500.00

M300 S50.00 (pen up)
G4 P150 (wait 150ms)

(Polyline consisting of 51 segments.)
G1  X45.787 Y78.912 F3500.00

M300 S30.00 (pen down)
G4 P150 (wait 150ms)
G1  X45.161 Y75.734 F3500.00

G1  X46.076 Y74.675 F3500.00

G1  X47.039 Y75.253 F3500.00

G1  X46.702 Y78.671 F3500.00

G1  X45.787 Y78.912 F3500.00

M300 S50.00 (pen up)
G4 P150 (wait 150ms)

(Polyline consisting of 51 segments.)
G1  X38.902 Y78.190 F3500.00

M300 S30.00 (pen down)
G4 P150 (wait 150ms)
G1  X38.806 Y76.793 F3500.00

G1  X40.299 Y70.486 F3500.00

G1  X40.202 Y71.545 F3500.00

G1  X39.143 Y75.975 F3500.00

G1  X38.902 Y78.190 F3500.00

G1  X38.902 Y78.190 F3500.00

M300 S50.00 (pen up)
G4 P150 (wait 150ms)

(Polyline consisting of 51 segments.)
G1  X88.156 Y76.168 F3500.00

M300 S30.00 (pen down)
G4 P150 (wait 150ms)
G1  X88.926 Y75.734 F3500.00

G1  X87.723 Y73.568 F3500.00

G1  X86.663 Y71.064 F3500.00

G1  X88.974 Y70.871 F3500.00

G1  X91.478 Y70.438 F3500.00

G1  X90.226 Y68.609 F3500.00

G1  X87.915 Y67.501 F3500.00

G1  X89.649 Y65.335 F3500.00

G1  X91.237 Y63.649 F3500.00

G1  X90.756 Y62.542 F3500.00

G1  X89.119 Y63.698 F3500.00

G1  X87.241 Y64.949 F3500.00

G1  X85.893 Y64.420 F3500.00

G1  X84.160 Y64.227 F3500.00

G1  X79.345 Y61.724 F3500.00

G1  X75.638 Y58.883 F3500.00

G1  X75.253 Y59.846 F3500.00

G1  X76.986 Y61.868 F3500.00

G1  X80.260 Y64.612 F3500.00

G1  X81.945 Y68.801 F3500.00

G1  X80.838 Y73.182 F3500.00

G1  X80.116 Y74.290 F3500.00

G1  X81.271 Y74.916 F3500.00

G1  X82.956 Y72.990 F3500.00

G1  X84.256 Y71.112 F3500.00

G1  X85.604 Y72.749 F3500.00

G1  X88.156 Y76.168 F3500.00

M300 S50.00 (pen up)
G4 P150 (wait 150ms)

(Polyline consisting of 51 segments.)
G1  X32.499 Y71.979 F3500.00

M300 S30.00 (pen down)
G4 P150 (wait 150ms)
G1  X32.306 Y71.305 F3500.00

G1  X32.499 Y71.016 F3500.00

G1  X32.499 Y71.979 F3500.00

M300 S50.00 (pen up)
G4 P150 (wait 150ms)

(Polyline consisting of 51 segments.)
G1  X27.395 Y71.305 F3500.00

M300 S30.00 (pen down)
G4 P150 (wait 150ms)
G1  X26.673 Y70.390 F3500.00

G1  X26.481 Y68.079 F3500.00

G1  X27.588 Y67.020 F3500.00

G1  X28.503 Y68.368 F3500.00

G1  X28.358 Y70.679 F3500.00

G1  X27.395 Y71.305 F3500.00

M300 S50.00 (pen up)
G4 P150 (wait 150ms)

(Polyline consisting of 51 segments.)
G1  X33.125 Y69.042 F3500.00

M300 S30.00 (pen down)
G4 P150 (wait 150ms)
G1  X33.365 Y68.031 F3500.00

G1  X33.895 Y67.020 F3500.00

G1  X33.751 Y68.031 F3500.00

G1  X33.125 Y69.042 F3500.00

M300 S50.00 (pen up)
G4 P150 (wait 150ms)

(Polyline consisting of 51 segments.)
G1  X85.123 Y68.946 F3500.00

M300 S30.00 (pen down)
G4 P150 (wait 150ms)
G1  X83.823 Y68.127 F3500.00

G1  X83.101 Y67.068 F3500.00

G1  X84.401 Y67.935 F3500.00

G1  X85.123 Y68.946 F3500.00

M300 S50.00 (pen up)
G4 P150 (wait 150ms)

(Polyline consisting of 51 segments.)
G1  X13.240 Y67.020 F3500.00

M300 S30.00 (pen down)
G4 P150 (wait 150ms)
G1  X14.203 Y66.298 F3500.00

G1  X13.481 Y64.998 F3500.00

G1  X12.807 Y63.505 F3500.00

G1  X14.011 Y60.664 F3500.00

G1  X16.659 Y57.583 F3500.00

G1  X22.099 Y54.261 F3500.00

G1  X26.240 Y51.805 F3500.00

G1  X26.384 Y50.843 F3500.00

G1  X25.132 Y51.035 F3500.00

G1  X19.596 Y53.876 F3500.00

G1  X15.166 Y56.042 F3500.00

G1  X13.481 Y55.224 F3500.00

G1  X10.303 Y54.309 F3500.00

G1  X7.511 Y52.768 F3500.00

G1  X6.018 Y52.046 F3500.00

G1  X7.415 Y54.550 F3500.00

G1  X8.329 Y56.283 F3500.00

G1  X7.607 Y57.390 F3500.00

G1  X5.874 Y56.620 F3500.00

G1  X4.333 Y55.898 F3500.00

G1  X3.707 Y56.765 F3500.00

G1  X5.729 Y58.883 F3500.00

G1  X7.415 Y59.653 F3500.00

G1  X7.848 Y61.242 F3500.00

G1  X6.163 Y63.024 F3500.00

G1  X4.959 Y64.516 F3500.00

G1  X5.874 Y65.383 F3500.00

G1  X8.089 Y63.987 F3500.00

G1  X10.303 Y62.542 F3500.00

G1  X11.122 Y64.372 F3500.00

G1  X11.603 Y66.394 F3500.00

G1  X13.240 Y67.020 F3500.00

M300 S50.00 (pen up)
G4 P150 (wait 150ms)

(Polyline consisting of 51 segments.)
G1  X30.862 Y64.949 F3500.00

M300 S30.00 (pen down)
G4 P150 (wait 150ms)
G1  X29.514 Y63.746 F3500.00

G1  X29.225 Y58.498 F3500.00

G1  X30.332 Y57.487 F3500.00

G1  X31.680 Y58.931 F3500.00

G1  X32.065 Y64.227 F3500.00

G1  X30.862 Y64.949 F3500.00

M300 S50.00 (pen up)
G4 P150 (wait 150ms)

(Polyline consisting of 51 segments.)
G1  X34.714 Y64.131 F3500.00

M300 S30.00 (pen down)
G4 P150 (wait 150ms)
G1  X34.521 Y62.975 F3500.00

G1  X34.714 Y61.820 F3500.00

G1  X34.714 Y64.131 F3500.00

M300 S50.00 (pen up)
G4 P150 (wait 150ms)

(Polyline consisting of 51 segments.)
G1  X73.086 Y61.772 F3500.00

M300 S30.00 (pen down)
G4 P150 (wait 150ms)
G1  X74.434 Y59.942 F3500.00

G1  X75.253 Y56.716 F3500.00

G1  X74.145 Y54.117 F3500.00

G1  X72.460 Y53.009 F3500.00

G1  X71.834 Y56.909 F3500.00

G1  X71.931 Y61.531 F3500.00

G1  X73.086 Y61.772 F3500.00

M300 S50.00 (pen up)
G4 P150 (wait 150ms)

(Polyline consisting of 51 segments.)
G1  X59.990 Y61.387 F3500.00

M300 S30.00 (pen down)
G4 P150 (wait 150ms)
G1  X60.424 Y59.316 F3500.00

G1  X59.316 Y57.727 F3500.00

G1  X57.342 Y57.487 F3500.00

G1  X56.716 Y59.509 F3500.00

G1  X56.765 Y60.713 F3500.00

G1  X58.209 Y61.387 F3500.00

G1  X59.990 Y61.387 F3500.00

G1  X59.990 Y61.387 F3500.00

M300 S50.00 (pen up)
G4 P150 (wait 150ms)

(Polyline consisting of 51 segments.)
G1  X52.431 Y60.424 F3500.00

M300 S30.00 (pen down)
G4 P150 (wait 150ms)
G1  X54.020 Y60.183 F3500.00

G1  X54.405 Y58.787 F3500.00

G1  X54.454 Y56.957 F3500.00

G1  X52.768 Y56.476 F3500.00

G1  X51.083 Y56.813 F3500.00

G1  X50.698 Y59.220 F3500.00

G1  X52.431 Y60.424 F3500.00

G1  X52.431 Y60.424 F3500.00

M300 S50.00 (pen up)
G4 P150 (wait 150ms)

(Polyline consisting of 51 segments.)
G1  X11.314 Y59.364 F3500.00

M300 S30.00 (pen down)
G4 P150 (wait 150ms)
G1  X10.400 Y59.316 F3500.00

G1  X11.314 Y58.883 F3500.00

G1  X12.759 Y58.450 F3500.00

G1  X12.759 Y58.883 F3500.00

G1  X11.314 Y59.364 F3500.00

M300 S50.00 (pen up)
G4 P150 (wait 150ms)

(Polyline consisting of 51 segments.)
G1  X26.721 Y55.609 F3500.00

M300 S30.00 (pen down)
G4 P150 (wait 150ms)
G1  X30.717 Y51.950 F3500.00

G1  X33.077 Y48.387 F3500.00

G1  X32.788 Y46.365 F3500.00

G1  X28.406 Y45.932 F3500.00

G1  X24.266 Y48.146 F3500.00

G1  X23.736 Y50.506 F3500.00

G1  X25.469 Y50.265 F3500.00

G1  X25.710 Y48.869 F3500.00

G1  X26.047 Y48.676 F3500.00

G1  X26.914 Y52.817 F3500.00

G1  X26.529 Y53.202 F3500.00

G1  X25.566 Y52.913 F3500.00

G1  X24.844 Y54.020 F3500.00

G1  X25.855 Y55.272 F3500.00

G1  X26.721 Y55.609 F3500.00

M300 S50.00 (pen up)
G4 P150 (wait 150ms)

(Polyline consisting of 51 segments.)
G1  X36.591 Y55.561 F3500.00

M300 S30.00 (pen down)
G4 P150 (wait 150ms)
G1  X36.784 Y48.772 F3500.00

G1  X37.073 Y48.243 F3500.00

G1  X36.591 Y55.561 F3500.00

M300 S50.00 (pen up)
G4 P150 (wait 150ms)

(Polyline consisting of 51 segments.)
G1  X54.213 Y52.239 F3500.00

M300 S30.00 (pen down)
G4 P150 (wait 150ms)
G1  X55.994 Y51.083 F3500.00

G1  X57.005 Y49.880 F3500.00

G1  X56.139 Y49.254 F3500.00

G1  X53.250 Y48.435 F3500.00

G1  X49.543 Y49.591 F3500.00

G1  X47.809 Y51.420 F3500.00

G1  X51.613 Y51.035 F3500.00

G1  X52.865 Y50.794 F3500.00

G1  X52.431 Y51.324 F3500.00

G1  X52.480 Y51.805 F3500.00

G1  X54.213 Y52.239 F3500.00

M300 S50.00 (pen up)
G4 P150 (wait 150ms)

(Polyline consisting of 51 segments.)
G1  X68.079 Y43.958 F3500.00

M300 S30.00 (pen down)
G4 P150 (wait 150ms)
G1  X70.486 Y42.658 F3500.00

G1  X70.294 Y41.021 F3500.00

G1  X63.890 Y39.336 F3500.00

G1  X57.487 Y38.084 F3500.00

G1  X57.583 Y40.684 F3500.00

G1  X58.065 Y41.406 F3500.00

G1  X59.027 Y40.587 F3500.00

G1  X60.087 Y39.528 F3500.00

G1  X62.879 Y41.839 F3500.00

G1  X65.672 Y43.813 F3500.00

G1  X68.079 Y43.958 F3500.00

M300 S50.00 (pen up)
G4 P150 (wait 150ms)

(Polyline consisting of 51 segments.)
G1  X58.498 Y42.128 F3500.00

M300 S30.00 (pen down)
G4 P150 (wait 150ms)
G1  X60.231 Y42.128 F3500.00

G1  X61.724 Y41.598 F3500.00

G1  X60.616 Y40.491 F3500.00

G1  X59.316 Y41.117 F3500.00

G1  X58.498 Y42.128 F3500.00

M300 S50.00 (pen up)
G4 P150 (wait 150ms)

(Polyline consisting of 51 segments.)
G1  X57.439 Y41.935 F3500.00

M300 S30.00 (pen down)
G4 P150 (wait 150ms)
G1  X57.150 Y40.443 F3500.00

G1  X56.379 Y39.191 F3500.00

G1  X55.465 Y39.721 F3500.00

G1  X56.187 Y41.598 F3500.00

G1  X57.439 Y41.935 F3500.00

M300 S50.00 (pen up)
G4 P150 (wait 150ms)

(Polyline consisting of 51 segments.)
G1  X51.276 Y40.539 F3500.00

M300 S30.00 (pen down)
G4 P150 (wait 150ms)
G1  X52.576 Y40.395 F3500.00

G1  X51.709 Y39.287 F3500.00

G1  X49.831 Y38.950 F3500.00

G1  X49.398 Y40.202 F3500.00

G1  X51.276 Y40.539 F3500.00

G1  X51.276 Y40.539 F3500.00

M300 S50.00 (pen up)
G4 P150 (wait 150ms)

(Polyline consisting of 51 segments.)
G1  X31.728 Y40.010 F3500.00

M300 S30.00 (pen down)
G4 P150 (wait 150ms)
G1  X33.028 Y39.336 F3500.00

G1  X35.676 Y38.806 F3500.00

G1  X38.036 Y38.228 F3500.00

G1  X38.710 Y36.013 F3500.00

G1  X38.565 Y34.762 F3500.00

G1  X36.399 Y35.436 F3500.00

G1  X32.210 Y36.976 F3500.00

G1  X31.584 Y38.613 F3500.00

G1  X31.728 Y40.010 F3500.00

M300 S50.00 (pen up)
G4 P150 (wait 150ms)

(Polyline consisting of 51 segments.)
G1  X42.080 Y39.913 F3500.00

M300 S30.00 (pen down)
G4 P150 (wait 150ms)
G1  X40.443 Y39.143 F3500.00

G1  X41.743 Y39.095 F3500.00

G1  X45.258 Y39.336 F3500.00

G1  X47.280 Y39.143 F3500.00

G1  X45.113 Y39.673 F3500.00

G1  X42.080 Y39.913 F3500.00

G1  X42.080 Y39.913 F3500.00

M300 S50.00 (pen up)
G4 P150 (wait 150ms)

(Polyline consisting of 51 segments.)
G1  X70.053 Y39.913 F3500.00

M300 S30.00 (pen down)
G4 P150 (wait 150ms)
G1  X70.149 Y36.928 F3500.00

G1  X70.101 Y33.702 F3500.00

G1  X52.624 Y29.706 F3500.00

G1  X40.587 Y27.443 F3500.00

G1  X39.865 Y29.129 F3500.00

G1  X39.624 Y32.354 F3500.00

G1  X39.432 Y33.847 F3500.00

G1  X42.273 Y34.425 F3500.00

G1  X53.876 Y36.880 F3500.00

G1  X54.887 Y36.639 F3500.00

G1  X52.335 Y35.773 F3500.00

G1  X49.976 Y34.425 F3500.00

G1  X52.094 Y33.702 F3500.00

G1  X54.020 Y33.702 F3500.00

G1  X55.272 Y32.451 F3500.00

G1  X56.379 Y30.910 F3500.00

G1  X57.679 Y32.980 F3500.00

G1  X60.616 Y35.291 F3500.00

G1  X62.253 Y36.639 F3500.00

G1  X59.846 Y37.362 F3500.00

G1  X58.065 Y37.410 F3500.00

G1  X64.083 Y38.758 F3500.00

G1  X70.053 Y39.913 F3500.00

M300 S50.00 (pen up)
G4 P150 (wait 150ms)

(Polyline consisting of 51 segments.)
G1  X68.512 Y38.950 F3500.00

M300 S30.00 (pen down)
G4 P150 (wait 150ms)
G1  X67.068 Y38.854 F3500.00

G1  X64.901 Y38.228 F3500.00

G1  X64.661 Y37.169 F3500.00

G1  X66.346 Y36.591 F3500.00

G1  X68.320 Y37.025 F3500.00

G1  X68.753 Y38.084 F3500.00

G1  X68.512 Y38.950 F3500.00

M300 S50.00 (pen up)
G4 P150 (wait 150ms)

(Polyline consisting of 51 segments.)
G1  X56.476 Y38.613 F3500.00

M300 S30.00 (pen down)
G4 P150 (wait 150ms)
G1  X57.390 Y36.543 F3500.00

G1  X58.065 Y34.473 F3500.00

G1  X57.150 Y33.221 F3500.00

G1  X56.283 Y32.258 F3500.00

G1  X55.609 Y32.980 F3500.00

G1  X55.609 Y36.254 F3500.00

G1  X56.476 Y38.613 F3500.00

M300 S50.00 (pen up)
G4 P150 (wait 150ms)

(Polyline consisting of 51 segments.)
G1  X47.087 Y34.425 F3500.00

M300 S30.00 (pen down)
G4 P150 (wait 150ms)
G1  X45.209 Y34.328 F3500.00

G1  X42.369 Y32.691 F3500.00

G1  X45.787 Y32.306 F3500.00

G1  X47.424 Y33.654 F3500.00

G1  X47.087 Y34.425 F3500.00

G1  X47.087 Y34.425 F3500.00

M300 S50.00 (pen up)
G4 P150 (wait 150ms)

(Polyline consisting of 51 segments.)
G1  X63.938 Y30.477 F3500.00

M300 S30.00 (pen down)
G4 P150 (wait 150ms)
G1  X64.516 Y28.455 F3500.00

G1  X62.975 Y26.047 F3500.00

G1  X60.616 Y24.940 F3500.00

G1  X58.642 Y25.566 F3500.00

G1  X57.824 Y27.636 F3500.00

G1  X58.065 Y29.321 F3500.00

G1  X61.146 Y30.188 F3500.00

G1  X63.938 Y30.477 F3500.00

M300 S50.00 (pen up)
G4 P150 (wait 150ms)

(Polyline consisting of 51 segments.)
G1  X46.558 Y26.866 F3500.00

M300 S30.00 (pen down)
G4 P150 (wait 150ms)
G1  X46.943 Y25.036 F3500.00

G1  X45.980 Y22.581 F3500.00

G1  X42.224 Y21.570 F3500.00

G1  X39.769 Y23.062 F3500.00

G1  X39.865 Y24.699 F3500.00

G1  X43.284 Y26.432 F3500.00

G1  X46.558 Y26.866 F3500.00

G1  X46.558 Y26.866 F3500.00

M300 S50.00 (pen up)
G4 P150 (wait 150ms)

(Polyline consisting of 51 segments.)
G1  X61.146 Y23.881 F3500.00

M300 S30.00 (pen down)
G4 P150 (wait 150ms)
G1  X61.916 Y21.858 F3500.00

G1  X60.953 Y19.788 F3500.00

G1  X60.231 Y20.944 F3500.00

G1  X60.424 Y22.966 F3500.00

G1  X61.146 Y23.881 F3500.00

M300 S50.00 (pen up)
G4 P150 (wait 150ms)

(Polyline consisting of 51 segments.)
G1  X42.706 Y20.318 F3500.00

M300 S30.00 (pen down)
G4 P150 (wait 150ms)
G1  X43.428 Y18.007 F3500.00

G1  X42.706 Y15.744 F3500.00

G1  X41.984 Y18.007 F3500.00

G1  X42.706 Y20.318 F3500.00

M300 S50.00 (pen up)
G4 P150 (wait 150ms)

(Polyline consisting of 51 segments.)
G1  X60.953 Y19.307 F3500.00

M300 S30.00 (pen down)
G4 P150 (wait 150ms)
G1  X61.772 Y17.236 F3500.00

G1  X61.435 Y15.214 F3500.00

G1  X61.435 Y14.781 F3500.00

G1  X61.820 Y12.133 F3500.00

G1  X61.146 Y9.774 F3500.00

G1  X60.279 Y10.448 F3500.00

G1  X60.087 Y14.829 F3500.00

G1  X60.953 Y19.307 F3500.00

G1  X60.953 Y19.307 F3500.00

M300 S50.00 (pen up)
G4 P150 (wait 150ms)

(Polyline consisting of 51 segments.)
G1  X42.706 Y15.262 F3500.00

M300 S30.00 (pen down)
G4 P150 (wait 150ms)
G1  X43.428 Y13.818 F3500.00

G1  X43.717 Y9.292 F3500.00

G1  X43.428 Y6.018 F3500.00

G1  X42.273 Y6.403 F3500.00

G1  X41.984 Y10.688 F3500.00

G1  X42.706 Y15.262 F3500.00

M300 S50.00 (pen up)
G4 P150 (wait 150ms)

(Polyline consisting of 51 segments.)
G1  X66.827 Y8.907 F3500.00

M300 S30.00 (pen down)
G4 P150 (wait 150ms)
G1  X66.779 Y7.752 F3500.00

G1  X65.527 Y7.270 F3500.00

G1  X66.827 Y8.907 F3500.00

M300 S50.00 (pen up)
G4 P150 (wait 150ms)

(Polyline consisting of 51 segments.)
G1  X62.061 Y5.055 F3500.00

M300 S30.00 (pen down)
G4 P150 (wait 150ms)
G1  X62.446 Y4.574 F3500.00

G1  X62.301 Y4.092 F3500.00

G1  X61.916 Y4.574 F3500.00

G1  X62.061 Y5.055 F3500.00

M300 S50.00 (pen up)
G4 P150 (wait 150ms)

(Polyline consisting of 51 segments.)
G1  X48.050 Y2.504 F3500.00

M300 S30.00 (pen down)
G4 P150 (wait 150ms)
G1  X48.532 Y1.830 F3500.00

G1  X47.280 Y1.011 F3500.00

G1  X47.280 Y2.070 F3500.00

G1  X48.050 Y2.504 F3500.00

M300 S50.00 (pen up)
G4 P150 (wait 150ms)


(end of print job)
M300 S50.00 (pen up)
G4 P150 (wait 150ms)
M300 S255 (turn off servo)
G1  X0.000 Y6.596 F3500.00

G1  Z0.00 F150.00 (go up to finished level)

G1  X0.000 Y6.596 F3500.00 (go home)

M18 (drives off)
