G21         ; Set units to mm
G90         ; Absolute positioning
G1 Z2.54 F2540      ; Move to clearance level

;
; Operation:    0
; Name:         
; Type:         Engrave
; Paths:        4
; Direction:    Conventional
; Cut Depth:    3.175
; Pass Depth:   3.175
; Plunge rate:  127
; Cut rate:     1016
;

; Path 0
; Rapid to initial position
G1 X176.5282 Y-97.0930 F2540
G1 Z0.0000
; plunge
G1 Z-3.1750 F127
; cut
G1 X176.3672 Y-97.0938 F1016
G1 X176.2059 Y-97.0978
G1 X176.0449 Y-97.1047
G1 X175.8838 Y-97.1149
G1 X175.7228 Y-97.1281
G1 X175.5618 Y-97.1446
G1 X175.4007 Y-97.1644
G1 X175.2399 Y-97.1878
G1 X175.0789 Y-97.2142
G1 X174.9184 Y-97.2442
G1 X174.7578 Y-97.2774
G1 X174.5973 Y-97.3143
G1 X174.4373 Y-97.3546
G1 X174.2770 Y-97.3986
G1 X174.2770 Y-97.3986
G1 X174.1173 Y-97.4461
G1 X173.9577 Y-97.4971
G1 X173.7985 Y-97.5520
G1 X173.6392 Y-97.6107
G1 X173.4805 Y-97.6732
G1 X173.3220 Y-97.7392
G1 X173.1637 Y-97.8093
G1 X173.0060 Y-97.8832
G1 X172.8485 Y-97.9612
G1 X172.6913 Y-98.0430
G1 X172.5346 Y-98.1288
G1 X172.3784 Y-98.2190
G1 X172.2224 Y-98.3130
G1 X172.0670 Y-98.4113
G1 X171.9120 Y-98.5136
G1 X171.7944 Y-98.5947
G1 X171.6789 Y-98.6770
G1 X171.5656 Y-98.7603
G1 X171.4543 Y-98.8451
G1 X171.3451 Y-98.9310
G1 X171.2382 Y-99.0181
G1 X171.1335 Y-99.1065
G1 X171.0306 Y-99.1959
G1 X170.9301 Y-99.2866
G1 X170.8315 Y-99.3783
G1 X170.7350 Y-99.4710
G1 X170.6405 Y-99.5650
G1 X170.5480 Y-99.6599
G1 X170.4576 Y-99.7560
G1 X170.3692 Y-99.8530
G1 X170.2829 Y-99.9510
G1 X170.1983 Y-100.0503
G1 X170.1160 Y-100.1504
G1 X170.0355 Y-100.2515
G1 X169.9567 Y-100.3536
G1 X169.8800 Y-100.4567
G1 X169.8054 Y-100.5609
G1 X169.7325 Y-100.6658
G1 X169.6613 Y-100.7717
G1 X169.5922 Y-100.8784
G1 X169.5249 Y-100.9861
G1 X169.4597 Y-101.0945
G1 X169.3959 Y-101.2038
G1 X169.3342 Y-101.3140
G1 X169.2742 Y-101.4250
G1 X169.2161 Y-101.5368
G1 X169.1597 Y-101.6493
G1 X169.1048 Y-101.7628
G1 X169.0520 Y-101.8769
G1 X169.0007 Y-101.9917
G1 X168.9511 Y-102.1072
G1 X168.9034 Y-102.2236
G1 X168.8574 Y-102.3407
G1 X168.8130 Y-102.4583
G1 X168.7700 Y-102.5766
G1 X168.7289 Y-102.6955
G1 X168.6895 Y-102.8151
G1 X168.6517 Y-102.9353
G1 X168.6154 Y-103.0562
G1 X168.5806 Y-103.1776
G1 X168.5475 Y-103.2998
G1 X168.5160 Y-103.4222
G1 X168.4861 Y-103.5454
G1 X168.4576 Y-103.6688
G1 X168.4307 Y-103.7930
G1 X168.4053 Y-103.9177
G1 X168.3814 Y-104.0427
G1 X168.3588 Y-104.1684
G1 X168.3380 Y-104.2944
G1 X168.3184 Y-104.4209
G1 X168.3001 Y-104.5477
G1 X168.2836 Y-104.6749
G1 X168.2684 Y-104.8027
G1 X168.2544 Y-104.9307
G1 X168.2420 Y-105.0592
G1 X168.2311 Y-105.1880
G1 X168.2212 Y-105.3170
G1 X168.2128 Y-105.4463
G1 X168.2057 Y-105.5761
G1 X168.2001 Y-105.7059
G1 X168.1955 Y-105.8362
G1 X168.1925 Y-105.9668
G1 X168.1904 Y-106.0973
G1 X168.1899 Y-106.2284
G1 X168.1904 Y-106.3595
G1 X168.1925 Y-106.4908
G1 X168.1955 Y-106.6223
G1 X168.1998 Y-106.7539
G1 X168.2052 Y-106.8857
G1 X168.2120 Y-107.0176
G1 X168.2196 Y-107.1496
G1 X168.2288 Y-107.2817
G1 X168.2387 Y-107.4141
G1 X168.2501 Y-107.5461
G1 X168.2623 Y-107.6785
G1 X168.2758 Y-107.8108
G1 X168.2902 Y-107.9434
G1 X168.3060 Y-108.0757
G1 X168.3225 Y-108.2081
G1 X168.3403 Y-108.3404
G1 X168.3588 Y-108.4727
G1 X168.3786 Y-108.6048
G1 X168.3995 Y-108.7371
G1 X168.4211 Y-108.8692
G1 X168.4437 Y-109.0011
G1 X168.4673 Y-109.1331
G1 X168.4919 Y-109.2647
G1 X168.5173 Y-109.3963
G1 X168.5437 Y-109.5278
G1 X168.5712 Y-109.6589
G1 X168.5994 Y-109.7900
G1 X168.6286 Y-109.9208
G1 X168.6585 Y-110.0513
G1 X168.6893 Y-110.1819
G1 X168.7208 Y-110.3119
G1 X168.7533 Y-110.4417
G1 X168.7866 Y-110.5713
G1 X168.8206 Y-110.7006
G1 X168.8554 Y-110.8293
G1 X168.8910 Y-110.9579
G1 X168.9273 Y-111.0861
G1 X168.9644 Y-111.2142
G1 X169.0022 Y-111.3417
G1 X169.0408 Y-111.4687
G1 X169.0799 Y-111.5954
G1 X169.1198 Y-111.7216
G1 X169.1604 Y-111.8474
G1 X169.2016 Y-111.9729
G1 X169.2435 Y-112.0976
G1 X169.2859 Y-112.2220
G1 X169.3291 Y-112.3460
G1 X169.3728 Y-112.4694
G1 X169.4170 Y-112.5921
G1 X169.4619 Y-112.7145
G1 X169.5074 Y-112.8362
G1 X169.5534 Y-112.9574
G1 X169.5999 Y-113.0780
G1 X169.6469 Y-113.1979
G1 X169.6944 Y-113.3170
G1 X169.7424 Y-113.4359
G1 X169.8396 Y-113.6711
G1 X169.8892 Y-113.7879
G1 X169.9839 Y-114.0059
G1 X170.0812 Y-114.2233
G1 X170.1810 Y-114.4394
G1 X170.2834 Y-114.6551
G1 X170.3880 Y-114.8697
G1 X170.4950 Y-115.0836
G1 X170.6039 Y-115.2969
G1 X170.7147 Y-115.5093
G1 X170.8274 Y-115.7209
G1 X170.9420 Y-115.9320
G1 X171.0578 Y-116.1423
G1 X171.1754 Y-116.3521
G1 X171.2940 Y-116.5614
G1 X171.4142 Y-116.7699
G1 X171.5351 Y-116.9779
G1 X171.6573 Y-117.1854
G1 X171.7799 Y-117.3924
G1 X171.9036 Y-117.5992
G1 X172.0279 Y-117.8052
G1 X172.2775 Y-118.2164
G1 X173.0278 Y-119.4425
G1 X173.2752 Y-119.8494
G1 X173.3979 Y-120.0526
G1 X173.5196 Y-120.2558
G1 X173.6402 Y-120.4587
G1 X174.8625 Y-122.7092
G1 X174.9542 Y-122.8649
G1 X175.1226 Y-123.1463
G1 X175.2006 Y-123.2759
G1 X175.2750 Y-123.4008
G1 X175.3466 Y-123.5232
G1 X175.4154 Y-123.6447
G1 X175.4825 Y-123.7676
G1 X175.5480 Y-123.8936
G1 X175.6128 Y-124.0252
G1 X175.6771 Y-124.1638
G1 X175.7413 Y-124.3119
G1 X175.8064 Y-124.4712
G1 X175.8726 Y-124.6436
G1 X175.9405 Y-124.8316
G1 X176.0103 Y-125.0368
G1 X176.0687 Y-125.2156
G1 X176.1251 Y-125.3955
G1 X176.1792 Y-125.5763
G1 X176.2310 Y-125.7579
G1 X176.2803 Y-125.9401
G1 X176.3273 Y-126.1232
G1 X176.3715 Y-126.3066
G1 X176.4129 Y-126.4905
G1 X176.4513 Y-126.6749
G1 X176.4868 Y-126.8595
G1 X176.5191 Y-127.0442
G1 X176.5478 Y-127.2294
G1 X176.5732 Y-127.4143
G1 X176.5950 Y-127.5992
G1 X176.6133 Y-127.7841
G1 X176.6275 Y-127.9688
G1 X176.6379 Y-128.1532
G1 X176.6443 Y-128.3373
G1 X176.6463 Y-128.5210
G1 X176.6440 Y-128.7038
G1 X176.6372 Y-128.8865
G1 X176.6260 Y-129.0681
G1 X176.6098 Y-129.2489
G1 X176.5889 Y-129.4290
G1 X176.5630 Y-129.6083
G1 X176.5318 Y-129.7864
G1 X176.4957 Y-129.9634
G1 X176.4538 Y-130.1392
G1 X176.4068 Y-130.3137
G1 X176.3540 Y-130.4867
G1 X176.2953 Y-130.6584
G1 X176.2310 Y-130.8285
G1 X176.1388 Y-131.0543
G1 X176.0436 Y-131.2774
G1 X175.9453 Y-131.4981
G1 X175.8439 Y-131.7165
G1 X175.7401 Y-131.9327
G1 X175.6334 Y-132.1468
G1 X175.5242 Y-132.3591
G1 X175.4127 Y-132.5695
G1 X175.2989 Y-132.7782
G1 X175.1828 Y-132.9853
G1 X175.0649 Y-133.1910
G1 X174.9450 Y-133.3952
G1 X174.8236 Y-133.5982
G1 X174.7004 Y-133.8001
G1 X174.5760 Y-134.0013
G1 X174.4500 Y-134.2012
G1 X174.3230 Y-134.4005
G1 X174.1947 Y-134.5994
G1 X174.0657 Y-134.7975
G1 X173.9359 Y-134.9954
G1 X173.8053 Y-135.1930
G1 X173.1475 Y-136.1808
G1 X172.8843 Y-136.5783
G1 X172.7533 Y-136.7780
G1 X172.6230 Y-136.9786
G1 X172.4932 Y-137.1801
G1 X172.3641 Y-137.3825
G1 X171.0439 Y-139.5352
G1 X170.2036 Y-140.9857
G1 X169.5686 Y-142.0767
G1 X168.2171 Y-144.3873
G1 X164.9844 Y-149.8968
G1 X164.1213 Y-151.3738
G1 X163.1173 Y-153.1003
G1 X162.4030 Y-154.3355
G1 X161.6921 Y-155.5722
G1 X160.9852 Y-156.8105
G1 X160.3530 Y-157.9260
G1 X159.7947 Y-158.9187
G1 X159.5171 Y-159.4150
G1 X158.9649 Y-160.4084
G1 X158.4853 Y-161.2781
G1 X157.8742 Y-162.3969
G1 X157.4035 Y-163.2676
G1 X157.0035 Y-164.0139
G1 X156.7386 Y-164.5117
G1 X156.3441 Y-165.2585
G1 X156.0182 Y-165.8808
G1 X155.6304 Y-166.6278
G1 X155.3741 Y-167.1257
G1 X155.0561 Y-167.7482
G1 X154.7411 Y-168.3708
G1 X154.4290 Y-168.9936
G1 X154.1816 Y-169.4914
G1 X153.9359 Y-169.9895
G1 X153.5717 Y-170.7365
G1 X153.3914 Y-171.1101
G1 X153.3215 Y-171.2565
G1 X153.2534 Y-171.4025
G1 X153.1864 Y-171.5488
G1 X153.1211 Y-171.6949
G1 X153.0571 Y-171.8407
G1 X152.9946 Y-171.9867
G1 X152.9334 Y-172.1325
G1 X152.8737 Y-172.2780
G1 X152.8153 Y-172.4238
G1 X152.7584 Y-172.5694
G1 X152.7030 Y-172.7147
G1 X152.6489 Y-172.8600
G1 X152.5961 Y-173.0052
G1 X152.5448 Y-173.1503
G1 X152.4947 Y-173.2953
G1 X152.4462 Y-173.4401
G1 X152.3990 Y-173.5846
G1 X152.3530 Y-173.7294
G1 X152.3086 Y-173.8739
G1 X152.2654 Y-174.0182
G1 X152.2235 Y-174.1622
G1 X152.1831 Y-174.3065
G1 X152.1440 Y-174.4502
G1 X152.1061 Y-174.5940
G1 X152.0698 Y-174.7378
G1 X152.0345 Y-174.8813
G1 X152.0007 Y-175.0245
G1 X151.9682 Y-175.1678
G1 X151.9372 Y-175.3108
G1 X151.9072 Y-175.4535
G1 X151.8785 Y-175.5963
G1 X151.8514 Y-175.7388
G1 X151.8255 Y-175.8813
G1 X151.8006 Y-176.0235
G1 X151.7772 Y-176.1655
G1 X151.7551 Y-176.3072
G1 X151.7343 Y-176.4490
G1 X151.7145 Y-176.5905
G1 X151.6962 Y-176.7317
G1 X151.6791 Y-176.8726
G1 X151.6631 Y-177.0136
G1 X151.6487 Y-177.1543
G1 X151.6352 Y-177.2948
G1 X151.6230 Y-177.4353
G1 X151.6121 Y-177.5752
G1 X151.6024 Y-177.7152
G1 X151.5941 Y-177.8549
G1 X151.5869 Y-177.9943
G1 X151.5808 Y-178.1335
G1 X151.5760 Y-178.2724
G1 X151.5725 Y-178.4114
G1 X151.5699 Y-178.5498
G1 X151.5687 Y-178.6882
G1 X151.5687 Y-178.8264
G1 X151.5699 Y-178.9641
G1 X151.5722 Y-179.1018
G1 X151.5758 Y-179.2392
G1 X151.5803 Y-179.3763
G1 X151.5862 Y-179.5132
G1 X151.5930 Y-179.6499
G1 X151.6012 Y-179.7863
G1 X151.6106 Y-179.9224
G1 X151.6210 Y-180.0583
G1 X151.6324 Y-180.1940
G1 X151.6451 Y-180.3291
G1 X151.6591 Y-180.4642
G1 X151.6741 Y-180.5991
G1 X151.6901 Y-180.7337
G1 X151.7071 Y-180.8678
G1 X151.7254 Y-181.0019
G1 X151.7449 Y-181.1355
G1 X151.7653 Y-181.2689
G1 X151.7868 Y-181.4020
G1 X151.8097 Y-181.5348
G1 X151.8333 Y-181.6674
G1 X151.8582 Y-181.7995
G1 X151.8841 Y-181.9316
G1 X151.9110 Y-182.0631
G1 X151.9390 Y-182.1945
G1 X151.9682 Y-182.3253
G1 X151.9984 Y-182.4561
G1 X152.0297 Y-182.5864
G1 X152.0619 Y-182.7164
G1 X152.0952 Y-182.8462
G1 X152.1295 Y-182.9755
G1 X152.1648 Y-183.1045
G1 X152.2011 Y-183.2333
G1 X152.2385 Y-183.3618
G1 X152.2771 Y-183.4899
G1 X152.3164 Y-183.6176
G1 X152.3568 Y-183.7449
G1 X152.3982 Y-183.8719
G1 X152.4406 Y-183.9986
G1 X152.4841 Y-184.1249
G1 X152.5285 Y-184.2508
G1 X152.5740 Y-184.3766
G1 X152.6202 Y-184.5018
G1 X152.6675 Y-184.6265
G1 X152.7160 Y-184.7512
G1 X152.7653 Y-184.8752
G1 X152.8153 Y-184.9991
G1 X152.8666 Y-185.1223
G1 X152.9187 Y-185.2455
G1 X152.9718 Y-185.3679
G1 X153.0256 Y-185.4904
G1 X153.0805 Y-185.6120
G1 X153.1363 Y-185.7337
G1 X153.1932 Y-185.8546
G1 X153.2509 Y-185.9752
G1 X153.3096 Y-186.0956
G1 X153.3690 Y-186.2155
G1 X153.4295 Y-186.3349
G1 X153.4907 Y-186.4540
G1 X153.5529 Y-186.5727
G1 X153.6159 Y-186.6908
G1 X153.6799 Y-186.8086
G1 X153.7449 Y-186.9260
G1 X153.8105 Y-187.0428
G1 X153.8773 Y-187.1594
G1 X153.9446 Y-187.2755
G1 X154.0129 Y-187.3910
G1 X154.0820 Y-187.5064
G1 X154.1521 Y-187.6212
G1 X154.2230 Y-187.7355
G1 X154.2946 Y-187.8493
G1 X154.3672 Y-187.9628
G1 X154.4406 Y-188.0758
G1 X154.5148 Y-188.1883
G1 X154.5897 Y-188.3004
G1 X154.6654 Y-188.4119
G1 X154.7421 Y-188.5231
G1 X154.8196 Y-188.6336
G1 X154.8978 Y-188.7438
G1 X154.9768 Y-188.8536
G1 X155.0566 Y-188.9628
G1 X155.1371 Y-189.0718
G1 X155.2186 Y-189.1800
G1 X155.3007 Y-189.2879
G1 X155.3837 Y-189.3951
G1 X155.4673 Y-189.5020
G1 X155.5519 Y-189.6082
G1 X155.6370 Y-189.7141
G1 X155.7228 Y-189.8195
G1 X155.8097 Y-189.9242
G1 X155.8971 Y-190.0286
G1 X155.9852 Y-190.1325
G1 X156.0741 Y-190.2356
G1 X156.1638 Y-190.3385
G1 X156.2542 Y-190.4408
G1 X156.3451 Y-190.5424
G1 X156.4368 Y-190.6438
G1 X156.6225 Y-190.8447
G1 X156.7165 Y-190.9442
G1 X156.8110 Y-191.0433
G1 X156.9062 Y-191.1419
G1 X157.0022 Y-191.2399
G1 X157.0987 Y-191.3372
G1 X157.1960 Y-191.4342
G1 X157.2941 Y-191.5305
G1 X157.3926 Y-191.6265
G1 X157.4919 Y-191.7217
G1 X157.6923 Y-191.9105
G1 X157.7937 Y-192.0039
G1 X157.8955 Y-192.0969
G1 X157.9979 Y-192.1894
G1 X158.1010 Y-192.2813
G1 X158.2049 Y-192.3725
G1 X158.3093 Y-192.4632
G1 X158.4142 Y-192.5533
G1 X158.5196 Y-192.6427
G1 X158.6258 Y-192.7316
G1 X158.7327 Y-192.8200
G1 X158.8399 Y-192.9079
G1 X158.9479 Y-192.9950
G1 X159.0566 Y-193.0814
G1 X159.1655 Y-193.1673
G1 X159.2753 Y-193.2526
G1 X159.3855 Y-193.3374
G1 X159.4965 Y-193.4215
G1 X159.6078 Y-193.5048
G1 X159.7198 Y-193.5879
G1 X159.9453 Y-193.7517
G1 X160.1729 Y-193.9130
G1 X160.2875 Y-193.9925
G1 X160.4028 Y-194.0717
G1 X160.6344 Y-194.2280
G1 X160.7513 Y-194.3049
G1 X160.8684 Y-194.3814
G1 X160.9862 Y-194.4573
G1 X161.1043 Y-194.5325
G1 X161.2229 Y-194.6069
G1 X161.3421 Y-194.6808
G1 X161.4617 Y-194.7540
G1 X161.5818 Y-194.8264
G1 X161.7025 Y-194.8983
G1 X161.8237 Y-194.9694
G1 X161.9451 Y-195.0400
G1 X162.0670 Y-195.1096
G1 X162.1897 Y-195.1789
G1 X162.3124 Y-195.2473
G1 X162.4358 Y-195.3151
G1 X162.5595 Y-195.3821
G1 X162.6837 Y-195.4484
G1 X162.8082 Y-195.5140
G1 X162.9334 Y-195.5790
G1 X163.0589 Y-195.6432
G1 X163.1846 Y-195.7067
G1 X163.3108 Y-195.7695
G1 X163.4376 Y-195.8317
G1 X163.5646 Y-195.8932
G1 X163.8198 Y-196.0138
G1 X163.9481 Y-196.0730
G1 X164.0766 Y-196.1314
G1 X164.2057 Y-196.1891
G1 X164.3350 Y-196.2462
G1 X164.4647 Y-196.3026
G1 X164.5948 Y-196.3580
G1 X164.7253 Y-196.4129
G1 X164.8559 Y-196.4670
G1 X164.9872 Y-196.5203
G1 X165.1185 Y-196.5729
G1 X165.2504 Y-196.6244
G1 X165.3824 Y-196.6755
G1 X165.5148 Y-196.7258
G1 X165.6476 Y-196.7753
G1 X165.7807 Y-196.8241
G1 X165.9141 Y-196.8721
G1 X166.0477 Y-196.9193
G1 X166.1818 Y-196.9658
G1 X166.3159 Y-197.0113
G1 X166.4505 Y-197.0562
G1 X166.5854 Y-197.1002
G1 X166.7205 Y-197.1436
G1 X166.8559 Y-197.1860
G1 X166.9915 Y-197.2277
G1 X167.1274 Y-197.2686
G1 X167.2636 Y-197.3087
G1 X167.4000 Y-197.3481
G1 X167.5366 Y-197.3864
G1 X167.6738 Y-197.4243
G1 X167.8109 Y-197.4611
G1 X167.9484 Y-197.4972
G1 X168.0858 Y-197.5322
G1 X168.2237 Y-197.5668
G1 X168.3619 Y-197.6003
G1 X168.5000 Y-197.6331
G1 X168.6387 Y-197.6651
G1 X168.7774 Y-197.6961
G1 X168.9163 Y-197.7263
G1 X169.0553 Y-197.7558
G1 X169.5468 Y-197.8569
G1 X169.7109 Y-197.8901
G1 X170.2046 Y-197.9882
G1 X170.5351 Y-198.0524
G1 X170.8661 Y-198.1157
G1 X171.1978 Y-198.1779
G1 X171.5303 Y-198.2391
G1 X171.8635 Y-198.2993
G1 X172.1975 Y-198.3585
G1 X172.5320 Y-198.4164
G1 X172.8673 Y-198.4733
G1 X173.3715 Y-198.5566
G1 X173.8770 Y-198.6371
G1 X174.2148 Y-198.6895
G1 X174.5531 Y-198.7408
G1 X175.0614 Y-198.8152
G1 X175.5711 Y-198.8868
G1 X175.9115 Y-198.9331
G1 X176.2521 Y-198.9780
G1 X176.5935 Y-199.0217
G1 X176.9351 Y-199.0641
G1 X177.1061 Y-199.0849
G1 X177.4485 Y-199.1253
G1 X177.7911 Y-199.1642
G1 X178.1340 Y-199.2020
G1 X178.4774 Y-199.2384
G1 X178.8211 Y-199.2732
G1 X179.1650 Y-199.3067
G1 X179.5092 Y-199.3389
G1 X180.0261 Y-199.3844
G1 X180.3707 Y-199.4129
G1 X180.7157 Y-199.4398
G1 X181.0609 Y-199.4652
G1 X181.4063 Y-199.4891
G1 X181.7517 Y-199.5117
G1 X182.0974 Y-199.5325
G1 X182.4431 Y-199.5518
G1 X182.7891 Y-199.5696
G1 X183.1348 Y-199.5856
G1 X183.4807 Y-199.6001
G1 X183.8267 Y-199.6130
G1 X184.1726 Y-199.6242
G1 X184.6915 Y-199.6379
G1 X185.2105 Y-199.6478
G1 X185.5561 Y-199.6521
G1 X185.9018 Y-199.6549
G1 X186.4203 Y-199.6557
G1 X186.7657 Y-199.6539
G1 X187.1109 Y-199.6504
G1 X187.4558 Y-199.6450
G1 X187.6283 Y-199.6417
G1 X187.9730 Y-199.6336
G1 X188.1452 Y-199.6290
G1 X188.4896 Y-199.6181
G1 X188.8338 Y-199.6054
G1 X189.1774 Y-199.5907
G1 X189.3491 Y-199.5828
G1 X189.6925 Y-199.5653
G1 X190.0357 Y-199.5457
G1 X190.3783 Y-199.5244
G1 X190.5495 Y-199.5129
G1 X190.8917 Y-199.4886
G1 X191.2333 Y-199.4624
G1 X191.4040 Y-199.4484
G1 X191.7451 Y-199.4190
G1 X192.0855 Y-199.3877
G1 X192.4258 Y-199.3542
G1 X192.7654 Y-199.3186
G1 X192.9351 Y-199.3001
G1 X193.2739 Y-199.2615
G1 X193.4431 Y-199.2414
G1 X193.7812 Y-199.1995
G1 X194.1185 Y-199.1556
G1 X194.2871 Y-199.1327
G1 X194.4555 Y-199.1093
G1 X194.7918 Y-199.0611
G1 X194.9597 Y-199.0362
G1 X195.2950 Y-198.9846
G1 X195.4624 Y-198.9579
G1 X195.7967 Y-198.9031
G1 X195.9635 Y-198.8749
G1 X196.1304 Y-198.8459
G1 X196.4632 Y-198.7865
G1 X196.6295 Y-198.7560
G1 X196.9613 Y-198.6933
G1 X197.1269 Y-198.6610
G1 X197.4576 Y-198.5947
G1 X197.6227 Y-198.5607
G1 X197.7875 Y-198.5261
G1 X198.1164 Y-198.4553
G1 X198.2808 Y-198.4190
G1 X198.6087 Y-198.3445
G1 X198.7723 Y-198.3064
G1 X198.9356 Y-198.2676
G1 X199.2617 Y-198.1883
G1 X199.4243 Y-198.1479
G1 X199.5868 Y-198.1068
G1 X199.7492 Y-198.0651
G1 X199.9112 Y-198.0227
G1 X200.0730 Y-197.9798
G1 X200.3958 Y-197.8922
G1 X200.5569 Y-197.8472
G1 X200.7177 Y-197.8017
G1 X200.8782 Y-197.7558
G1 X201.0385 Y-197.7093
G1 X201.3585 Y-197.6140
G1 X201.5180 Y-197.5655
G1 X201.6773 Y-197.5162
G1 X201.8363 Y-197.4665
G1 X201.9950 Y-197.4159
G1 X202.1535 Y-197.3649
G1 X202.3118 Y-197.3133
G1 X202.6275 Y-197.2079
G1 X202.9422 Y-197.0999
G1 X203.0989 Y-197.0448
G1 X203.4118 Y-196.9331
G1 X203.5678 Y-196.8762
G1 X203.7235 Y-196.8185
G1 X203.8789 Y-196.7603
G1 X204.0339 Y-196.7014
G1 X204.1888 Y-196.6417
G1 X204.3433 Y-196.5815
G1 X204.4974 Y-196.5206
G1 X204.6514 Y-196.4591
G1 X204.8050 Y-196.3969
G1 X205.1113 Y-196.2704
G1 X205.4161 Y-196.1411
G1 X205.5683 Y-196.0753
G1 X205.7199 Y-196.0090
G1 X205.8713 Y-195.9419
G1 X206.0224 Y-195.8741
G1 X206.1731 Y-195.8058
G1 X206.3234 Y-195.7367
G1 X206.6232 Y-195.5965
G1 X206.7725 Y-195.5251
G1 X206.9214 Y-195.4533
G1 X207.0702 Y-195.3806
G1 X207.2185 Y-195.3072
G1 X207.3664 Y-195.2333
G1 X207.5139 Y-195.1586
G1 X207.6613 Y-195.0832
G1 X207.8081 Y-195.0070
G1 X207.9546 Y-194.9300
G1 X208.1007 Y-194.8523
G1 X208.2465 Y-194.7741
G1 X208.3920 Y-194.6951
G1 X208.5370 Y-194.6153
G1 X208.6818 Y-194.5348
G1 X208.8261 Y-194.4535
G1 X208.9699 Y-194.3715
G1 X209.1136 Y-194.2887
G1 X209.2566 Y-194.2054
G1 X209.3994 Y-194.1210
G1 X209.5419 Y-194.0362
G1 X209.6839 Y-193.9506
G1 X209.8253 Y-193.8642
G1 X209.9666 Y-193.7769
G1 X210.1075 Y-193.6890
G1 X210.2480 Y-193.6003
G1 X210.3879 Y-193.5109
G1 X210.5274 Y-193.4207
G1 X210.6666 Y-193.3298
G1 X210.8055 Y-193.2381
G1 X210.9437 Y-193.1457
G1 X211.0819 Y-193.0524
G1 X211.2818 Y-192.9153
G1 X211.4804 Y-192.7766
G1 X211.6775 Y-192.6364
G1 X211.8731 Y-192.4944
G1 X212.0671 Y-192.3512
G1 X212.2599 Y-192.2064
G1 X212.4512 Y-192.0603
G1 X212.6409 Y-191.9125
G1 X212.8294 Y-191.7634
G1 X213.0166 Y-191.6130
G1 X213.2023 Y-191.4611
G1 X213.3867 Y-191.3077
G1 X213.5695 Y-191.1530
G1 X213.7512 Y-190.9971
G1 X213.9312 Y-190.8396
G1 X214.1101 Y-190.6808
G1 X214.2876 Y-190.5208
G1 X214.4639 Y-190.3593
G1 X214.6389 Y-190.1967
G1 X214.8126 Y-190.0326
G1 X214.9848 Y-189.8675
G1 X215.1560 Y-189.7009
G1 X215.3257 Y-189.5333
G1 X215.4944 Y-189.3644
G1 X215.6615 Y-189.1942
G1 X215.8276 Y-189.0230
G1 X215.9925 Y-188.8505
G1 X216.1560 Y-188.6768
G1 X216.3186 Y-188.5020
G1 X216.4796 Y-188.3260
G1 X216.6396 Y-188.1490
G1 X216.7987 Y-187.9709
G1 X216.9564 Y-187.7916
G1 X217.1129 Y-187.6113
G1 X217.2683 Y-187.4299
G1 X217.4225 Y-187.2475
G1 X217.5756 Y-187.0639
G1 X217.7275 Y-186.8795
G1 X217.8784 Y-186.6941
G1 X218.0283 Y-186.5074
G1 X218.1771 Y-186.3202
G1 X218.3247 Y-186.1317
G1 X218.4712 Y-185.9422
G1 X218.6168 Y-185.7520
G1 X218.7613 Y-185.5607
G1 X218.9046 Y-185.3687
G1 X219.0471 Y-185.1757
G1 X219.1885 Y-184.9819
G1 X219.3290 Y-184.7870
G1 X219.4682 Y-184.5915
G1 X219.6066 Y-184.3951
G1 X219.7443 Y-184.1980
G1 X219.8807 Y-183.9999
G1 X220.0161 Y-183.8013
G1 X220.1507 Y-183.6016
G1 X220.2843 Y-183.4012
G1 X220.4171 Y-183.2003
G1 X220.5490 Y-182.9984
G1 X220.6798 Y-182.7959
G1 X220.8098 Y-182.5927
G1 X220.9391 Y-182.3888
G1 X221.0674 Y-182.1843
G1 X221.1946 Y-181.9791
G1 X221.3211 Y-181.7731
G1 X221.4469 Y-181.5666
G1 X221.5718 Y-181.3596
G1 X221.6958 Y-181.1518
G1 X221.8192 Y-180.9435
G1 X221.9416 Y-180.7347
G1 X222.0631 Y-180.5254
G1 X222.1840 Y-180.3154
G1 X222.3041 Y-180.1051
G1 X222.4235 Y-179.8940
G1 X222.5421 Y-179.6824
G1 X222.6600 Y-179.4706
G1 X222.7771 Y-179.2582
G1 X222.8934 Y-179.0451
G1 X223.0090 Y-178.8320
G1 X223.1240 Y-178.6181
G1 X223.2383 Y-178.4040
G1 X223.3519 Y-178.1894
G1 X223.4649 Y-177.9745
G1 X223.5771 Y-177.7594
G1 X223.6887 Y-177.5437
G1 X223.7997 Y-177.3276
G1 X223.9099 Y-177.1114
G1 X224.0196 Y-176.8947
G1 X224.1288 Y-176.6778
G1 X224.2373 Y-176.4607
G1 X224.3452 Y-176.2432
G1 X224.4527 Y-176.0256
G1 X224.5594 Y-175.8076
G1 X224.6655 Y-175.5894
G1 X224.8764 Y-175.1526
G1 X224.9810 Y-174.9336
G1 X225.1885 Y-174.4957
G1 X225.3943 Y-174.0573
G1 X225.5980 Y-173.6184
G1 X225.7999 Y-173.1792
G1 X226.0001 Y-172.7398
G1 X226.1984 Y-172.3001
G1 X226.3953 Y-171.8607
G1 X226.5906 Y-171.4216
G1 X226.8812 Y-170.7632
G1 X227.2637 Y-169.8869
G1 X227.6419 Y-169.0134
G1 X228.4611 Y-167.1058
G1 X228.7466 Y-166.4345
G1 X229.0224 Y-165.7779
G1 X229.2312 Y-165.2748
G1 X229.4479 Y-164.7467
G1 X229.6251 Y-164.3085
G1 X229.7600 Y-163.9720
G1 X229.8507 Y-163.7439
G1 X229.9871 Y-163.3974
G1 X230.0783 Y-163.1638
G1 X230.2152 Y-162.8094
G1 X230.3971 Y-162.3314
G1 X230.5774 Y-161.8483
G1 X230.7112 Y-161.4838
G1 X230.8431 Y-161.1180
G1 X230.9297 Y-160.8739
G1 X231.0577 Y-160.5079
G1 X231.1413 Y-160.2641
G1 X231.2640 Y-159.8996
G1 X231.3831 Y-159.5369
G1 X231.4603 Y-159.2966
G1 X231.5355 Y-159.0576
G1 X231.6086 Y-158.8204
G1 X231.6797 Y-158.5846
G1 X231.7483 Y-158.3510
G1 X231.7819 Y-158.2351
G1 X231.8469 Y-158.0048
G1 X231.9094 Y-157.7772
G1 X231.9691 Y-157.5521
G1 X231.9978 Y-157.4409
G1 X232.0531 Y-157.2204
G1 X232.1055 Y-157.0030
G1 X232.1303 Y-156.8958
G1 X232.1545 Y-156.7894
G1 X232.2004 Y-156.5793
G1 X232.2220 Y-156.4757
G1 X232.2429 Y-156.3731
G1 X232.2627 Y-156.2715
G1 X232.2817 Y-156.1709
G1 X232.2998 Y-156.0713
G1 X232.3170 Y-155.9730
G1 X232.3333 Y-155.8757
G1 X232.3485 Y-155.7797
G1 X232.3628 Y-155.6847
G1 X232.3760 Y-155.5913
G1 X232.3884 Y-155.4988
G1 X232.3996 Y-155.4076
G1 X232.4097 Y-155.3177
G1 X232.4189 Y-155.2291
G1 X232.4270 Y-155.1417
G1 X232.4341 Y-155.0558
G1 X232.4400 Y-154.9712
G1 X232.4448 Y-154.8882
G1 X232.4484 Y-154.8066
G1 X232.4509 Y-154.7264
G1 X232.4524 Y-154.6476
G1 X232.4539 Y-154.6479
G1 X232.4545 Y-154.4714
G1 X232.4524 Y-154.2959
G1 X232.4476 Y-154.1211
G1 X232.4400 Y-153.9474
G1 X232.4298 Y-153.7744
G1 X232.4171 Y-153.6024
G1 X232.4014 Y-153.4315
G1 X232.3831 Y-153.2616
G1 X232.3620 Y-153.0927
G1 X232.3384 Y-152.9248
G1 X232.3117 Y-152.7579
G1 X232.2822 Y-152.5923
G1 X232.2502 Y-152.4277
G1 X232.2152 Y-152.2641
G1 X232.1773 Y-152.1021
G1 X232.1369 Y-151.9410
G1 X232.0933 Y-151.7813
G1 X232.0470 Y-151.6228
G1 X231.9978 Y-151.4655
G1 X231.9457 Y-151.3096
G1 X231.8908 Y-151.1551
G1 X231.8329 Y-151.0020
G1 X231.7720 Y-150.8503
G1 X231.7082 Y-150.7000
G1 X231.6416 Y-150.5511
G1 X231.5718 Y-150.4038
G1 X231.4992 Y-150.2580
G1 X231.4235 Y-150.1137
G1 X231.3447 Y-149.9710
G1 X231.2629 Y-149.8300
G1 X231.1784 Y-149.6906
G1 X231.0905 Y-149.5527
G1 X230.9995 Y-149.4168
G1 X230.9056 Y-149.2822
G1 X230.8085 Y-149.1496
G1 X230.7085 Y-149.0188
G1 X230.6053 Y-148.8897
G1 X230.4989 Y-148.7622
G1 X230.3892 Y-148.6370
G1 X230.2767 Y-148.5133
G1 X230.1608 Y-148.3916
G1 X230.0417 Y-148.2720
G1 X229.9195 Y-148.1541
G1 X229.7941 Y-148.0386
G1 X229.6653 Y-147.9248
G1 X229.5332 Y-147.8130
G1 X229.3981 Y-147.7033
G1 X229.2596 Y-147.5958
G1 X229.1179 Y-147.4904
G1 X228.9729 Y-147.3871
G1 X228.8245 Y-147.2860
G1 X228.6729 Y-147.1872
G1 X228.5180 Y-147.0904
G1 X228.3595 Y-146.9962
G1 X228.1979 Y-146.9039
G1 X228.0328 Y-146.8143
G1 X227.8644 Y-146.7267
G1 X227.6925 Y-146.6416
G1 X227.5172 Y-146.5590
G1 X227.3384 Y-146.4788
G1 X227.1563 Y-146.4010
G1 X226.9708 Y-146.3256
G1 X226.7816 Y-146.2529
G1 X226.5891 Y-146.1826
G1 X226.4034 Y-146.1171
G1 X226.2883 Y-146.0772
G1 X226.1641 Y-146.0350
G1 X226.0349 Y-145.9931
G1 X225.9046 Y-145.9532
G1 X225.7773 Y-145.9174
G1 X225.6577 Y-145.8877
G1 X225.3760 Y-145.8247
G1 X225.2543 Y-145.7968
G1 X225.1446 Y-145.7703
G1 X225.0458 Y-145.7452
G1 X224.9576 Y-145.7206
G1 X224.8794 Y-145.6959
G1 X224.8106 Y-145.6705
G1 X224.7501 Y-145.6441
G1 X224.6975 Y-145.6162
G1 X224.6523 Y-145.5857
G1 X224.6137 Y-145.5524
G1 X224.5812 Y-145.5158
G1 X224.5540 Y-145.4755
G1 X224.5314 Y-145.4302
G1 X224.5129 Y-145.3802
G1 X224.4976 Y-145.3246
G1 X224.4849 Y-145.2626
G1 X224.4745 Y-145.1938
G1 X224.4656 Y-145.1178
G1 X224.4573 Y-145.0340
G1 X224.4306 Y-144.7297
G1 X224.4187 Y-144.6086
G1 X224.4044 Y-144.4770
G1 X224.3872 Y-144.3342
G1 X224.3658 Y-144.1795
G1 X224.3402 Y-144.0127
G1 X224.3094 Y-143.8328
G1 X224.2729 Y-143.6393
G1 X224.2299 Y-143.4320
G1 X224.1956 Y-143.2796
G1 X224.1593 Y-143.1282
G1 X224.1207 Y-142.9781
G1 X224.0801 Y-142.8290
G1 X224.0371 Y-142.6812
G1 X223.9922 Y-142.5344
G1 X223.9452 Y-142.3888
G1 X223.8959 Y-142.2446
G1 X223.8446 Y-142.1016
G1 X223.7913 Y-141.9598
G1 X223.7359 Y-141.8191
G1 X223.6782 Y-141.6799
G1 X223.6188 Y-141.5420
G1 X223.5573 Y-141.4054
G1 X223.4936 Y-141.2700
G1 X223.4281 Y-141.1359
G1 X223.3605 Y-141.0033
G1 X223.2911 Y-140.8720
G1 X223.2195 Y-140.7422
G1 X223.1461 Y-140.6139
G1 X223.0707 Y-140.4869
G1 X222.9932 Y-140.3612
G1 X222.9140 Y-140.2372
G1 X222.8329 Y-140.1145
G1 X222.7499 Y-139.9936
G1 X222.6648 Y-139.8740
G1 X222.5779 Y-139.7561
G1 X222.4893 Y-139.6395
G1 X222.3988 Y-139.5247
G1 X222.3064 Y-139.4115
G1 X222.2122 Y-139.2997
G1 X222.1161 Y-139.1897
G1 X222.0184 Y-139.0813
G1 X221.9188 Y-138.9746
G1 X221.8174 Y-138.8694
G1 X221.7143 Y-138.7660
G1 X221.6094 Y-138.6644
G1 X221.5027 Y-138.5646
G1 X221.3945 Y-138.4663
G1 X221.2843 Y-138.3698
G1 X221.1725 Y-138.2753
G1 X221.0590 Y-138.1823
G1 X220.9439 Y-138.0914
G1 X220.8271 Y-138.0023
G1 X220.7087 Y-137.9149
G1 X220.5886 Y-137.8293
G1 X220.4669 Y-137.7457
G1 X220.3435 Y-137.6642
G1 X220.2185 Y-137.5844
G1 X220.0920 Y-137.5065
G1 X219.9640 Y-137.4308
G1 X219.8342 Y-137.3569
G1 X219.7029 Y-137.2850
G1 X219.5700 Y-137.2149
G1 X219.4357 Y-137.1470
G1 X219.2998 Y-137.0813
G1 X219.1626 Y-137.0175
G1 X219.0237 Y-136.9558
G1 X218.8832 Y-136.8961
G1 X218.7415 Y-136.8387
G1 X218.5982 Y-136.7833
G1 X218.4535 Y-136.7300
G1 X218.3072 Y-136.6789
G1 X218.1596 Y-136.6302
G1 X217.9686 Y-136.5707
G1 X217.7816 Y-136.5169
G1 X217.5982 Y-136.4684
G1 X217.4177 Y-136.4249
G1 X217.2396 Y-136.3863
G1 X217.0633 Y-136.3520
G1 X216.8883 Y-136.3221
G1 X216.7141 Y-136.2961
G1 X216.5398 Y-136.2738
G1 X216.3653 Y-136.2550
G1 X216.1898 Y-136.2392
G1 X216.0125 Y-136.2266
G1 X215.8332 Y-136.2161
G1 X215.6511 Y-136.2085
G1 X215.4659 Y-136.2027
G1 X215.2767 Y-136.1989
G1 X215.0704 Y-136.1966
G1 X214.8815 Y-136.1966
G1 X214.7087 Y-136.1984
G1 X214.5515 Y-136.2011
G1 X214.4093 Y-136.2045
G1 X214.1654 Y-136.2111
G1 X214.0623 Y-136.2133
G1 X213.9709 Y-136.2141
G1 X213.8901 Y-136.2128
G1 X213.8192 Y-136.2093
G1 X213.7573 Y-136.2027
G1 X213.7039 Y-136.1928
G1 X213.6579 Y-136.1785
G1 X213.6186 Y-136.1600
G1 X213.5850 Y-136.1366
G1 X213.5566 Y-136.1074
G1 X213.5325 Y-136.0724
G1 X213.5119 Y-136.0310
G1 X213.4939 Y-135.9822
G1 X213.4776 Y-135.9261
G1 X213.4626 Y-135.8618
G1 X213.4476 Y-135.7889
G1 X213.4321 Y-135.7071
G1 X213.4154 Y-135.6157
G1 X213.3961 Y-135.5141
G1 X213.3740 Y-135.4018
G1 X213.3483 Y-135.2784
G1 X213.3176 Y-135.1435
G1 X213.2818 Y-134.9964
G1 X213.2396 Y-134.8367
G1 X213.1903 Y-134.6637
G1 X213.1337 Y-134.4798
G1 X213.0727 Y-134.2972
G1 X213.0074 Y-134.1156
G1 X212.9379 Y-133.9355
G1 X212.8644 Y-133.7567
G1 X212.7867 Y-133.5794
G1 X212.7052 Y-133.4038
G1 X212.6198 Y-133.2301
G1 X212.5304 Y-133.0582
G1 X212.4375 Y-132.8880
G1 X212.3410 Y-132.7201
G1 X212.2406 Y-132.5545
G1 X212.1370 Y-132.3912
G1 X212.0298 Y-132.2301
G1 X211.9191 Y-132.0716
G1 X211.8053 Y-131.9157
G1 X211.6882 Y-131.7625
G1 X211.5680 Y-131.6121
G1 X211.4448 Y-131.4648
G1 X211.3186 Y-131.3203
G1 X211.1893 Y-131.1791
G1 X211.0572 Y-131.0411
G1 X210.9224 Y-130.9068
G1 X210.7849 Y-130.7757
G1 X210.6447 Y-130.6482
G1 X210.5020 Y-130.5242
G1 X210.3570 Y-130.4044
G1 X210.2094 Y-130.2883
G1 X210.0593 Y-130.1763
G1 X209.9071 Y-130.0683
G1 X209.7527 Y-129.9644
G1 X209.5962 Y-129.8651
G1 X209.4774 Y-129.7925
G1 X209.3590 Y-129.7216
G1 X209.2411 Y-129.6528
G1 X209.1238 Y-129.5855
G1 X209.0067 Y-129.5202
G1 X208.8899 Y-129.4567
G1 X208.7733 Y-129.3950
G1 X208.6564 Y-129.3353
G1 X208.5398 Y-129.2774
G1 X208.4230 Y-129.2212
G1 X208.3062 Y-129.1669
G1 X208.1888 Y-129.1146
G1 X208.0710 Y-129.0643
G1 X207.9526 Y-129.0155
G1 X207.8337 Y-128.9688
G1 X207.7138 Y-128.9240
G1 X207.5934 Y-128.8811
G1 X207.4720 Y-128.8402
G1 X207.3496 Y-128.8014
G1 X207.2259 Y-128.7640
G1 X207.1012 Y-128.7290
G1 X206.9749 Y-128.6957
G1 X206.8474 Y-128.6645
G1 X206.7184 Y-128.6353
G1 X206.5879 Y-128.6078
G1 X206.4555 Y-128.5824
G1 X206.3214 Y-128.5591
G1 X206.1855 Y-128.5377
G1 X206.0476 Y-128.5182
G1 X205.9074 Y-128.5009
G1 X205.7651 Y-128.4854
G1 X205.6206 Y-128.4719
G1 X205.4327 Y-128.4587
G1 X205.2683 Y-128.4503
G1 X205.1268 Y-128.4445
G1 X205.0082 Y-128.4389
G1 X204.9122 Y-128.4313
G1 X204.8388 Y-128.4191
G1 X204.7872 Y-128.4000
G1 X204.7578 Y-128.3719
G1 X204.7499 Y-128.3320
G1 X204.7634 Y-128.2781
G1 X204.7982 Y-128.2083
G1 X204.8540 Y-128.1194
G1 X204.9308 Y-128.0096
G1 X205.0278 Y-127.8766
G1 X205.1454 Y-127.7178
G1 X205.2828 Y-127.5306
G1 X205.3844 Y-127.3932
G1 X205.4906 Y-127.2525
G1 X205.6008 Y-127.1085
G1 X205.7149 Y-126.9619
G1 X205.8322 Y-126.8128
G1 X205.9531 Y-126.6614
G1 X206.0765 Y-126.5080
G1 X206.2025 Y-126.3531
G1 X206.3305 Y-126.1969
G1 X206.5919 Y-125.8809
G1 X206.7245 Y-125.7219
G1 X206.9920 Y-125.4031
G1 X207.9150 Y-124.3089
G1 X208.0407 Y-124.1590
G1 X208.2846 Y-123.8664
G1 X208.5155 Y-123.5855
G1 X208.6254 Y-123.4501
G1 X208.7311 Y-123.3183
G1 X208.8324 Y-123.1908
G1 X208.9287 Y-123.0673
G1 X209.0199 Y-122.9484
G1 X209.1055 Y-122.8347
G1 X210.2660 Y-121.2726
G1 X210.5995 Y-120.8194
G1 X210.8492 Y-120.4775
G1 X211.0976 Y-120.1339
G1 X211.3448 Y-119.7884
G1 X211.5086 Y-119.5570
G1 X211.6712 Y-119.3249
G1 X211.9132 Y-118.9749
G1 X211.9932 Y-118.8578
G1 X212.1522 Y-118.6228
G1 X212.3097 Y-118.3871
G1 X212.4654 Y-118.1504
G1 X212.6196 Y-117.9129
G1 X212.7717 Y-117.6744
G1 X212.9219 Y-117.4349
G1 X213.0697 Y-117.1946
G1 X213.1428 Y-117.0739
G1 X213.2155 Y-116.9530
G1 X213.2874 Y-116.8321
G1 X213.4293 Y-116.5893
G1 X213.5685 Y-116.3455
G1 X213.6371 Y-116.2230
G1 X213.7049 Y-116.1006
G1 X213.7722 Y-115.9777
G1 X213.8388 Y-115.8547
G1 X213.9693 Y-115.6078
G1 X214.0334 Y-115.4839
G1 X214.0966 Y-115.3599
G1 X214.2620 Y-115.0325
G1 X214.4243 Y-114.7087
G1 X214.5835 Y-114.3876
G1 X214.6620 Y-114.2279
G1 X214.8167 Y-113.9093
G1 X214.8931 Y-113.7503
G1 X214.9686 Y-113.5913
G1 X215.0433 Y-113.4323
G1 X215.1172 Y-113.2731
G1 X215.1903 Y-113.1136
G1 X215.2627 Y-112.9538
G1 X215.3343 Y-112.7933
G1 X215.4052 Y-112.6322
G1 X215.4753 Y-112.4707
G1 X215.5444 Y-112.3081
G1 X215.6130 Y-112.1448
G1 X215.6805 Y-111.9805
G1 X215.7473 Y-111.8149
G1 X215.8134 Y-111.6480
G1 X215.8787 Y-111.4798
G1 X215.9429 Y-111.3104
G1 X216.0064 Y-111.1392
G1 X216.0692 Y-110.9665
G1 X216.1311 Y-110.7920
G1 X216.1924 Y-110.6155
G1 X216.2526 Y-110.4372
G1 X216.3120 Y-110.2566
G1 X216.3704 Y-110.0739
G1 X216.4095 Y-109.9480
G1 X216.4474 Y-109.8225
G1 X216.4837 Y-109.6970
G1 X216.5190 Y-109.5718
G1 X216.5528 Y-109.4466
G1 X216.5853 Y-109.3219
G1 X216.6165 Y-109.1971
G1 X216.6465 Y-109.0729
G1 X216.6750 Y-108.9487
G1 X216.7024 Y-108.8248
G1 X216.7285 Y-108.7013
G1 X216.7532 Y-108.5779
G1 X216.7768 Y-108.4547
G1 X216.7992 Y-108.3320
G1 X216.8200 Y-108.2093
G1 X216.8398 Y-108.0872
G1 X216.8583 Y-107.9652
G1 X216.8756 Y-107.8436
G1 X216.8916 Y-107.7222
G1 X216.9063 Y-107.6013
G1 X216.9201 Y-107.4806
G1 X216.9323 Y-107.3602
G1 X216.9434 Y-107.2403
G1 X216.9533 Y-107.1207
G1 X216.9620 Y-107.0013
G1 X216.9693 Y-106.8824
G1 X216.9757 Y-106.7638
G1 X216.9808 Y-106.6457
G1 X216.9846 Y-106.5279
G1 X216.9871 Y-106.4105
G1 X216.9886 Y-106.2934
G1 X216.9892 Y-106.1768
G1 X216.9881 Y-106.0607
G1 X216.9861 Y-105.9449
G1 X216.9831 Y-105.8299
G1 X216.9787 Y-105.7148
G1 X216.9732 Y-105.6005
G1 X216.9665 Y-105.4865
G1 X216.9587 Y-105.3729
G1 X216.9498 Y-105.2599
G1 X216.9399 Y-105.1474
G1 X216.9287 Y-105.0353
G1 X216.9163 Y-104.9238
G1 X216.9028 Y-104.8126
G1 X216.8883 Y-104.7021
G1 X216.8726 Y-104.5921
G1 X216.8558 Y-104.4824
G1 X216.8380 Y-104.3734
G1 X216.8192 Y-104.2650
G1 X216.7992 Y-104.1570
G1 X216.7778 Y-104.0496
G1 X216.7557 Y-103.9429
G1 X216.7324 Y-103.8367
G1 X216.7082 Y-103.7308
G1 X216.6826 Y-103.6259
G1 X216.6562 Y-103.5213
G1 X216.6287 Y-103.4174
G1 X216.6000 Y-103.3140
G1 X216.5706 Y-103.2114
G1 X216.5398 Y-103.1093
G1 X216.5081 Y-103.0077
G1 X216.4753 Y-102.9068
G1 X216.4415 Y-102.8068
G1 X216.4067 Y-102.7072
G1 X216.3709 Y-102.6084
G1 X216.3341 Y-102.5101
G1 X216.2965 Y-102.4125
G1 X216.2576 Y-102.3155
G1 X216.2178 Y-102.2193
G1 X216.1769 Y-102.1237
G1 X216.1352 Y-102.0290
G1 X216.0923 Y-101.9350
G1 X216.0486 Y-101.8416
G1 X216.0039 Y-101.7488
G1 X215.9582 Y-101.6569
G1 X215.9114 Y-101.5657
G1 X215.8639 Y-101.4753
G1 X215.8152 Y-101.3854
G1 X215.7659 Y-101.2965
G1 X215.7153 Y-101.2083
G1 X215.6638 Y-101.1210
G1 X215.6115 Y-101.0343
G1 X215.5584 Y-100.9485
G1 X215.5040 Y-100.8634
G1 X215.4489 Y-100.7791
G1 X215.3930 Y-100.6958
G1 X215.3361 Y-100.6130
G1 X215.2782 Y-100.5312
G1 X215.2195 Y-100.4501
G1 X215.1598 Y-100.3701
G1 X215.0994 Y-100.2909
G1 X215.0379 Y-100.2124
G1 X214.9757 Y-100.1347
G1 X214.9124 Y-100.0582
G1 X214.8484 Y-99.9823
G1 X214.7834 Y-99.9073
G1 X214.7176 Y-99.8332
G1 X214.6511 Y-99.7600
G1 X214.5838 Y-99.6879
G1 X214.5154 Y-99.6165
G1 X214.4461 Y-99.5462
G1 X214.3763 Y-99.4766
G1 X214.3054 Y-99.4080
G1 X214.2338 Y-99.3404
G1 X214.1614 Y-99.2739
G1 X214.0880 Y-99.2081
G1 X214.0138 Y-99.1433
G1 X213.9389 Y-99.0796
G1 X213.8632 Y-99.0168
G1 X213.7867 Y-98.9551
G1 X213.7095 Y-98.8944
G1 X213.6315 Y-98.8344
G1 X213.5525 Y-98.7758
G1 X213.4728 Y-98.7179
G1 X213.3925 Y-98.6612
G1 X213.3112 Y-98.6056
G1 X213.2294 Y-98.5507
G1 X213.1466 Y-98.4971
G1 X213.0631 Y-98.4446
G1 X212.9790 Y-98.3930
G1 X212.8939 Y-98.3427
G1 X212.8083 Y-98.2934
G1 X212.7220 Y-98.2449
G1 X212.6348 Y-98.1979
G1 X212.5469 Y-98.1517
G1 X212.4583 Y-98.1067
G1 X212.3689 Y-98.0628
G1 X212.2790 Y-98.0201
G1 X212.1317 Y-97.9536
G1 X211.9833 Y-97.8911
G1 X211.8345 Y-97.8329
G1 X211.6851 Y-97.7786
G1 X211.5348 Y-97.7285
G1 X211.3839 Y-97.6823
G1 X211.2322 Y-97.6401
G1 X211.0801 Y-97.6018
G1 X210.9272 Y-97.5672
G1 X210.7738 Y-97.5365
G1 X210.6196 Y-97.5096
G1 X210.4652 Y-97.4865
G1 X210.3100 Y-97.4669
G1 X210.1540 Y-97.4512
G1 X209.9978 Y-97.4390
G1 X209.8411 Y-97.4303
G1 X209.6839 Y-97.4253
G1 X209.5261 Y-97.4235
G1 X209.3679 Y-97.4253
G1 X209.2094 Y-97.4303
G1 X209.0501 Y-97.4390
G1 X208.8906 Y-97.4507
G1 X208.7309 Y-97.4659
G1 X208.5706 Y-97.4842
G1 X208.4100 Y-97.5055
G1 X208.2490 Y-97.5302
G1 X208.0877 Y-97.5578
G1 X207.9262 Y-97.5886
G1 X207.7641 Y-97.6224
G1 X207.6021 Y-97.6589
G1 X207.4395 Y-97.6986
G1 X207.2770 Y-97.7410
G1 X207.1139 Y-97.7864
G1 X206.9508 Y-97.8345
G1 X206.7875 Y-97.8852
G1 X206.6239 Y-97.9388
G1 X206.4601 Y-97.9950
G1 X206.2963 Y-98.0539
G1 X206.1324 Y-98.1154
G1 X205.9683 Y-98.1791
G1 X205.8040 Y-98.2457
G1 X205.6399 Y-98.3145
G1 X205.4756 Y-98.3859
G1 X205.3110 Y-98.4593
G1 X205.1467 Y-98.5352
G1 X204.9823 Y-98.6135
G1 X204.8177 Y-98.6940
G1 X204.6534 Y-98.7765
G1 X204.4890 Y-98.8614
G1 X204.3247 Y-98.9482
G1 X204.1604 Y-99.0371
G1 X203.9960 Y-99.1283
G1 X203.8320 Y-99.2210
G1 X203.6679 Y-99.3160
G1 X203.5040 Y-99.4128
G1 X203.3405 Y-99.5114
G1 X203.1769 Y-99.6117
G1 X203.0133 Y-99.7141
G1 X202.8502 Y-99.8179
G1 X202.6872 Y-99.9233
G1 X202.5246 Y-100.0305
G1 X202.3621 Y-100.1392
G1 X202.1997 Y-100.2497
G1 X202.0377 Y-100.3615
G1 X201.8762 Y-100.4748
G1 X201.7146 Y-100.5896
G1 X201.5536 Y-100.7057
G1 X201.3930 Y-100.8230
G1 X201.2325 Y-100.9416
G1 X201.0727 Y-101.0615
G1 X200.9130 Y-101.1827
G1 X200.7540 Y-101.3051
G1 X200.5952 Y-101.4286
G1 X200.4370 Y-101.5530
G1 X200.2790 Y-101.6785
G1 X200.1218 Y-101.8050
G1 X199.9648 Y-101.9325
G1 X199.8083 Y-102.0608
G1 X199.6526 Y-102.1900
G1 X199.4972 Y-102.3201
G1 X199.3425 Y-102.4509
G1 X199.1883 Y-102.5822
G1 X199.0347 Y-102.7146
G1 X198.8817 Y-102.8474
G1 X198.7293 Y-102.9807
G1 X198.5777 Y-103.1149
G1 X198.4266 Y-103.2495
G1 X198.2762 Y-103.3843
G1 X198.1264 Y-103.5200
G1 X197.9773 Y-103.6556
G1 X197.8292 Y-103.7918
G1 X197.6816 Y-103.9284
G1 X197.5348 Y-104.0651
G1 X197.3887 Y-104.2020
G1 X197.2434 Y-104.3391
G1 X197.0989 Y-104.4766
G1 X196.9554 Y-104.6137
G1 X196.8124 Y-104.7511
G1 X196.6704 Y-104.8885
G1 X196.3892 Y-105.1631
G1 X196.1116 Y-105.4372
G1 X195.8376 Y-105.7105
G1 X195.7019 Y-105.8466
G1 X195.3014 Y-106.2530
G1 X195.1698 Y-106.3876
G1 X194.9099 Y-106.6554
G1 X194.6544 Y-106.9205
G1 X194.4032 Y-107.1829
G1 X194.0354 Y-107.5705
G1 X193.6780 Y-107.9503
G1 X193.2191 Y-108.4420
G1 X192.9976 Y-108.6808
G1 X192.9336 Y-108.7506
G1 X192.8726 Y-108.8189
G1 X192.8147 Y-108.8852
G1 X192.7598 Y-108.9497
G1 X192.7078 Y-109.0122
G1 X192.6582 Y-109.0729
G1 X192.6115 Y-109.1314
G1 X192.5671 Y-109.1880
G1 X192.4855 Y-109.2949
G1 X192.4124 Y-109.3932
G1 X192.2371 Y-109.6345
G1 X192.1904 Y-109.6957
G1 X192.1685 Y-109.7227
G1 X192.1480 Y-109.7471
G1 X192.1281 Y-109.7689
G1 X192.1091 Y-109.7882
G1 X192.0905 Y-109.8047
G1 X192.0728 Y-109.8187
G1 X192.0555 Y-109.8299
G1 X192.0385 Y-109.8382
G1 X192.0217 Y-109.8438
G1 X192.0052 Y-109.8466
G1 X191.9887 Y-109.8464
G1 X191.9719 Y-109.8436
G1 X191.9552 Y-109.8375
G1 X191.9379 Y-109.8286
G1 X191.9204 Y-109.8166
G1 X191.9023 Y-109.8017
G1 X191.8838 Y-109.7836
G1 X191.8645 Y-109.7625
G1 X191.8442 Y-109.7382
G1 X191.8231 Y-109.7105
G1 X191.8010 Y-109.6797
G1 X191.7776 Y-109.6457
G1 X191.7530 Y-109.6084
G1 X191.7271 Y-109.5677
G1 X191.6707 Y-109.4760
G1 X191.5734 Y-109.3127
G1 X191.4149 Y-109.0447
G1 X191.3217 Y-108.8885
G1 X191.2175 Y-108.7173
G1 X191.1614 Y-108.6259
G1 X191.0400 Y-108.4313
G1 X190.9747 Y-108.3282
G1 X190.9059 Y-108.2210
G1 X190.8338 Y-108.1098
G1 X190.7583 Y-107.9945
G1 X190.5119 Y-107.6203
G1 X189.6902 Y-106.3650
G1 X189.4639 Y-106.0211
G1 X189.2399 Y-105.6838
G1 X189.0174 Y-105.3526
G1 X188.9067 Y-105.1890
G1 X188.7959 Y-105.0272
G1 X188.6852 Y-104.8667
G1 X188.5744 Y-104.7077
G1 X188.4634 Y-104.5500
G1 X188.3522 Y-104.3937
G1 X188.2407 Y-104.2388
G1 X188.1287 Y-104.0854
G1 X188.0161 Y-103.9332
G1 X187.9031 Y-103.7821
G1 X187.7893 Y-103.6325
G1 X187.6745 Y-103.4842
G1 X187.5589 Y-103.3369
G1 X187.4423 Y-103.1911
G1 X187.3247 Y-103.0463
G1 X187.2059 Y-102.9025
G1 X187.0855 Y-102.7603
G1 X186.9641 Y-102.6188
G1 X186.8411 Y-102.4786
G1 X186.7164 Y-102.3394
G1 X186.5902 Y-102.2012
G1 X186.4622 Y-102.0643
G1 X186.3324 Y-101.9282
G1 X186.2005 Y-101.7930
G1 X186.0669 Y-101.6592
G1 X185.9308 Y-101.5258
G1 X185.7926 Y-101.3938
G1 X185.6522 Y-101.2624
G1 X185.5094 Y-101.1321
G1 X185.3641 Y-101.0023
G1 X185.2160 Y-100.8738
G1 X185.0654 Y-100.7458
G1 X184.9120 Y-100.6188
G1 X184.7555 Y-100.4926
G1 X184.5963 Y-100.3668
G1 X184.4340 Y-100.2421
G1 X184.2686 Y-100.1179
G1 X184.0997 Y-99.9945
G1 X183.9278 Y-99.8718
G1 X183.7522 Y-99.7496
G1 X183.5732 Y-99.6282
G1 X183.3903 Y-99.5073
G1 X183.2038 Y-99.3869
G1 X183.0139 Y-99.2673
G1 X182.8195 Y-99.1481
G1 X182.6214 Y-99.0293
G1 X182.4192 Y-98.9112
G1 X182.2130 Y-98.7936
G1 X182.0022 Y-98.6762
G1 X181.8538 Y-98.5957
G1 X181.7050 Y-98.5169
G1 X181.5551 Y-98.4397
G1 X181.4050 Y-98.3643
G1 X181.2539 Y-98.2904
G1 X181.1025 Y-98.2185
G1 X180.9504 Y-98.1484
G1 X180.7977 Y-98.0801
G1 X180.6443 Y-98.0138
G1 X180.4906 Y-97.9493
G1 X180.3364 Y-97.8868
G1 X180.1815 Y-97.8263
G1 X180.0263 Y-97.7682
G1 X179.8706 Y-97.7118
G1 X179.7144 Y-97.6577
G1 X179.5579 Y-97.6059
G1 X179.4010 Y-97.5563
G1 X179.2437 Y-97.5088
G1 X179.0860 Y-97.4639
G1 X178.9278 Y-97.4212
G1 X178.7695 Y-97.3811
G1 X178.6108 Y-97.3432
G1 X178.4518 Y-97.3079
G1 X178.2925 Y-97.2751
G1 X178.1330 Y-97.2449
G1 X177.9732 Y-97.2172
G1 X177.8135 Y-97.1923
G1 X177.6532 Y-97.1700
G1 X177.4929 Y-97.1504
G1 X177.3324 Y-97.1337
G1 X177.1719 Y-97.1197
G1 X177.0111 Y-97.1088
G1 X176.8500 Y-97.1006
G1 X176.6893 Y-97.0953
G1 X176.5282 Y-97.0930
G1 X176.5282 Y-97.0930
; Retract
G1 Z2.5400 F2540

; Path 1
; Rapid to initial position
G1 X176.4617 Y-101.7631 F2540
G1 Z0.0000
; plunge
G1 Z-3.1750 F127
; cut
G1 X176.6136 Y-101.7631 F1016
G1 X176.6136 Y-101.7631
G1 X176.7677 Y-101.7681
G1 X176.9245 Y-101.7783
G1 X177.0832 Y-101.7941
G1 X177.2442 Y-101.8146
G1 X177.4073 Y-101.8405
G1 X177.5724 Y-101.8715
G1 X177.7395 Y-101.9076
G1 X177.9087 Y-101.9487
G1 X178.0797 Y-101.9947
G1 X178.2524 Y-102.0458
G1 X178.4271 Y-102.1016
G1 X178.6031 Y-102.1624
G1 X178.7812 Y-102.2279
G1 X178.9605 Y-102.2982
G1 X179.1414 Y-102.3734
G1 X179.3237 Y-102.4534
G1 X179.5076 Y-102.5378
G1 X179.6928 Y-102.6272
G1 X179.8790 Y-102.7209
G1 X180.0667 Y-102.8195
G1 X180.2554 Y-102.9223
G1 X180.4452 Y-103.0298
G1 X180.6837 Y-103.1662
G1 X180.7906 Y-103.2286
G1 X180.8937 Y-103.2906
G1 X180.9953 Y-103.3544
G1 X181.0984 Y-103.4227
G1 X181.2064 Y-103.4979
G1 X181.3215 Y-103.5822
G1 X181.4761 Y-103.6993
G1 X181.6298 Y-103.8182
G1 X181.7825 Y-103.9386
G1 X181.9341 Y-104.0608
G1 X182.0845 Y-104.1844
G1 X182.2341 Y-104.3099
G1 X182.3822 Y-104.4369
G1 X182.5292 Y-104.5654
G1 X182.6750 Y-104.6955
G1 X182.8195 Y-104.8271
G1 X182.9625 Y-104.9602
G1 X183.1045 Y-105.0948
G1 X183.2450 Y-105.2309
G1 X183.3842 Y-105.3686
G1 X183.5219 Y-105.5078
G1 X183.6580 Y-105.6483
G1 X183.7926 Y-105.7902
G1 X183.9257 Y-105.9337
G1 X184.0575 Y-106.0785
G1 X184.1873 Y-106.2246
G1 X184.3159 Y-106.3722
G1 X184.4424 Y-106.5210
G1 X184.5673 Y-106.6714
G1 X184.6908 Y-106.8227
G1 X184.8122 Y-106.9757
G1 X184.9318 Y-107.1298
G1 X185.0497 Y-107.2850
G1 X185.1655 Y-107.4417
G1 X185.2795 Y-107.5995
G1 X185.3916 Y-107.7585
G1 X185.5018 Y-107.9188
G1 X185.6100 Y-108.0803
G1 X185.7847 Y-108.3480
G1 X186.0004 Y-108.6836
G1 X186.1627 Y-108.9393
G1 X186.2485 Y-109.0755
G1 X186.5211 Y-109.5124
G1 X186.6158 Y-109.6658
G1 X186.7121 Y-109.8227
G1 X186.9077 Y-110.1448
G1 X187.0065 Y-110.3092
G1 X187.1055 Y-110.4753
G1 X187.2044 Y-110.6424
G1 X187.3029 Y-110.8103
G1 X187.4009 Y-110.9784
G1 X187.4977 Y-111.1466
G1 X187.5932 Y-111.3145
G1 X187.6872 Y-111.4814
G1 X187.7794 Y-111.6467
G1 X187.8691 Y-111.8105
G1 X187.9564 Y-111.9721
G1 X188.0408 Y-112.1311
G1 X188.1221 Y-112.2870
G1 X188.2000 Y-112.4397
G1 X188.2739 Y-112.5883
G1 X188.4314 Y-112.9139
G1 X188.5089 Y-113.0727
G1 X188.5757 Y-113.2116
G1 X188.6316 Y-113.3340
G1 X188.6760 Y-113.4422
G1 X188.7088 Y-113.5395
G1 X188.7294 Y-113.6287
G1 X188.7375 Y-113.7125
G1 X188.7327 Y-113.7940
G1 X188.7144 Y-113.8761
G1 X188.6821 Y-113.9617
G1 X188.6359 Y-114.0534
G1 X188.5752 Y-114.1542
G1 X188.4992 Y-114.2672
G1 X188.4081 Y-114.3950
G1 X188.3011 Y-114.5405
G1 X181.8904 Y-123.2017
G1 X181.7891 Y-123.3548
G1 X181.6936 Y-123.4968
G1 X181.6044 Y-123.6274
G1 X181.5208 Y-123.7473
G1 X181.4426 Y-123.8565
G1 X181.3697 Y-123.9550
G1 X181.3016 Y-124.0434
G1 X181.2384 Y-124.1217
G1 X181.1795 Y-124.1900
G1 X181.1246 Y-124.2487
G1 X181.0736 Y-124.2979
G1 X181.0261 Y-124.3378
G1 X180.9821 Y-124.3688
G1 X180.9410 Y-124.3909
G1 X180.9029 Y-124.4041
G1 X180.8671 Y-124.4092
G1 X180.8338 Y-124.4059
G1 X180.8023 Y-124.3947
G1 X180.7726 Y-124.3757
G1 X180.7444 Y-124.3490
G1 X180.7172 Y-124.3150
G1 X180.6910 Y-124.2736
G1 X180.6656 Y-124.2253
G1 X180.6405 Y-124.1702
G1 X180.6153 Y-124.1087
G1 X180.5902 Y-124.0406
G1 X180.5648 Y-123.9665
G1 X180.5386 Y-123.8862
G1 X180.4215 Y-123.5103
G1 X180.3687 Y-123.3477
G1 X180.3121 Y-123.1837
G1 X180.2514 Y-123.0185
G1 X180.1868 Y-122.8524
G1 X180.1193 Y-122.6856
G1 X180.0482 Y-122.5177
G1 X179.9740 Y-122.3493
G1 X179.8970 Y-122.1801
G1 X179.8175 Y-122.0107
G1 X179.7355 Y-121.8408
G1 X179.6512 Y-121.6706
G1 X179.5648 Y-121.5001
G1 X179.4767 Y-121.3297
G1 X179.3870 Y-121.1593
G1 X179.2958 Y-120.9891
G1 X179.2034 Y-120.8189
G1 X179.1099 Y-120.6492
G1 X179.0156 Y-120.4801
G1 X178.9209 Y-120.3114
G1 X178.8257 Y-120.1433
G1 X178.6346 Y-119.8095
G1 X178.1645 Y-118.9937
G1 X177.9834 Y-118.6767
G1 X177.8953 Y-118.5210
G1 X177.8089 Y-118.3668
G1 X177.7248 Y-118.2144
G1 X177.5412 Y-117.8987
G1 X177.1620 Y-117.2522
G1 X176.8693 Y-116.7554
G1 X176.5727 Y-116.2489
G1 X176.3735 Y-115.9065
G1 X176.1741 Y-115.5603
G1 X176.0746 Y-115.3861
G1 X175.8759 Y-115.0351
G1 X175.7771 Y-114.8583
G1 X175.5808 Y-114.5027
G1 X175.4835 Y-114.3239
G1 X175.3870 Y-114.1443
G1 X175.2910 Y-113.9642
G1 X175.1960 Y-113.7836
G1 X175.1020 Y-113.6025
G1 X175.0088 Y-113.4207
G1 X174.9168 Y-113.2383
G1 X174.8259 Y-113.0557
G1 X174.7363 Y-112.8725
G1 X174.6481 Y-112.6889
G1 X174.5612 Y-112.5050
G1 X174.4759 Y-112.3206
G1 X174.3921 Y-112.1359
G1 X174.3100 Y-111.9510
G1 X174.2295 Y-111.7658
G1 X174.1510 Y-111.5804
G1 X174.0743 Y-111.3947
G1 X173.9999 Y-111.2091
G1 X173.9273 Y-111.0231
G1 X173.8569 Y-110.8370
G1 X173.7888 Y-110.6508
G1 X173.7228 Y-110.4646
G1 X173.6595 Y-110.2784
G1 X173.5986 Y-110.0920
G1 X173.5402 Y-109.9058
G1 X173.4845 Y-109.7196
G1 X173.4315 Y-109.5334
G1 X173.3814 Y-109.3475
G1 X173.3342 Y-109.1618
G1 X173.2897 Y-108.9762
G1 X173.2486 Y-108.7907
G1 X173.2105 Y-108.6053
G1 X173.1757 Y-108.4204
G1 X173.1442 Y-108.2357
G1 X173.1162 Y-108.0513
G1 X173.0916 Y-107.8674
G1 X173.0705 Y-107.6838
G1 X173.0530 Y-107.5007
G1 X173.0393 Y-107.3178
G1 X173.0294 Y-107.1357
G1 X173.0235 Y-106.9538
G1 X173.0215 Y-106.7725
G1 X173.0240 Y-106.5238
G1 X173.0314 Y-106.2822
G1 X173.0436 Y-106.0473
G1 X173.0604 Y-105.8189
G1 X173.0820 Y-105.5975
G1 X173.1081 Y-105.3826
G1 X173.1388 Y-105.1743
G1 X173.1742 Y-104.9726
G1 X173.2138 Y-104.7773
G1 X173.2577 Y-104.5888
G1 X173.3062 Y-104.4064
G1 X173.3588 Y-104.2307
G1 X173.4157 Y-104.0615
G1 X173.4767 Y-103.8984
G1 X173.5417 Y-103.7417
G1 X173.6105 Y-103.5914
G1 X173.6837 Y-103.4471
G1 X173.7604 Y-103.3092
G1 X173.8412 Y-103.1773
G1 X173.9257 Y-103.0516
G1 X174.0139 Y-102.9320
G1 X174.1056 Y-102.8184
G1 X174.2011 Y-102.7110
G1 X174.2999 Y-102.6094
G1 X174.4025 Y-102.5139
G1 X174.5082 Y-102.4242
G1 X174.6174 Y-102.3404
G1 X174.7296 Y-102.2624
G1 X174.8455 Y-102.1903
G1 X174.9641 Y-102.1240
G1 X175.0860 Y-102.0633
G1 X175.2110 Y-102.0082
G1 X175.3387 Y-101.9589
G1 X175.4695 Y-101.9152
G1 X175.6034 Y-101.8771
G1 X175.7398 Y-101.8443
G1 X175.8790 Y-101.8172
G1 X176.0207 Y-101.7956
G1 X176.1653 Y-101.7793
G1 X176.3121 Y-101.7687
G1 X176.4617 Y-101.7631
; Retract
G1 Z2.5400 F2540

; Path 2
; Rapid to initial position
G1 X186.9366 Y-92.1852 F2540
G1 Z0.0000
; plunge
G1 Z-3.1750 F127
; cut
G1 X187.7929 Y-93.1621 F1016
G1 X188.3265 Y-93.7732
G1 X189.1772 Y-94.7519
G1 X189.8119 Y-95.4862
G1 X190.5198 Y-96.3094
G1 X191.4939 Y-97.4562
G1 X191.6552 Y-97.6434
G1 X191.8073 Y-97.8169
G1 X191.9036 Y-97.9249
G1 X192.0415 Y-98.0755
G1 X192.1294 Y-98.1685
G1 X192.2142 Y-98.2553
G1 X192.2556 Y-98.2967
G1 X192.2963 Y-98.3366
G1 X192.3362 Y-98.3750
G1 X192.3755 Y-98.4118
G1 X192.4525 Y-98.4811
G1 X192.5274 Y-98.5446
G1 X192.5643 Y-98.5741
G1 X192.6003 Y-98.6023
G1 X192.6361 Y-98.6290
G1 X192.6717 Y-98.6541
G1 X192.7068 Y-98.6780
G1 X192.7415 Y-98.7003
G1 X192.7758 Y-98.7214
G1 X192.8101 Y-98.7410
G1 X192.8439 Y-98.7590
G1 X192.8777 Y-98.7758
G1 X192.9110 Y-98.7913
G1 X192.9442 Y-98.8050
G1 X192.9775 Y-98.8177
G1 X193.0105 Y-98.8289
G1 X193.0436 Y-98.8385
G1 X193.0763 Y-98.8469
G1 X193.1093 Y-98.8540
G1 X193.1421 Y-98.8596
G1 X193.1751 Y-98.8637
G1 X193.2081 Y-98.8667
G1 X193.2412 Y-98.8682
G1 X193.2742 Y-98.8682
G1 X193.3077 Y-98.8670
G1 X193.3410 Y-98.8644
G1 X193.3748 Y-98.8606
G1 X193.4088 Y-98.8553
G1 X193.4428 Y-98.8487
G1 X193.4774 Y-98.8408
G1 X193.5122 Y-98.8317
G1 X193.5472 Y-98.8210
G1 X193.5825 Y-98.8090
G1 X193.6186 Y-98.7958
G1 X193.6547 Y-98.7814
G1 X193.6915 Y-98.7656
G1 X193.7288 Y-98.7483
G1 X193.7664 Y-98.7298
G1 X193.8048 Y-98.7102
G1 X193.8437 Y-98.6892
G1 X193.8830 Y-98.6668
G1 X193.9232 Y-98.6432
G1 X193.9638 Y-98.6183
G1 X194.0052 Y-98.5921
G1 X194.0474 Y-98.5647
G1 X194.1337 Y-98.5060
G1 X194.1782 Y-98.4748
G1 X194.2694 Y-98.4087
G1 X194.3163 Y-98.3737
G1 X194.4129 Y-98.3000
G1 X194.5135 Y-98.2215
G1 X194.5653 Y-98.1804
G1 X194.7268 Y-98.0496
G1 X195.0814 Y-97.7557
G1 X195.7029 Y-97.2350
G1 X196.0184 Y-96.9739
G1 X196.2724 Y-96.7659
G1 X196.4505 Y-96.6219
G1 X196.6356 Y-96.4733
G1 X196.8284 Y-96.3204
G1 X197.0288 Y-96.1629
G1 X197.7553 Y-95.6005
G1 X198.2841 Y-95.1873
G1 X198.8226 Y-94.7628
G1 X199.3692 Y-94.3275
G1 X199.7834 Y-93.9945
G1 X200.2013 Y-93.6561
G1 X200.6214 Y-93.3130
G1 X201.0435 Y-92.9650
G1 X201.3257 Y-92.7306
G1 X201.6084 Y-92.4944
G1 X201.8914 Y-92.2564
G1 X202.1743 Y-92.0168
G1 X202.5983 Y-91.6546
G1 X202.8807 Y-91.4113
G1 X203.1624 Y-91.1667
G1 X203.4436 Y-90.9208
G1 X203.7235 Y-90.6737
G1 X204.0026 Y-90.4258
G1 X204.2803 Y-90.1766
G1 X204.5564 Y-89.9269
G1 X204.6940 Y-89.8017
G1 X204.9676 Y-89.5507
G1 X205.2394 Y-89.2993
G1 X205.3745 Y-89.1733
G1 X205.6432 Y-88.9208
G1 X205.9094 Y-88.6684
G1 X206.2262 Y-88.3641
G1 X206.4116 Y-88.1845
G1 X206.6910 Y-87.9114
G1 X206.8777 Y-87.7275
G1 X207.0646 Y-87.5416
G1 X207.2516 Y-87.3539
G1 X207.4388 Y-87.1644
G1 X207.5322 Y-87.0692
G1 X207.8121 Y-86.7804
G1 X207.9983 Y-86.5856
G1 X208.1840 Y-86.3892
G1 X208.2767 Y-86.2904
G1 X208.4611 Y-86.0913
G1 X208.5530 Y-85.9912
G1 X208.6447 Y-85.8906
G1 X208.8274 Y-85.6882
G1 X208.9183 Y-85.5863
G1 X209.0989 Y-85.3813
G1 X209.1888 Y-85.2782
G1 X209.2785 Y-85.1746
G1 X209.4563 Y-84.9660
G1 X209.5444 Y-84.8614
G1 X209.6323 Y-84.7560
G1 X209.7197 Y-84.6503
G1 X209.8932 Y-84.4377
G1 X209.9790 Y-84.3308
G1 X210.0643 Y-84.2236
G1 X210.1492 Y-84.1157
G1 X210.2335 Y-84.0075
G1 X210.3173 Y-83.8990
G1 X210.4006 Y-83.7900
G1 X210.5650 Y-83.5708
G1 X210.6463 Y-83.4606
G1 X210.7268 Y-83.3498
G1 X210.8068 Y-83.2388
G1 X210.8860 Y-83.1273
G1 X210.9645 Y-83.0156
G1 X211.0422 Y-82.9033
G1 X211.1195 Y-82.7905
G1 X211.1957 Y-82.6775
G1 X211.2711 Y-82.5640
G1 X211.3458 Y-82.4502
G1 X211.4197 Y-82.3359
G1 X211.4928 Y-82.2213
G1 X211.5650 Y-82.1063
G1 X211.6364 Y-81.9907
G1 X211.7067 Y-81.8749
G1 X211.7763 Y-81.7585
G1 X211.8449 Y-81.6419
G1 X211.9127 Y-81.5249
G1 X211.9793 Y-81.4073
G1 X212.0450 Y-81.2894
G1 X212.1098 Y-81.1713
G1 X212.1736 Y-81.0527
G1 X212.2363 Y-80.9335
G1 X212.2980 Y-80.8142
G1 X212.3585 Y-80.6943
G1 X212.4182 Y-80.5741
G1 X212.4766 Y-80.4537
G1 X212.5340 Y-80.3326
G1 X212.5901 Y-80.2114
G1 X212.6452 Y-80.0895
G1 X212.6991 Y-79.9676
G1 X212.7519 Y-79.8449
G1 X212.8032 Y-79.7220
G1 X212.8535 Y-79.5988
G1 X212.9028 Y-79.4751
G1 X212.9506 Y-79.3511
G1 X212.9970 Y-79.2267
G1 X213.0422 Y-79.1020
G1 X213.0862 Y-78.9767
G1 X213.1289 Y-78.8513
G1 X213.1703 Y-78.7253
G1 X213.2101 Y-78.5990
G1 X213.2487 Y-78.4723
G1 X213.2861 Y-78.3453
G1 X213.3216 Y-78.2180
G1 X213.3562 Y-78.0903
G1 X213.3890 Y-77.9620
G1 X213.4205 Y-77.8335
G1 X213.4504 Y-77.7047
G1 X213.4789 Y-77.5754
G1 X213.5060 Y-77.4459
G1 X213.5315 Y-77.3158
G1 X213.5553 Y-77.1855
G1 X213.5777 Y-77.0547
G1 X213.5985 Y-76.9236
G1 X213.6176 Y-76.7921
G1 X213.6351 Y-76.6605
G1 X213.6511 Y-76.5282
G1 X213.6653 Y-76.3956
G1 X213.6780 Y-76.2627
G1 X213.6889 Y-76.1296
G1 X213.6981 Y-75.9960
G1 X213.7057 Y-75.8619
G1 X213.7113 Y-75.7278
G1 X213.7153 Y-75.5929
G1 X213.7176 Y-75.4581
G1 X213.7181 Y-75.3227
G1 X213.7169 Y-75.1870
G1 X213.7136 Y-75.0509
G1 X213.7085 Y-74.9145
G1 X213.7016 Y-74.7776
G1 X213.6930 Y-74.6404
G1 X213.6823 Y-74.5030
G1 X213.6699 Y-74.3654
G1 X213.6554 Y-74.2272
G1 X213.6389 Y-74.0885
G1 X213.6206 Y-73.9498
G1 X213.6003 Y-73.8106
G1 X213.5721 Y-73.6382
G1 X213.5408 Y-73.4675
G1 X213.5068 Y-73.2983
G1 X213.4697 Y-73.1309
G1 X213.4296 Y-72.9653
G1 X213.3867 Y-72.8012
G1 X213.3409 Y-72.6389
G1 X213.2922 Y-72.4784
G1 X213.2406 Y-72.3196
G1 X213.1865 Y-72.1627
G1 X213.1294 Y-72.0075
G1 X213.0699 Y-71.8541
G1 X213.0074 Y-71.7022
G1 X212.9427 Y-71.5523
G1 X212.8751 Y-71.4045
G1 X212.8050 Y-71.2582
G1 X212.7324 Y-71.1139
G1 X212.6574 Y-70.9714
G1 X212.5800 Y-70.8307
G1 X212.5000 Y-70.6920
G1 X212.4177 Y-70.5551
G1 X212.3331 Y-70.4202
G1 X212.2462 Y-70.2871
G1 X212.1571 Y-70.1561
G1 X212.0656 Y-70.0270
G1 X211.9721 Y-69.8998
G1 X211.8764 Y-69.7746
G1 X211.7783 Y-69.6516
G1 X211.6785 Y-69.5302
G1 X211.5764 Y-69.4111
G1 X211.4725 Y-69.2940
G1 X211.3664 Y-69.1789
G1 X211.2584 Y-69.0659
G1 X211.1487 Y-68.9549
G1 X211.0369 Y-68.8459
G1 X210.9234 Y-68.7393
G1 X210.8081 Y-68.6346
G1 X210.6910 Y-68.5320
G1 X210.5721 Y-68.4314
G1 X210.4514 Y-68.3331
G1 X210.3293 Y-68.2371
G1 X210.2056 Y-68.1431
G1 X210.0801 Y-68.0512
G1 X209.9531 Y-67.9618
G1 X209.8246 Y-67.8741
G1 X209.6948 Y-67.7890
G1 X209.5635 Y-67.7062
G1 X209.4306 Y-67.6255
G1 X209.2963 Y-67.5470
G1 X209.1609 Y-67.4708
G1 X209.0240 Y-67.3969
G1 X208.8860 Y-67.3255
G1 X208.7466 Y-67.2562
G1 X208.6061 Y-67.1891
G1 X208.4644 Y-67.1246
G1 X208.3217 Y-67.0623
G1 X208.1779 Y-67.0024
G1 X208.0329 Y-66.9450
G1 X207.8871 Y-66.8899
G1 X207.7403 Y-66.8371
G1 X207.5922 Y-66.7868
G1 X207.4436 Y-66.7388
G1 X207.2940 Y-66.6933
G1 X207.1433 Y-66.6504
G1 X206.9922 Y-66.6097
G1 X206.8401 Y-66.5719
G1 X206.6874 Y-66.5363
G1 X206.5337 Y-66.5030
G1 X206.3798 Y-66.4726
G1 X206.2249 Y-66.4446
G1 X206.0697 Y-66.4192
G1 X205.9137 Y-66.3961
G1 X205.7573 Y-66.3758
G1 X205.6006 Y-66.3580
G1 X205.4431 Y-66.3428
G1 X205.2853 Y-66.3303
G1 X205.1274 Y-66.3204
G1 X204.9689 Y-66.3131
G1 X204.8101 Y-66.3082
G1 X204.6511 Y-66.3064
G1 X204.4918 Y-66.3070
G1 X204.3323 Y-66.3103
G1 X204.1728 Y-66.3164
G1 X204.0131 Y-66.3250
G1 X203.8533 Y-66.3364
G1 X203.6935 Y-66.3506
G1 X203.5335 Y-66.3677
G1 X203.3737 Y-66.3875
G1 X203.2140 Y-66.4098
G1 X203.0542 Y-66.4352
G1 X202.8947 Y-66.4632
G1 X202.7352 Y-66.4942
G1 X202.5759 Y-66.5277
G1 X202.4169 Y-66.5643
G1 X202.2582 Y-66.6036
G1 X202.0997 Y-66.6460
G1 X201.9417 Y-66.6910
G1 X201.7840 Y-66.7390
G1 X201.6267 Y-66.7901
G1 X201.4698 Y-66.8439
G1 X201.3135 Y-66.9006
G1 X201.1576 Y-66.9602
G1 X201.0024 Y-67.0230
G1 X200.8475 Y-67.0885
G1 X200.6935 Y-67.1571
G1 X200.5401 Y-67.2287
G1 X200.3875 Y-67.3034
G1 X200.2353 Y-67.3809
G1 X200.0842 Y-67.4616
G1 X199.9338 Y-67.5452
G1 X199.7842 Y-67.6321
G1 X199.6354 Y-67.7217
G1 X199.4875 Y-67.8147
G1 X199.3407 Y-67.9107
G1 X199.1949 Y-68.0098
G1 X199.0501 Y-68.1121
G1 X198.9061 Y-68.2173
G1 X198.7636 Y-68.3260
G1 X198.6219 Y-68.4375
G1 X198.4814 Y-68.5523
G1 X198.3423 Y-68.6704
G1 X198.2043 Y-68.7916
G1 X198.0677 Y-68.9160
G1 X197.9320 Y-69.0435
G1 X197.7979 Y-69.1746
G1 X197.6653 Y-69.3087
G1 X197.5340 Y-69.4461
G1 X197.4042 Y-69.5866
G1 X197.3092 Y-69.6933
G1 X197.2150 Y-69.8015
G1 X197.1218 Y-69.9117
G1 X197.0291 Y-70.0235
G1 X196.9376 Y-70.1370
G1 X196.8467 Y-70.2526
G1 X196.7568 Y-70.3697
G1 X196.6679 Y-70.4886
G1 X196.5797 Y-70.6095
G1 X196.4926 Y-70.7321
G1 X196.4063 Y-70.8566
G1 X196.3212 Y-70.9828
G1 X196.2368 Y-71.1109
G1 X196.1535 Y-71.2409
G1 X196.0715 Y-71.3727
G1 X195.9902 Y-71.5063
G1 X195.8688 Y-71.7022
G1 X195.7565 Y-71.8698
G1 X195.6524 Y-72.0103
G1 X195.5561 Y-72.1243
G1 X195.4670 Y-72.2132
G1 X195.3842 Y-72.2780
G1 X195.3075 Y-72.3194
G1 X195.2358 Y-72.3387
G1 X195.1688 Y-72.3369
G1 X195.1058 Y-72.3151
G1 X195.0461 Y-72.2742
G1 X194.9892 Y-72.2150
G1 X194.9343 Y-72.1390
G1 X194.8810 Y-72.0468
G1 X194.8287 Y-71.9399
G1 X194.7763 Y-71.8190
G1 X194.7238 Y-71.6851
G1 X194.6702 Y-71.5394
G1 X194.6151 Y-71.3826
G1 X194.4972 Y-71.0408
G1 X194.4332 Y-70.8576
G1 X194.3654 Y-70.6676
G1 X194.2925 Y-70.4720
G1 X194.2145 Y-70.2716
G1 X194.1302 Y-70.0677
G1 X194.0395 Y-69.8609
G1 X193.9414 Y-69.6526
G1 X193.8355 Y-69.4436
G1 X193.7212 Y-69.2351
G1 X193.5975 Y-69.0281
G1 X193.4644 Y-68.8233
G1 X193.3758 Y-68.6956
G1 X193.2856 Y-68.5698
G1 X193.1942 Y-68.4467
G1 X193.1012 Y-68.3257
G1 X193.0067 Y-68.2071
G1 X192.9110 Y-68.0905
G1 X192.8139 Y-67.9762
G1 X192.7154 Y-67.8645
G1 X192.6156 Y-67.7545
G1 X192.5145 Y-67.6471
G1 X192.4121 Y-67.5416
G1 X192.3087 Y-67.4385
G1 X192.2038 Y-67.3377
G1 X192.0979 Y-67.2389
G1 X191.9907 Y-67.1424
G1 X191.8823 Y-67.0481
G1 X191.7730 Y-66.9559
G1 X191.6626 Y-66.8658
G1 X191.5511 Y-66.7779
G1 X191.4383 Y-66.6920
G1 X191.3247 Y-66.6085
G1 X191.2102 Y-66.5269
G1 X191.0946 Y-66.4477
G1 X190.9780 Y-66.3705
G1 X190.8607 Y-66.2953
G1 X190.7423 Y-66.2221
G1 X190.6232 Y-66.1513
G1 X190.5033 Y-66.0824
G1 X190.3824 Y-66.0156
G1 X190.2610 Y-65.9508
G1 X190.1386 Y-65.8884
G1 X190.0156 Y-65.8277
G1 X189.8917 Y-65.7692
G1 X189.7672 Y-65.7126
G1 X189.6422 Y-65.6582
G1 X189.5165 Y-65.6057
G1 X189.3900 Y-65.5554
G1 X189.2630 Y-65.5069
G1 X189.1355 Y-65.4604
G1 X189.0075 Y-65.4159
G1 X188.8790 Y-65.3735
G1 X188.7499 Y-65.3331
G1 X188.6204 Y-65.2945
G1 X188.4906 Y-65.2582
G1 X188.3603 Y-65.2236
G1 X188.2295 Y-65.1909
G1 X188.0984 Y-65.1601
G1 X187.9671 Y-65.1314
G1 X187.8353 Y-65.1048
G1 X187.7035 Y-65.0799
G1 X187.5711 Y-65.0568
G1 X187.4388 Y-65.0357
G1 X187.3059 Y-65.0166
G1 X187.1731 Y-64.9994
G1 X187.0403 Y-64.9839
G1 X186.9072 Y-64.9704
G1 X186.7738 Y-64.9587
G1 X186.6405 Y-64.9488
G1 X186.5071 Y-64.9409
G1 X186.3738 Y-64.9348
G1 X186.2404 Y-64.9305
G1 X186.1071 Y-64.9282
G1 X185.9737 Y-64.9275
G1 X185.9737 Y-64.9275
G1 X185.8404 Y-64.9287
G1 X185.7073 Y-64.9318
G1 X185.5742 Y-64.9366
G1 X185.4413 Y-64.9432
G1 X185.3087 Y-64.9516
G1 X185.1762 Y-64.9618
G1 X185.0438 Y-64.9737
G1 X184.9117 Y-64.9874
G1 X184.7799 Y-65.0029
G1 X184.6486 Y-65.0199
G1 X184.5173 Y-65.0390
G1 X184.3867 Y-65.0596
G1 X184.2562 Y-65.0822
G1 X184.1261 Y-65.1063
G1 X183.9966 Y-65.1320
G1 X183.8676 Y-65.1596
G1 X183.7388 Y-65.1888
G1 X183.6105 Y-65.2196
G1 X183.4830 Y-65.2523
G1 X183.3560 Y-65.2866
G1 X183.2295 Y-65.3225
G1 X183.1035 Y-65.3600
G1 X182.9783 Y-65.3992
G1 X182.8536 Y-65.4401
G1 X182.7296 Y-65.4827
G1 X182.6064 Y-65.5267
G1 X182.4838 Y-65.5726
G1 X182.3621 Y-65.6199
G1 X182.2412 Y-65.6689
G1 X182.1210 Y-65.7195
G1 X182.0017 Y-65.7715
G1 X181.8830 Y-65.8254
G1 X181.7654 Y-65.8807
G1 X181.6489 Y-65.9376
G1 X181.5330 Y-65.9961
G1 X181.4182 Y-66.0560
G1 X181.3044 Y-66.1175
G1 X181.1914 Y-66.1807
G1 X181.0796 Y-66.2452
G1 X180.9689 Y-66.3113
G1 X180.8592 Y-66.3791
G1 X180.7507 Y-66.4482
G1 X180.6433 Y-66.5188
G1 X180.5371 Y-66.5909
G1 X180.4319 Y-66.6646
G1 X180.3281 Y-66.7398
G1 X180.2254 Y-66.8162
G1 X180.1241 Y-66.8942
G1 X180.0240 Y-66.9737
G1 X179.9252 Y-67.0547
G1 X179.8277 Y-67.1370
G1 X179.7317 Y-67.2208
G1 X179.6369 Y-67.3062
G1 X179.5435 Y-67.3928
G1 X179.4518 Y-67.4809
G1 X179.3613 Y-67.5704
G1 X179.2722 Y-67.6613
G1 X179.1848 Y-67.7535
G1 X179.0990 Y-67.8472
G1 X179.0146 Y-67.9422
G1 X178.9318 Y-68.0385
G1 X178.8508 Y-68.1363
G1 X178.7713 Y-68.2353
G1 X178.6936 Y-68.3357
G1 X178.6174 Y-68.4375
G1 X178.4980 Y-68.6026
G1 X178.3824 Y-68.7682
G1 X178.2709 Y-68.9336
G1 X178.1632 Y-69.0992
G1 X178.0596 Y-69.2650
G1 X177.9595 Y-69.4306
G1 X177.8635 Y-69.5965
G1 X177.7710 Y-69.7624
G1 X177.6827 Y-69.9282
G1 X177.5976 Y-70.0943
G1 X177.5165 Y-70.2605
G1 X177.4388 Y-70.4266
G1 X177.3649 Y-70.5927
G1 X177.2943 Y-70.7588
G1 X177.2275 Y-70.9249
G1 X177.1640 Y-71.0910
G1 X177.1040 Y-71.2574
G1 X177.0474 Y-71.4235
G1 X176.9943 Y-71.5896
G1 X176.9443 Y-71.7560
G1 X176.8978 Y-71.9221
G1 X176.8546 Y-72.0882
G1 X176.8145 Y-72.2546
G1 X176.7776 Y-72.4207
G1 X176.7441 Y-72.5868
G1 X176.7134 Y-72.7527
G1 X176.6862 Y-72.9188
G1 X176.6618 Y-73.0847
G1 X176.6405 Y-73.2506
G1 X176.6219 Y-73.4164
G1 X176.6067 Y-73.5823
G1 X176.5943 Y-73.7479
G1 X176.5846 Y-73.9135
G1 X176.5778 Y-74.0791
G1 X176.5739 Y-74.2445
G1 X176.5727 Y-74.4098
G1 X176.5744 Y-74.5752
G1 X176.5788 Y-74.7403
G1 X176.5856 Y-74.9054
G1 X176.5953 Y-75.0702
G1 X176.6075 Y-75.2348
G1 X176.6222 Y-75.3994
G1 X176.6397 Y-75.5640
G1 X176.6595 Y-75.7283
G1 X176.6816 Y-75.8924
G1 X176.7065 Y-76.0565
G1 X176.7335 Y-76.2203
G1 X176.7629 Y-76.3841
G1 X176.7947 Y-76.5477
G1 X176.8287 Y-76.7110
G1 X176.8650 Y-76.8741
G1 X176.9036 Y-77.0372
G1 X176.9443 Y-77.2000
G1 X176.9869 Y-77.3626
G1 X177.0319 Y-77.5249
G1 X177.0789 Y-77.6872
G1 X177.1279 Y-77.8490
G1 X177.1790 Y-78.0108
G1 X177.2321 Y-78.1721
G1 X177.2869 Y-78.3333
G1 X177.3438 Y-78.4944
G1 X177.4025 Y-78.6552
G1 X177.4629 Y-78.8157
G1 X177.5252 Y-78.9760
G1 X177.5894 Y-79.1357
G1 X177.6550 Y-79.2955
G1 X177.7225 Y-79.4550
G1 X177.7916 Y-79.6140
G1 X177.8622 Y-79.7730
G1 X177.9346 Y-79.9315
G1 X178.0083 Y-80.0898
G1 X178.0837 Y-80.2477
G1 X178.1604 Y-80.4052
G1 X178.2387 Y-80.5627
G1 X178.3184 Y-80.7197
G1 X178.3994 Y-80.8761
G1 X178.4817 Y-81.0326
G1 X178.5653 Y-81.1886
G1 X178.6501 Y-81.3443
G1 X178.7362 Y-81.4995
G1 X178.8234 Y-81.6544
G1 X178.9118 Y-81.8088
G1 X179.0014 Y-81.9630
G1 X179.0918 Y-82.1169
G1 X179.1835 Y-82.2703
G1 X179.2762 Y-82.4233
G1 X179.3700 Y-82.5759
G1 X179.4645 Y-82.7281
G1 X179.5600 Y-82.8799
G1 X179.6562 Y-83.0313
G1 X179.7535 Y-83.1825
G1 X179.8513 Y-83.3331
G1 X179.9501 Y-83.4832
G1 X180.0497 Y-83.6328
G1 X180.1498 Y-83.7822
G1 X180.2506 Y-83.9310
G1 X180.3519 Y-84.0793
G1 X180.5564 Y-84.3747
G1 X180.6595 Y-84.5218
G1 X180.8671 Y-84.8142
G1 X180.9714 Y-84.9597
G1 X181.1812 Y-85.2493
G1 X181.3923 Y-85.5370
G1 X181.6044 Y-85.8225
G1 X181.7106 Y-85.9645
G1 X181.9234 Y-86.2467
G1 X182.0299 Y-86.3872
G1 X182.3494 Y-86.8048
G1 X182.6682 Y-87.2175
G1 X183.0901 Y-87.7593
G1 X183.6097 Y-88.4230
G1 X185.1119 Y-90.1167
G1 X185.7563 Y-90.8454
G1 X186.9366 Y-92.1852
; Retract
G1 Z2.5400 F2540

; Path 3
; Rapid to initial position
G1 X201.3730 Y-106.3155 F2540
G1 Z0.0000
; plunge
G1 Z-3.1750 F127
; cut
G1 X201.4670 Y-106.2220 F1016
G1 X201.5607 Y-106.1296
G1 X201.6542 Y-106.0381
G1 X201.7476 Y-105.9475
G1 X201.8408 Y-105.8578
G1 X201.9341 Y-105.7692
G1 X202.1208 Y-105.5941
G1 X202.2142 Y-105.5080
G1 X202.3077 Y-105.4227
G1 X202.4014 Y-105.3381
G1 X202.4954 Y-105.2543
G1 X202.5896 Y-105.1712
G1 X202.7791 Y-105.0072
G1 X202.8744 Y-104.9264
G1 X202.9701 Y-104.8461
G1 X203.0664 Y-104.7666
G1 X203.1632 Y-104.6876
G1 X203.2605 Y-104.6094
G1 X203.3585 Y-104.5317
G1 X203.4570 Y-104.4545
G1 X203.5564 Y-104.3780
G1 X203.6564 Y-104.3021
G1 X203.7570 Y-104.2264
G1 X203.8589 Y-104.1514
G1 X203.9612 Y-104.0770
G1 X204.0649 Y-104.0028
G1 X204.1693 Y-103.9292
G1 X204.2747 Y-103.8560
G1 X204.3811 Y-103.7834
G1 X204.4885 Y-103.7110
G1 X204.5922 Y-103.6424
G1 X204.6976 Y-103.5738
G1 X204.8053 Y-103.5055
G1 X204.9145 Y-103.4377
G1 X205.0258 Y-103.3701
G1 X205.1388 Y-103.3033
G1 X205.2536 Y-103.2373
G1 X205.3697 Y-103.1720
G1 X205.4875 Y-103.1075
G1 X205.6067 Y-103.0440
G1 X205.7270 Y-102.9818
G1 X205.8487 Y-102.9208
G1 X205.9714 Y-102.8611
G1 X206.0953 Y-102.8029
G1 X206.2203 Y-102.7463
G1 X206.3460 Y-102.6912
G1 X206.4725 Y-102.6381
G1 X206.5998 Y-102.5868
G1 X206.7278 Y-102.5375
G1 X206.8561 Y-102.4903
G1 X206.9851 Y-102.4456
G1 X207.1144 Y-102.4029
G1 X207.2442 Y-102.3628
G1 X207.3740 Y-102.3252
G1 X207.5040 Y-102.2904
G1 X207.6338 Y-102.2584
G1 X207.7639 Y-102.2292
G1 X207.8937 Y-102.2030
G1 X208.0235 Y-102.1799
G1 X208.1527 Y-102.1601
G1 X208.2818 Y-102.1436
G1 X208.4103 Y-102.1306
G1 X208.5383 Y-102.1210
G1 X208.6656 Y-102.1151
G1 X208.7923 Y-102.1131
G1 X208.7923 Y-102.1131
G1 X208.9180 Y-102.1149
G1 X209.0430 Y-102.1207
G1 X209.1670 Y-102.1309
G1 X209.2899 Y-102.1448
G1 X209.4118 Y-102.1634
G1 X209.5322 Y-102.1865
G1 X209.6516 Y-102.2139
G1 X209.7695 Y-102.2459
G1 X209.8858 Y-102.2830
G1 X210.0006 Y-102.3247
G1 X210.1139 Y-102.3717
G1 X210.2254 Y-102.4235
G1 X210.3349 Y-102.4806
G1 X210.4426 Y-102.5431
G1 X210.5485 Y-102.6109
G1 X210.6521 Y-102.6843
G1 X210.7535 Y-102.7633
G1 X210.8528 Y-102.8482
G1 X210.9498 Y-102.9388
G1 X211.0443 Y-103.0356
G1 X211.1365 Y-103.1382
G1 X211.2259 Y-103.2474
G1 X211.3128 Y-103.3628
G1 X211.3966 Y-103.4844
G1 X211.4779 Y-103.6127
G1 X211.5563 Y-103.7476
G1 X211.6315 Y-103.8893
G1 X211.7037 Y-104.0376
G1 X211.7728 Y-104.1933
G1 X211.8314 Y-104.3371
G1 X211.8858 Y-104.4824
G1 X211.9358 Y-104.6290
G1 X211.9818 Y-104.7765
G1 X212.0235 Y-104.9256
G1 X212.0610 Y-105.0757
G1 X212.0948 Y-105.2271
G1 X212.1245 Y-105.3795
G1 X212.1502 Y-105.5332
G1 X212.1720 Y-105.6879
G1 X212.1901 Y-105.8436
G1 X212.2043 Y-106.0003
G1 X212.2150 Y-106.1583
G1 X212.2218 Y-106.3170
G1 X212.2251 Y-106.4768
G1 X212.2249 Y-106.6376
G1 X212.2208 Y-106.7991
G1 X212.2137 Y-106.9617
G1 X212.2030 Y-107.1250
G1 X212.1888 Y-107.2893
G1 X212.1715 Y-107.4542
G1 X212.1510 Y-107.6201
G1 X212.1271 Y-107.7867
G1 X212.1002 Y-107.9538
G1 X212.0699 Y-108.1217
G1 X212.0369 Y-108.2904
G1 X212.0006 Y-108.4598
G1 X211.9615 Y-108.6297
G1 X211.9196 Y-108.8001
G1 X211.8746 Y-108.9713
G1 X211.8271 Y-109.1430
G1 X211.7766 Y-109.3150
G1 X211.7235 Y-109.4877
G1 X211.6679 Y-109.6609
G1 X211.6094 Y-109.8344
G1 X211.5485 Y-110.0084
G1 X211.4852 Y-110.1827
G1 X211.4194 Y-110.3574
G1 X211.3511 Y-110.5324
G1 X211.2808 Y-110.7079
G1 X211.2079 Y-110.8834
G1 X211.1329 Y-111.0592
G1 X211.0555 Y-111.2355
G1 X210.9762 Y-111.4118
G1 X210.8947 Y-111.5883
G1 X210.8114 Y-111.7648
G1 X210.7258 Y-111.9416
G1 X210.6386 Y-112.1186
G1 X210.5492 Y-112.2954
G1 X210.4583 Y-112.4725
G1 X210.3653 Y-112.6495
G1 X210.2709 Y-112.8265
G1 X210.1746 Y-113.0036
G1 X210.0768 Y-113.1804
G1 X209.9775 Y-113.3574
G1 X209.8764 Y-113.5339
G1 X209.7740 Y-113.7107
G1 X209.6701 Y-113.8870
G1 X209.5650 Y-114.0633
G1 X209.4586 Y-114.2393
G1 X209.3509 Y-114.4151
G1 X209.2419 Y-114.5906
G1 X209.1319 Y-114.7658
G1 X209.0207 Y-114.9406
G1 X208.9084 Y-115.1151
G1 X208.7951 Y-115.2893
G1 X208.6811 Y-115.4631
G1 X208.5660 Y-115.6365
G1 X208.4499 Y-115.8093
G1 X208.3333 Y-115.9817
G1 X208.2157 Y-116.1537
G1 X208.0976 Y-116.3251
G1 X207.9788 Y-116.4958
G1 X207.8594 Y-116.6663
G1 X207.7395 Y-116.8357
G1 X207.6191 Y-117.0048
G1 X207.4982 Y-117.1732
G1 X207.3768 Y-117.3409
G1 X207.1334 Y-117.6739
G1 X206.8888 Y-118.0041
G1 X206.7664 Y-118.1679
G1 X206.5216 Y-118.4928
G1 X206.2764 Y-118.8143
G1 X206.0321 Y-119.1321
G1 X205.7888 Y-119.4458
G1 X205.4261 Y-119.9083
G1 X205.1865 Y-120.2111
G1 X204.9496 Y-120.5090
G1 X204.4842 Y-121.0899
G1 X203.2881 Y-122.5715
G1 X202.8937 Y-123.0633
G1 X202.7060 Y-123.2987
G1 X202.5256 Y-123.5271
G1 X202.3527 Y-123.7480
G1 X202.1876 Y-123.9614
G1 X202.1081 Y-124.0653
G1 X201.9557 Y-124.2670
G1 X199.5345 Y-127.1595
G1 X199.3143 Y-127.4163
G1 X199.0943 Y-127.6744
G1 X198.7652 Y-128.0638
G1 X198.4372 Y-128.4554
G1 X198.2191 Y-128.7178
G1 X197.8932 Y-129.1135
G1 X197.6765 Y-129.3785
G1 X197.4606 Y-129.6444
G1 X197.1380 Y-130.0452
G1 X196.9242 Y-130.3134
G1 X196.7111 Y-130.5827
G1 X196.4987 Y-130.8527
G1 X196.2874 Y-131.1234
G1 X196.0771 Y-131.3952
G1 X195.8678 Y-131.6678
G1 X195.6595 Y-131.9408
G1 X195.3494 Y-132.3520
G1 X195.1439 Y-132.6271
G1 X194.9397 Y-132.9027
G1 X194.7367 Y-133.1791
G1 X194.5353 Y-133.4559
G1 X194.4350 Y-133.5946
G1 X194.2356 Y-133.8725
G1 X194.0375 Y-134.1509
G1 X193.8409 Y-134.4298
G1 X193.6458 Y-134.7092
G1 X193.4522 Y-134.9891
G1 X193.2602 Y-135.2695
G1 X193.0700 Y-135.5504
G1 X192.9755 Y-135.6909
G1 X188.5993 Y-142.2591
G1 X188.5053 Y-142.4010
G1 X188.2803 Y-142.7444
G1 X188.0111 Y-143.1595
G1 X187.7042 Y-143.6365
G1 X187.3661 Y-144.1666
G1 X187.0961 Y-144.5933
G1 X186.7195 Y-145.1938
G1 X186.4281 Y-145.6629
G1 X186.1322 Y-146.1435
G1 X185.8345 Y-146.6317
G1 X185.6364 Y-146.9596
G1 X185.4396 Y-147.2880
G1 X185.2447 Y-147.6159
G1 X185.0530 Y-147.9420
G1 X184.8650 Y-148.2651
G1 X184.7726 Y-148.4252
G1 X184.5915 Y-148.7419
G1 X184.4164 Y-149.0525
G1 X184.2478 Y-149.3563
G1 X184.1663 Y-149.5054
G1 X184.0868 Y-149.6522
G1 X184.0093 Y-149.7965
G1 X183.9338 Y-149.9385
G1 X183.8607 Y-150.0779
G1 X183.7901 Y-150.2146
G1 X183.7218 Y-150.3482
G1 X183.6560 Y-150.4790
G1 X183.5930 Y-150.6065
G1 X183.5328 Y-150.7307
G1 X183.4558 Y-150.8973
G1 X183.3857 Y-151.0609
G1 X183.3225 Y-151.2212
G1 X183.2661 Y-151.3782
G1 X183.2165 Y-151.5318
G1 X183.1734 Y-151.6822
G1 X183.1365 Y-151.8290
G1 X183.1061 Y-151.9723
G1 X183.0817 Y-152.1120
G1 X183.0634 Y-152.2481
G1 X183.0509 Y-152.3807
G1 X183.0443 Y-152.5095
G1 X183.0433 Y-152.6344
G1 X183.0476 Y-152.7556
G1 X183.0575 Y-152.8727
G1 X183.0728 Y-152.9860
G1 X183.0929 Y-153.0952
G1 X183.1183 Y-153.2004
G1 X183.1482 Y-153.3012
G1 X183.1830 Y-153.3982
G1 X183.2226 Y-153.4907
G1 X183.2666 Y-153.5791
G1 X183.3148 Y-153.6629
G1 X183.3672 Y-153.7424
G1 X183.4238 Y-153.8173
G1 X183.4845 Y-153.8877
G1 X183.5488 Y-153.9537
G1 X183.6171 Y-154.0149
G1 X183.6887 Y-154.0713
G1 X183.7639 Y-154.1231
G1 X183.8424 Y-154.1699
G1 X183.9239 Y-154.2120
G1 X184.0088 Y-154.2491
G1 X184.0964 Y-154.2811
G1 X184.1871 Y-154.3083
G1 X184.2803 Y-154.3301
G1 X184.3761 Y-154.3469
G1 X184.4741 Y-154.3583
G1 X184.5747 Y-154.3647
G1 X184.6773 Y-154.3655
G1 X184.7822 Y-154.3611
G1 X184.8886 Y-154.3512
G1 X184.9971 Y-154.3357
G1 X185.1073 Y-154.3147
G1 X185.2188 Y-154.2880
G1 X185.3319 Y-154.2555
G1 X185.4462 Y-154.2174
G1 X185.5617 Y-154.1734
G1 X185.6781 Y-154.1239
G1 X185.7954 Y-154.0680
G1 X185.9135 Y-154.0066
G1 X186.0324 Y-153.9387
G1 X186.1515 Y-153.8651
G1 X186.2712 Y-153.7851
G1 X186.3910 Y-153.6990
G1 X186.5112 Y-153.6065
G1 X186.6311 Y-153.5079
G1 X186.7510 Y-153.4028
G1 X186.8706 Y-153.2913
G1 X186.9900 Y-153.1732
G1 X187.1086 Y-153.0487
G1 X187.2267 Y-152.9174
G1 X187.3440 Y-152.7797
G1 X187.4604 Y-152.6352
G1 X187.5442 Y-152.5247
G1 X187.6250 Y-152.4127
G1 X187.7027 Y-152.2992
G1 X187.7776 Y-152.1838
G1 X189.1137 Y-150.0462
G1 X190.4512 Y-147.9149
G1 X190.8459 Y-147.2888
G1 X191.4794 Y-146.2877
G1 X192.2757 Y-145.0373
G1 X192.8365 Y-144.1625
G1 X192.9567 Y-143.9593
G1 X193.0784 Y-143.7576
G1 X193.2013 Y-143.5572
G1 X193.3252 Y-143.3579
G1 X193.4507 Y-143.1597
G1 X193.5770 Y-142.9626
G1 X193.7045 Y-142.7663
G1 X193.8330 Y-142.5710
G1 X193.9623 Y-142.3764
G1 X194.0926 Y-142.1826
G1 X194.2236 Y-141.9896
G1 X194.3555 Y-141.7970
G1 X194.4878 Y-141.6050
G1 X194.6209 Y-141.4132
G1 X194.7545 Y-141.2220
G1 X195.0232 Y-140.8405
G1 X195.2932 Y-140.4592
G1 X195.8358 Y-139.6964
G1 X196.1070 Y-139.3137
G1 X196.3778 Y-138.9289
G1 X196.5129 Y-138.7358
G1 X196.6476 Y-138.5420
G1 X196.7819 Y-138.3475
G1 X196.9158 Y-138.1519
G1 X197.1426 Y-137.8179
G1 X197.2373 Y-137.6792
G1 X197.3334 Y-137.5400
G1 X197.4306 Y-137.4005
G1 X197.5292 Y-137.2608
G1 X197.6290 Y-137.1209
G1 X197.7301 Y-136.9809
G1 X197.8325 Y-136.8412
G1 X197.9364 Y-136.7015
G1 X198.0413 Y-136.5623
G1 X198.1474 Y-136.4234
G1 X198.2551 Y-136.2852
G1 X198.3638 Y-136.1476
G1 X198.4741 Y-136.0109
G1 X198.5856 Y-135.8750
G1 X198.6984 Y-135.7404
G1 X198.8124 Y-135.6068
G1 X198.9277 Y-135.4745
G1 X199.0446 Y-135.3436
G1 X199.1627 Y-135.2141
G1 X199.2820 Y-135.0866
G1 X199.4027 Y-134.9606
G1 X199.5249 Y-134.8367
G1 X199.6483 Y-134.7145
G1 X199.7730 Y-134.5949
G1 X199.8990 Y-134.4773
G1 X200.0265 Y-134.3619
G1 X200.1553 Y-134.2492
G1 X200.2856 Y-134.1392
G1 X200.4172 Y-134.0317
G1 X200.5500 Y-133.9273
G1 X200.6844 Y-133.8257
G1 X200.7743 Y-133.7607
G1 X200.8668 Y-133.6970
G1 X200.9615 Y-133.6347
G1 X201.0588 Y-133.5740
G1 X201.1581 Y-133.5148
G1 X201.2597 Y-133.4569
G1 X201.3636 Y-133.4008
G1 X201.4692 Y-133.3462
G1 X201.5769 Y-133.2934
G1 X201.6864 Y-133.2421
G1 X201.7977 Y-133.1925
G1 X201.9107 Y-133.1448
G1 X202.0252 Y-133.0988
G1 X202.1413 Y-133.0546
G1 X202.2589 Y-133.0124
G1 X202.3778 Y-132.9720
G1 X202.4979 Y-132.9337
G1 X202.6194 Y-132.8971
G1 X202.7418 Y-132.8628
G1 X202.8652 Y-132.8306
G1 X202.9897 Y-132.8003
G1 X203.1152 Y-132.7722
G1 X203.2414 Y-132.7465
G1 X203.3681 Y-132.7226
G1 X203.4957 Y-132.7013
G1 X203.6237 Y-132.6822
G1 X203.7522 Y-132.6655
G1 X203.8810 Y-132.6510
G1 X204.0103 Y-132.6391
G1 X204.1395 Y-132.6294
G1 X204.2691 Y-132.6223
G1 X204.3986 Y-132.6180
G1 X204.5282 Y-132.6159
G1 X204.6577 Y-132.6164
G1 X204.7870 Y-132.6198
G1 X204.9158 Y-132.6256
G1 X205.0445 Y-132.6345
G1 X205.1726 Y-132.6459
G1 X205.3003 Y-132.6601
G1 X205.4273 Y-132.6772
G1 X205.5538 Y-132.6970
G1 X205.6795 Y-132.7198
G1 X205.8043 Y-132.7455
G1 X205.9282 Y-132.7744
G1 X206.0509 Y-132.8062
G1 X206.1728 Y-132.8410
G1 X206.2935 Y-132.8788
G1 X206.4128 Y-132.9200
G1 X206.5307 Y-132.9642
G1 X206.6473 Y-133.0117
G1 X206.7626 Y-133.0625
G1 X206.8761 Y-133.1163
G1 X206.9879 Y-133.1737
G1 X207.0981 Y-133.2344
G1 X207.2063 Y-133.2984
G1 X207.3128 Y-133.3660
G1 X207.4172 Y-133.4371
G1 X207.5195 Y-133.5118
G1 X207.6199 Y-133.5898
G1 X207.7176 Y-133.6716
G1 X207.8134 Y-133.7569
G1 X207.9066 Y-133.8461
G1 X207.9976 Y-133.9388
G1 X208.0857 Y-134.0353
G1 X208.2300 Y-134.2014
G1 X208.3722 Y-134.3729
G1 X208.5101 Y-134.5494
G1 X208.6412 Y-134.7313
G1 X208.7639 Y-134.9187
G1 X208.8754 Y-135.1117
G1 X208.9739 Y-135.3104
G1 X209.0572 Y-135.5151
G1 X209.1113 Y-135.6756
G1 X209.1588 Y-135.8374
G1 X209.1995 Y-136.0007
G1 X209.2335 Y-136.1651
G1 X209.2612 Y-136.3307
G1 X209.2825 Y-136.4976
G1 X209.2980 Y-136.6655
G1 X209.3074 Y-136.8344
G1 X209.3110 Y-137.0046
G1 X209.3090 Y-137.1755
G1 X209.3016 Y-137.3472
G1 X209.2889 Y-137.5199
G1 X209.2709 Y-137.6934
G1 X209.2480 Y-137.8674
G1 X209.2203 Y-138.0421
G1 X209.1878 Y-138.2177
G1 X209.1507 Y-138.3937
G1 X209.1096 Y-138.5702
G1 X209.0638 Y-138.7470
G1 X209.0143 Y-138.9245
G1 X208.9607 Y-139.1021
G1 X208.9033 Y-139.2801
G1 X208.8426 Y-139.4582
G1 X208.7783 Y-139.6365
G1 X208.7105 Y-139.8151
G1 X208.6399 Y-139.9936
G1 X208.5663 Y-140.1722
G1 X208.4896 Y-140.3505
G1 X208.4103 Y-140.5291
G1 X208.3288 Y-140.7071
G1 X208.2447 Y-140.8852
G1 X208.1583 Y-141.0630
G1 X208.0702 Y-141.2403
G1 X207.9800 Y-141.4173
G1 X207.8881 Y-141.5941
G1 X207.7946 Y-141.7701
G1 X207.6996 Y-141.9456
G1 X207.6033 Y-142.1206
G1 X207.5061 Y-142.2949
G1 X207.4080 Y-142.4686
G1 X207.3090 Y-142.6413
G1 X207.2091 Y-142.8135
G1 X207.1091 Y-142.9847
G1 X207.0087 Y-143.1549
G1 X206.8073 Y-143.4922
G1 X206.6066 Y-143.8252
G1 X206.1152 Y-144.6360
G1 X206.0199 Y-144.7937
G1 X205.8340 Y-145.1049
G1 X205.7433 Y-145.2580
G1 X205.6547 Y-145.4094
G1 X205.5678 Y-145.5590
G1 X205.4832 Y-145.7068
G1 X205.4009 Y-145.8529
G1 X205.3212 Y-145.9969
G1 X205.2439 Y-146.1392
G1 X205.1695 Y-146.2791
G1 X202.3313 Y-151.1310
G1 X202.2770 Y-151.2217
G1 X202.2163 Y-151.3213
G1 X202.0778 Y-151.5453
G1 X202.0009 Y-151.6690
G1 X201.4502 Y-152.5453
G1 X201.1345 Y-153.0500
G1 X200.9153 Y-153.4028
G1 X200.6928 Y-153.7647
G1 X200.4692 Y-154.1323
G1 X200.3582 Y-154.3172
G1 X200.2483 Y-154.5018
G1 X200.1393 Y-154.6865
G1 X200.0321 Y-154.8699
G1 X199.9267 Y-155.0523
G1 X199.8236 Y-155.2329
G1 X199.7232 Y-155.4114
G1 X199.6260 Y-155.5872
G1 X199.5320 Y-155.7602
G1 X199.4418 Y-155.9293
G1 X199.3557 Y-156.0949
G1 X199.2640 Y-156.2791
G1 X199.1812 Y-156.4592
G1 X199.1070 Y-156.6349
G1 X199.0413 Y-156.8066
G1 X198.9836 Y-156.9738
G1 X198.9338 Y-157.1366
G1 X198.8919 Y-157.2951
G1 X198.8576 Y-157.4493
G1 X198.8307 Y-157.5989
G1 X198.8111 Y-157.7442
G1 X198.7984 Y-157.8849
G1 X198.7926 Y-158.0210
G1 X198.7934 Y-158.1526
G1 X198.8005 Y-158.2796
G1 X198.8142 Y-158.4020
G1 X198.8337 Y-158.5199
G1 X198.8591 Y-158.6329
G1 X198.8901 Y-158.7414
G1 X198.9267 Y-158.8450
G1 X198.9686 Y-158.9441
G1 X199.0156 Y-159.0380
G1 X199.0674 Y-159.1274
G1 X199.1241 Y-159.2120
G1 X199.1853 Y-159.2915
G1 X199.2506 Y-159.3662
G1 X199.3201 Y-159.4361
G1 X199.3938 Y-159.5008
G1 X199.4710 Y-159.5605
G1 X199.5518 Y-159.6151
G1 X199.6361 Y-159.6649
G1 X199.7235 Y-159.7096
G1 X199.8139 Y-159.7490
G1 X199.9069 Y-159.7833
G1 X200.0026 Y-159.8125
G1 X200.1009 Y-159.8364
G1 X200.2013 Y-159.8552
G1 X200.3036 Y-159.8686
G1 X200.4078 Y-159.8767
G1 X200.5137 Y-159.8798
G1 X200.6211 Y-159.8773
G1 X200.7296 Y-159.8694
G1 X200.8391 Y-159.8559
G1 X200.9496 Y-159.8371
G1 X201.0608 Y-159.8130
G1 X201.1723 Y-159.7833
G1 X201.2843 Y-159.7480
G1 X201.3963 Y-159.7073
G1 X201.5081 Y-159.6608
G1 X201.6199 Y-159.6088
G1 X201.7309 Y-159.5511
G1 X201.8414 Y-159.4879
G1 X201.9511 Y-159.4188
G1 X202.0595 Y-159.3441
G1 X202.1670 Y-159.2636
G1 X202.2726 Y-159.1772
G1 X202.3770 Y-159.0850
G1 X202.4794 Y-158.9870
G1 X202.5797 Y-158.8831
G1 X202.6778 Y-158.7731
G1 X202.7735 Y-158.6575
G1 X202.8668 Y-158.5356
G1 X202.9572 Y-158.4079
G1 X203.0446 Y-158.2743
G1 X203.1286 Y-158.1343
G1 X203.2399 Y-157.9430
G1 X203.3532 Y-157.7510
G1 X203.4680 Y-157.5580
G1 X203.5846 Y-157.3642
G1 X203.7024 Y-157.1696
G1 X203.8220 Y-156.9743
G1 X203.9427 Y-156.7785
G1 X204.0646 Y-156.5821
G1 X204.1878 Y-156.3850
G1 X204.3118 Y-156.1876
G1 X204.4367 Y-155.9900
G1 X204.6889 Y-155.5935
G1 X205.0712 Y-154.9979
G1 X206.0938 Y-153.4152
G1 X206.3458 Y-153.0236
G1 X206.5942 Y-152.6347
G1 X206.8385 Y-152.2489
G1 X206.9589 Y-152.0574
G1 X207.0781 Y-151.8669
G1 X207.2434 Y-151.5811
G1 X207.4106 Y-151.2961
G1 X207.5790 Y-151.0119
G1 X207.7486 Y-150.7279
G1 X207.9196 Y-150.4445
G1 X208.0913 Y-150.1615
G1 X208.3506 Y-149.7378
G1 X208.7857 Y-149.0327
G1 X209.4852 Y-147.9052
G1 X209.8340 Y-147.3408
G1 X210.0943 Y-146.9166
G1 X210.3531 Y-146.4917
G1 X210.6097 Y-146.0657
G1 X210.7796 Y-145.7810
G1 X211.0318 Y-145.3528
G1 X211.1982 Y-145.0663
G1 X211.3631 Y-144.7790
G1 X211.4448 Y-144.6350
G1 X211.6069 Y-144.3464
G1 X211.7672 Y-144.0569
G1 X211.9254 Y-143.7663
G1 X212.0036 Y-143.6205
G1 X212.0814 Y-143.4744
G1 X212.1583 Y-143.3284
G1 X212.3107 Y-143.0348
G1 X212.3862 Y-142.8877
G1 X212.4606 Y-142.7401
G1 X212.5543 Y-142.5567
G1 X212.6404 Y-142.3914
G1 X212.7222 Y-142.2375
G1 X212.8032 Y-142.0891
G1 X212.8871 Y-141.9400
G1 X212.9767 Y-141.7841
G1 X213.0760 Y-141.6152
G1 X213.1883 Y-141.4269
G1 X213.2739 Y-141.2865
G1 X213.3554 Y-141.1602
G1 X213.4344 Y-141.0477
G1 X213.5121 Y-140.9479
G1 X213.5901 Y-140.8603
G1 X213.6701 Y-140.7841
G1 X213.7534 Y-140.7183
G1 X213.8418 Y-140.6627
G1 X213.9366 Y-140.6164
G1 X214.0394 Y-140.5783
G1 X214.1520 Y-140.5484
G1 X214.2754 Y-140.5252
G1 X214.4116 Y-140.5087
G1 X214.5617 Y-140.4978
G1 X214.7278 Y-140.4917
G1 X214.9109 Y-140.4897
G1 X215.0445 Y-140.4912
G1 X215.1774 Y-140.4955
G1 X215.3092 Y-140.5029
G1 X215.4398 Y-140.5128
G1 X215.5695 Y-140.5258
G1 X215.6983 Y-140.5415
G1 X215.8258 Y-140.5598
G1 X215.9521 Y-140.5811
G1 X216.0773 Y-140.6050
G1 X216.2010 Y-140.6314
G1 X216.3237 Y-140.6606
G1 X216.4451 Y-140.6926
G1 X216.5650 Y-140.7272
G1 X216.6836 Y-140.7643
G1 X216.8007 Y-140.8041
G1 X216.9165 Y-140.8463
G1 X217.0306 Y-140.8910
G1 X217.1433 Y-140.9383
G1 X217.2543 Y-140.9880
G1 X217.3638 Y-141.0404
G1 X217.4718 Y-141.0950
G1 X217.5779 Y-141.1519
G1 X217.6823 Y-141.2113
G1 X217.7849 Y-141.2733
G1 X217.8858 Y-141.3373
G1 X217.9848 Y-141.4036
G1 X218.0819 Y-141.4724
G1 X218.1771 Y-141.5433
G1 X218.2703 Y-141.6164
G1 X218.3618 Y-141.6919
G1 X218.4509 Y-141.7696
G1 X218.5383 Y-141.8493
G1 X218.6234 Y-141.9311
G1 X218.7064 Y-142.0150
G1 X218.7872 Y-142.1011
G1 X218.8657 Y-142.1892
G1 X218.9422 Y-142.2794
G1 X219.0163 Y-142.3716
G1 X219.0880 Y-142.4658
G1 X219.1575 Y-142.5621
G1 X219.2244 Y-142.6601
G1 X219.2891 Y-142.7599
G1 X219.3511 Y-142.8618
G1 X219.4108 Y-142.9657
G1 X219.4679 Y-143.0713
G1 X219.5223 Y-143.1788
G1 X219.5741 Y-143.2880
G1 X219.6234 Y-143.3990
G1 X219.6699 Y-143.5115
G1 X219.7136 Y-143.6261
G1 X219.7547 Y-143.7422
G1 X219.7928 Y-143.8600
G1 X219.8284 Y-143.9794
G1 X219.8606 Y-144.1005
G1 X219.8903 Y-144.2232
G1 X219.9170 Y-144.3477
G1 X219.9406 Y-144.4734
G1 X219.9612 Y-144.6007
G1 X219.9787 Y-144.7297
G1 X219.9932 Y-144.8600
G1 X220.0044 Y-144.9916
G1 X220.0125 Y-145.1249
G1 X220.0173 Y-145.2596
G1 X220.0191 Y-145.3954
G1 X220.0184 Y-145.4777
G1 X220.0161 Y-145.5618
G1 X220.0123 Y-145.6474
G1 X220.0072 Y-145.7350
G1 X220.0006 Y-145.8239
G1 X219.9924 Y-145.9146
G1 X219.9830 Y-146.0071
G1 X219.9721 Y-146.1011
G1 X219.9599 Y-146.1966
G1 X219.9465 Y-146.2936
G1 X219.9315 Y-146.3921
G1 X219.9155 Y-146.4922
G1 X219.8980 Y-146.5936
G1 X219.8792 Y-146.6964
G1 X219.8591 Y-146.8008
G1 X219.8378 Y-146.9065
G1 X219.8154 Y-147.0134
G1 X219.7918 Y-147.1219
G1 X219.7669 Y-147.2316
G1 X219.7138 Y-147.4546
G1 X219.6854 Y-147.5679
G1 X219.6559 Y-147.6825
G1 X219.6254 Y-147.7980
G1 X219.5939 Y-147.9149
G1 X219.5614 Y-148.0327
G1 X219.5276 Y-148.1516
G1 X219.4928 Y-148.2717
G1 X219.4573 Y-148.3926
G1 X219.4207 Y-148.5146
G1 X219.3445 Y-148.7614
G1 X219.2645 Y-149.0121
G1 X219.1809 Y-149.2659
G1 X219.1380 Y-149.3942
G1 X219.0493 Y-149.6527
G1 X218.9577 Y-149.9141
G1 X218.9107 Y-150.0459
G1 X218.8144 Y-150.3114
G1 X218.7153 Y-150.5791
G1 X218.6648 Y-150.7137
G1 X218.5617 Y-150.9845
G1 X218.5093 Y-151.1206
G1 X218.4027 Y-151.3939
G1 X218.2937 Y-151.6685
G1 X218.1827 Y-151.9446
G1 X218.0697 Y-152.2217
G1 X217.8969 Y-152.6385
G1 X217.7796 Y-152.9171
G1 X217.6610 Y-153.1960
G1 X217.5411 Y-153.4749
G1 X217.4199 Y-153.7536
G1 X217.2365 Y-154.1706
G1 X217.1131 Y-154.4480
G1 X216.9269 Y-154.8620
G1 X216.8025 Y-155.1363
G1 X216.6150 Y-155.5450
G1 X216.4276 Y-155.9499
G1 X216.3028 Y-156.2169
G1 X216.1784 Y-156.4818
G1 X215.9925 Y-156.8740
G1 X215.8083 Y-157.2595
G1 X215.5657 Y-157.7622
G1 X215.3872 Y-158.1297
G1 X215.0966 Y-158.7216
G1 X214.8172 Y-159.2852
G1 X214.4492 Y-160.0195
G1 X214.0247 Y-160.8572
G1 X213.9503 Y-161.0065
G1 X213.8812 Y-161.1531
G1 X213.8177 Y-161.2966
G1 X213.7593 Y-161.4371
G1 X213.7059 Y-161.5745
G1 X213.6577 Y-161.7086
G1 X213.6145 Y-161.8397
G1 X213.5762 Y-161.9674
G1 X213.5429 Y-162.0919
G1 X213.5142 Y-162.2130
G1 X213.4900 Y-162.3309
G1 X213.4707 Y-162.4452
G1 X213.4558 Y-162.5562
G1 X213.4453 Y-162.6636
G1 X213.4392 Y-162.7675
G1 X213.4375 Y-162.8678
G1 X213.4400 Y-162.9646
G1 X213.4464 Y-163.0576
G1 X213.4570 Y-163.1470
G1 X213.4718 Y-163.2326
G1 X213.4903 Y-163.3144
G1 X213.5124 Y-163.3924
G1 X213.5386 Y-163.4665
G1 X213.5683 Y-163.5366
G1 X213.6016 Y-163.6029
G1 X213.6384 Y-163.6649
G1 X213.6788 Y-163.7231
G1 X213.7222 Y-163.7772
G1 X213.7692 Y-163.8270
G1 X213.8192 Y-163.8727
G1 X213.8723 Y-163.9141
G1 X213.9287 Y-163.9514
G1 X213.9879 Y-163.9842
G1 X214.0499 Y-164.0126
G1 X214.1149 Y-164.0368
G1 X214.1825 Y-164.0563
G1 X214.2528 Y-164.0716
G1 X214.3257 Y-164.0822
G1 X214.4009 Y-164.0883
G1 X214.4786 Y-164.0896
G1 X214.5589 Y-164.0865
G1 X214.6412 Y-164.0784
G1 X214.7255 Y-164.0657
G1 X214.8124 Y-164.0484
G1 X214.9010 Y-164.0261
G1 X214.9914 Y-163.9989
G1 X215.0839 Y-163.9667
G1 X215.1781 Y-163.9296
G1 X215.2741 Y-163.8874
G1 X215.3719 Y-163.8404
G1 X215.4710 Y-163.7881
G1 X215.5716 Y-163.7307
G1 X215.6737 Y-163.6682
G1 X215.7771 Y-163.6004
G1 X215.8817 Y-163.5272
G1 X215.9874 Y-163.4487
G1 X216.0943 Y-163.3649
G1 X216.2020 Y-163.2758
G1 X216.3110 Y-163.1813
G1 X216.4207 Y-163.0812
G1 X216.5309 Y-162.9755
G1 X216.6422 Y-162.8643
G1 X216.7539 Y-162.7475
G1 X216.8662 Y-162.6250
G1 X216.9648 Y-162.5133
G1 X217.0651 Y-162.3957
G1 X217.1670 Y-162.2722
G1 X217.2706 Y-162.1432
G1 X217.3760 Y-162.0088
G1 X217.4827 Y-161.8694
G1 X217.5906 Y-161.7246
G1 X217.6998 Y-161.5752
G1 X217.8106 Y-161.4211
G1 X217.9223 Y-161.2626
G1 X218.0349 Y-161.0998
G1 X218.1487 Y-160.9326
G1 X218.2632 Y-160.7617
G1 X218.3788 Y-160.5872
G1 X218.4949 Y-160.4089
G1 X218.6117 Y-160.2270
G1 X218.7291 Y-160.0421
G1 X218.8469 Y-159.8541
G1 X218.9650 Y-159.6631
G1 X219.0836 Y-159.4696
G1 X219.2023 Y-159.2735
G1 X219.3211 Y-159.0751
G1 X219.4403 Y-158.8745
G1 X219.5591 Y-158.6718
G1 X219.6780 Y-158.4673
G1 X219.7966 Y-158.2613
G1 X219.9150 Y-158.0538
G1 X220.0331 Y-157.8450
G1 X220.1507 Y-157.6352
G1 X220.2678 Y-157.4244
G1 X220.3841 Y-157.2128
G1 X220.4999 Y-157.0007
G1 X220.6153 Y-156.7884
G1 X220.7293 Y-156.5755
G1 X220.8426 Y-156.3629
G1 X220.9549 Y-156.1503
G1 X221.0661 Y-155.9382
G1 X221.1763 Y-155.7264
G1 X221.2851 Y-155.5153
G1 X221.3925 Y-155.3053
G1 X221.4984 Y-155.0962
G1 X221.6031 Y-154.8882
G1 X221.7059 Y-154.6817
G1 X221.8073 Y-154.4770
G1 X221.9068 Y-154.2738
G1 X222.0046 Y-154.0723
G1 X222.1004 Y-153.8735
G1 X222.1941 Y-153.6766
G1 X222.2858 Y-153.4823
G1 X222.3755 Y-153.2905
G1 X222.4629 Y-153.1015
G1 X222.5477 Y-152.9159
G1 X222.6302 Y-152.7332
G1 X222.7105 Y-152.5539
G1 X222.7880 Y-152.3782
G1 X222.8629 Y-152.2059
G1 X222.9350 Y-152.0378
G1 X223.0044 Y-151.8737
G1 X223.0707 Y-151.7139
G1 X223.1342 Y-151.5585
G1 X223.1946 Y-151.4076
G1 X223.2518 Y-151.2618
G1 X223.3059 Y-151.1206
G1 X223.3567 Y-150.9847
G1 X223.4225 Y-150.7952
G1 X223.4758 Y-150.6245
G1 X223.5197 Y-150.4726
G1 X223.5576 Y-150.3388
G1 X223.5926 Y-150.2235
G1 X223.6285 Y-150.1262
G1 X223.6681 Y-150.0469
G1 X223.7148 Y-149.9855
G1 X223.7722 Y-149.9415
G1 X223.8433 Y-149.9149
G1 X223.9317 Y-149.9057
G1 X224.0407 Y-149.9136
G1 X224.1733 Y-149.9382
G1 X224.3331 Y-149.9799
G1 X224.5230 Y-150.0381
G1 X224.7471 Y-150.1125
G1 X224.9312 Y-150.1803
G1 X225.1123 Y-150.2557
G1 X225.2899 Y-150.3388
G1 X225.4639 Y-150.4292
G1 X225.6343 Y-150.5267
G1 X225.8007 Y-150.6311
G1 X225.9632 Y-150.7421
G1 X226.1212 Y-150.8597
G1 X226.2749 Y-150.9834
G1 X226.4242 Y-151.1130
G1 X226.5685 Y-151.2484
G1 X226.7080 Y-151.3893
G1 X226.8421 Y-151.5354
G1 X226.9711 Y-151.6865
G1 X227.0948 Y-151.8422
G1 X227.2127 Y-152.0027
G1 X227.3247 Y-152.1673
G1 X227.4308 Y-152.3362
G1 X227.5309 Y-152.5090
G1 X227.6246 Y-152.6852
G1 X227.7118 Y-152.8648
G1 X227.7923 Y-153.0477
G1 X227.8659 Y-153.2334
G1 X227.9325 Y-153.4218
G1 X227.9919 Y-153.6129
G1 X228.0440 Y-153.8059
G1 X228.0884 Y-154.0010
G1 X228.1253 Y-154.1978
G1 X228.1542 Y-154.3959
G1 X228.1751 Y-154.5956
G1 X228.1878 Y-154.7962
G1 X228.1921 Y-154.9979
G1 X228.1913 Y-155.1137
G1 X228.1888 Y-155.2313
G1 X228.1847 Y-155.3502
G1 X228.1789 Y-155.4706
G1 X228.1715 Y-155.5925
G1 X228.1626 Y-155.7160
G1 X228.1519 Y-155.8407
G1 X228.1400 Y-155.9667
G1 X228.1263 Y-156.0942
G1 X228.1111 Y-156.2232
G1 X228.0940 Y-156.3533
G1 X228.0757 Y-156.4848
G1 X228.0559 Y-156.6179
G1 X228.0346 Y-156.7520
G1 X228.0117 Y-156.8874
G1 X227.9874 Y-157.0241
G1 X227.9614 Y-157.1622
G1 X227.9343 Y-157.3014
G1 X227.9056 Y-157.4419
G1 X227.8753 Y-157.5834
G1 X227.8436 Y-157.7264
G1 X227.8106 Y-157.8701
G1 X227.7760 Y-158.0154
G1 X227.7402 Y-158.1617
G1 X227.7031 Y-158.3091
G1 X227.6645 Y-158.4576
G1 X227.6244 Y-158.6073
G1 X227.5832 Y-158.7579
G1 X227.5406 Y-158.9095
G1 X227.4966 Y-159.0622
G1 X227.4514 Y-159.2161
G1 X227.4047 Y-159.3708
G1 X227.3569 Y-159.5265
G1 X227.3076 Y-159.6832
G1 X227.2574 Y-159.8409
G1 X227.2055 Y-159.9997
G1 X227.1527 Y-160.1592
G1 X227.0986 Y-160.3197
G1 X226.9866 Y-160.6431
G1 X226.9287 Y-160.8061
G1 X226.8698 Y-160.9702
G1 X226.8096 Y-161.1348
G1 X226.7483 Y-161.3004
G1 X226.6859 Y-161.4668
G1 X226.5576 Y-161.8018
G1 X226.4915 Y-161.9705
G1 X226.4247 Y-162.1396
G1 X226.3567 Y-162.3098
G1 X226.2876 Y-162.4805
G1 X226.2172 Y-162.6519
G1 X226.1461 Y-162.8239
G1 X226.0737 Y-162.9966
G1 X226.0003 Y-163.1701
G1 X225.9259 Y-163.3441
G1 X225.7742 Y-163.6936
G1 X225.6185 Y-164.0456
G1 X225.4588 Y-164.3997
G1 X225.2955 Y-164.7556
G1 X225.0468 Y-165.2895
G1 X224.8804 Y-165.6441
G1 X224.7130 Y-165.9974
G1 X224.5449 Y-166.3497
G1 X224.3762 Y-166.7007
G1 X224.2066 Y-167.0505
G1 X223.9508 Y-167.5729
G1 X223.7791 Y-167.9197
G1 X223.6066 Y-168.2651
G1 X223.4331 Y-168.6093
G1 X223.3463 Y-168.7807
G1 X223.1715 Y-169.1229
G1 X223.0839 Y-169.2933
G1 X222.9076 Y-169.6334
G1 X222.7306 Y-169.9720
G1 X222.5525 Y-170.3093
G1 X222.2838 Y-170.8122
G1 X222.1032 Y-171.1457
G1 X221.9216 Y-171.4777
G1 X221.7390 Y-171.8081
G1 X221.5551 Y-172.1371
G1 X221.4629 Y-172.3009
G1 X221.2774 Y-172.6273
G1 X221.0907 Y-172.9522
G1 X220.9030 Y-173.2752
G1 X220.8088 Y-173.4360
G1 X220.6193 Y-173.7568
G1 X220.4286 Y-174.0756
G1 X220.3328 Y-174.2346
G1 X220.1403 Y-174.5508
G1 X220.0435 Y-174.7083
G1 X219.8489 Y-175.0220
G1 X219.6531 Y-175.3337
G1 X219.5548 Y-175.4889
G1 X219.3572 Y-175.7980
G1 X219.1581 Y-176.1051
G1 X218.9577 Y-176.4104
G1 X218.7557 Y-176.7136
G1 X218.6544 Y-176.8648
G1 X218.4504 Y-177.1650
G1 X218.2452 Y-177.4634
G1 X218.1418 Y-177.6120
G1 X217.9343 Y-177.9074
G1 X217.7252 Y-178.2006
G1 X217.6201 Y-178.3466
G1 X217.4090 Y-178.6369
G1 X217.1962 Y-178.9250
G1 X216.9818 Y-179.2110
G1 X216.8738 Y-179.3532
G1 X216.6572 Y-179.6359
G1 X216.5482 Y-179.7764
G1 X216.3290 Y-180.0560
G1 X216.1083 Y-180.3331
G1 X215.9973 Y-180.4708
G1 X215.8858 Y-180.6082
G1 X215.6615 Y-180.8808
G1 X215.5490 Y-181.0164
G1 X215.4357 Y-181.1513
G1 X215.3221 Y-181.2856
G1 X215.2081 Y-181.4192
G1 X215.0938 Y-181.5523
G1 X214.9790 Y-181.6849
G1 X214.8637 Y-181.8170
G1 X214.7479 Y-181.9483
G1 X214.6315 Y-182.0791
G1 X214.5149 Y-182.2092
G1 X214.3978 Y-182.3387
G1 X214.2805 Y-182.4678
G1 X214.1624 Y-182.5960
G1 X214.0440 Y-182.7238
G1 X213.9249 Y-182.8510
G1 X213.8055 Y-182.9775
G1 X213.6859 Y-183.1033
G1 X213.5655 Y-183.2285
G1 X213.4446 Y-183.3532
G1 X213.3234 Y-183.4772
G1 X213.2018 Y-183.6003
G1 X213.0796 Y-183.7230
G1 X212.9569 Y-183.8452
G1 X212.8337 Y-183.9666
G1 X212.7100 Y-184.0873
G1 X212.5858 Y-184.2074
G1 X212.4613 Y-184.3268
G1 X212.3361 Y-184.4457
G1 X212.2104 Y-184.5638
G1 X212.0844 Y-184.6814
G1 X211.9577 Y-184.7982
G1 X211.8307 Y-184.9143
G1 X211.7029 Y-185.0296
G1 X211.5749 Y-185.1444
G1 X211.4461 Y-185.2585
G1 X211.3171 Y-185.3720
G1 X211.1873 Y-185.4848
G1 X211.0572 Y-185.5968
G1 X210.9264 Y-185.7080
G1 X210.7951 Y-185.8188
G1 X210.6635 Y-185.9288
G1 X210.5312 Y-186.0380
G1 X210.3984 Y-186.1464
G1 X210.2650 Y-186.2544
G1 X210.1312 Y-186.3616
G1 X209.9965 Y-186.4680
G1 X209.8617 Y-186.5737
G1 X209.7260 Y-186.6786
G1 X209.5901 Y-186.7830
G1 X209.4535 Y-186.8866
G1 X209.3163 Y-186.9892
G1 X209.1787 Y-187.0913
G1 X209.0402 Y-187.1927
G1 X208.9015 Y-187.2933
G1 X208.7621 Y-187.3933
G1 X208.6221 Y-187.4924
G1 X208.4814 Y-187.5907
G1 X208.3405 Y-187.6885
G1 X208.1987 Y-187.7852
G1 X208.0565 Y-187.8813
G1 X207.9137 Y-187.9768
G1 X207.7702 Y-188.0713
G1 X207.6262 Y-188.1652
G1 X207.4817 Y-188.2582
G1 X207.3366 Y-188.3507
G1 X207.1908 Y-188.4421
G1 X207.0445 Y-188.5328
G1 X206.8975 Y-188.6229
G1 X206.7499 Y-188.7121
G1 X206.6018 Y-188.8005
G1 X206.4532 Y-188.8881
G1 X206.3039 Y-188.9747
G1 X206.1538 Y-189.0608
G1 X206.0034 Y-189.1462
G1 X205.8523 Y-189.2305
G1 X205.7004 Y-189.3141
G1 X205.5480 Y-189.3969
G1 X205.3951 Y-189.4789
G1 X205.2414 Y-189.5602
G1 X205.0870 Y-189.6405
G1 X204.9320 Y-189.7202
G1 X204.7766 Y-189.7987
G1 X204.6204 Y-189.8767
G1 X204.4637 Y-189.9539
G1 X204.3062 Y-190.0301
G1 X204.1482 Y-190.1055
G1 X203.9894 Y-190.1800
G1 X203.8302 Y-190.2539
G1 X203.6702 Y-190.3268
G1 X203.5094 Y-190.3987
G1 X203.3481 Y-190.4698
G1 X203.1860 Y-190.5401
G1 X203.0235 Y-190.6097
G1 X202.8601 Y-190.6783
G1 X202.6963 Y-190.7461
G1 X202.5317 Y-190.8129
G1 X202.3664 Y-190.8790
G1 X202.2003 Y-190.9442
G1 X202.0336 Y-191.0085
G1 X201.8665 Y-191.0718
G1 X201.6984 Y-191.1345
G1 X201.5297 Y-191.1960
G1 X201.3605 Y-191.2567
G1 X201.1904 Y-191.3166
G1 X201.0197 Y-191.3755
G1 X200.8482 Y-191.4337
G1 X200.6760 Y-191.4909
G1 X200.5033 Y-191.5472
G1 X200.3298 Y-191.6024
G1 X200.1556 Y-191.6570
G1 X199.9805 Y-191.7106
G1 X199.8050 Y-191.7631
G1 X199.6288 Y-191.8150
G1 X199.4517 Y-191.8658
G1 X199.2739 Y-191.9155
G1 X199.0954 Y-191.9646
G1 X198.9163 Y-192.0126
G1 X198.7365 Y-192.0596
G1 X198.5556 Y-192.1058
G1 X198.3743 Y-192.1510
G1 X198.1921 Y-192.1952
G1 X198.0095 Y-192.2386
G1 X197.8259 Y-192.2808
G1 X197.6415 Y-192.3222
G1 X197.4566 Y-192.3628
G1 X197.2706 Y-192.4022
G1 X197.0842 Y-192.4408
G1 X196.8970 Y-192.4784
G1 X196.7088 Y-192.5150
G1 X196.5201 Y-192.5508
G1 X196.3306 Y-192.5853
G1 X196.1403 Y-192.6191
G1 X195.9493 Y-192.6519
G1 X195.7575 Y-192.6836
G1 X195.5648 Y-192.7144
G1 X195.3715 Y-192.7441
G1 X195.1774 Y-192.7730
G1 X194.9826 Y-192.8007
G1 X194.7868 Y-192.8274
G1 X194.5904 Y-192.8533
G1 X194.3933 Y-192.8782
G1 X194.1952 Y-192.9018
G1 X193.9963 Y-192.9247
G1 X193.7969 Y-192.9465
G1 X193.5965 Y-192.9671
G1 X193.3953 Y-192.9869
G1 X193.1934 Y-193.0057
G1 X192.9905 Y-193.0232
G1 X192.7870 Y-193.0400
G1 X192.5825 Y-193.0557
G1 X192.3776 Y-193.0702
G1 X192.1716 Y-193.0837
G1 X191.9648 Y-193.0964
G1 X191.7570 Y-193.1078
G1 X191.4152 Y-193.1246
G1 X191.1447 Y-193.1365
G1 X190.5897 Y-193.1584
G1 X190.3054 Y-193.1683
G1 X189.8708 Y-193.1817
G1 X189.5759 Y-193.1896
G1 X189.1261 Y-193.1998
G1 X188.9742 Y-193.2028
G1 X188.5127 Y-193.2102
G1 X188.2003 Y-193.2140
G1 X188.0428 Y-193.2155
G1 X187.5653 Y-193.2183
G1 X187.2427 Y-193.2188
G1 X186.7527 Y-193.2173
G1 X186.4225 Y-193.2150
G1 X185.9214 Y-193.2089
G1 X185.5838 Y-193.2033
G1 X185.2437 Y-193.1962
G1 X184.7286 Y-193.1833
G1 X184.2084 Y-193.1670
G1 X183.6831 Y-193.1472
G1 X183.3303 Y-193.1322
G1 X182.9755 Y-193.1154
G1 X182.6191 Y-193.0971
G1 X182.4403 Y-193.0875
G1 X182.0812 Y-193.0667
G1 X181.7207 Y-193.0441
G1 X181.3588 Y-193.0197
G1 X180.9956 Y-192.9935
G1 X180.6311 Y-192.9656
G1 X180.2656 Y-192.9356
G1 X180.0824 Y-192.9201
G1 X179.7157 Y-192.8873
G1 X179.3479 Y-192.8525
G1 X178.9796 Y-192.8157
G1 X178.7952 Y-192.7967
G1 X178.4259 Y-192.7568
G1 X178.0563 Y-192.7146
G1 X177.6862 Y-192.6704
G1 X177.3161 Y-192.6242
G1 X176.9461 Y-192.5757
G1 X176.7611 Y-192.5505
G1 X176.3911 Y-192.4985
G1 X176.0212 Y-192.4441
G1 X175.6517 Y-192.3875
G1 X175.2826 Y-192.3283
G1 X175.0982 Y-192.2978
G1 X174.9141 Y-192.2666
G1 X174.5463 Y-192.2026
G1 X174.3626 Y-192.1695
G1 X174.1792 Y-192.1360
G1 X173.8130 Y-192.0669
G1 X173.6303 Y-192.0314
G1 X173.4480 Y-191.9950
G1 X173.2658 Y-191.9582
G1 X173.0840 Y-191.9206
G1 X172.9024 Y-191.8825
G1 X172.7210 Y-191.8437
G1 X172.5402 Y-191.8040
G1 X172.3596 Y-191.7639
G1 X172.1792 Y-191.7230
G1 X171.9994 Y-191.6814
G1 X171.8201 Y-191.6389
G1 X171.6410 Y-191.5960
G1 X171.4624 Y-191.5523
G1 X171.2844 Y-191.5079
G1 X171.1066 Y-191.4627
G1 X170.9293 Y-191.4167
G1 X170.7525 Y-191.3699
G1 X170.5762 Y-191.3227
G1 X170.4005 Y-191.2747
G1 X170.2252 Y-191.2257
G1 X170.0502 Y-191.1761
G1 X169.8762 Y-191.1259
G1 X169.7025 Y-191.0748
G1 X169.5295 Y-191.0230
G1 X169.3570 Y-190.9704
G1 X169.1851 Y-190.9171
G1 X169.0139 Y-190.8627
G1 X168.8432 Y-190.8078
G1 X168.6730 Y-190.7522
G1 X168.5039 Y-190.6956
G1 X168.3352 Y-190.6382
G1 X168.1670 Y-190.5800
G1 X167.9999 Y-190.5213
G1 X167.8333 Y-190.4614
G1 X167.6674 Y-190.4009
G1 X167.5023 Y-190.3395
G1 X167.3380 Y-190.2772
G1 X167.1744 Y-190.2142
G1 X167.0119 Y-190.1505
G1 X166.8498 Y-190.0857
G1 X166.6885 Y-190.0202
G1 X166.5282 Y-189.9539
G1 X166.3687 Y-189.8866
G1 X166.2100 Y-189.8185
G1 X166.0522 Y-189.7494
G1 X165.8955 Y-189.6796
G1 X165.7393 Y-189.6090
G1 X165.5844 Y-189.5373
G1 X165.4302 Y-189.4649
G1 X165.2770 Y-189.3915
G1 X165.1246 Y-189.3174
G1 X164.9735 Y-189.2422
G1 X164.8231 Y-189.1660
G1 X164.6738 Y-189.0890
G1 X164.5255 Y-189.0113
G1 X164.3781 Y-188.9326
G1 X164.2318 Y-188.8528
G1 X164.0868 Y-188.7720
G1 X163.9425 Y-188.6905
G1 X163.7995 Y-188.6080
G1 X163.6575 Y-188.5246
G1 X163.5168 Y-188.4403
G1 X163.3769 Y-188.3550
G1 X163.2384 Y-188.2686
G1 X163.1010 Y-188.1812
G1 X162.9646 Y-188.0931
G1 X162.8295 Y-188.0039
G1 X162.6956 Y-187.9138
G1 X162.5630 Y-187.8226
G1 X162.4315 Y-187.7304
G1 X162.3012 Y-187.6374
G1 X162.1721 Y-187.5432
G1 X162.0444 Y-187.4482
G1 X161.9181 Y-187.3519
G1 X161.7929 Y-187.2549
G1 X161.6690 Y-187.1566
G1 X161.5465 Y-187.0575
G1 X161.4251 Y-186.9575
G1 X161.3052 Y-186.8561
G1 X161.1869 Y-186.7540
G1 X161.0698 Y-186.6506
G1 X160.9540 Y-186.5462
G1 X160.8397 Y-186.4408
G1 X160.7266 Y-186.3344
G1 X160.6151 Y-186.2270
G1 X160.5051 Y-186.1185
G1 X160.3967 Y-186.0088
G1 X160.2895 Y-185.8983
G1 X160.1838 Y-185.7865
G1 X160.0797 Y-185.6735
G1 X159.9771 Y-185.5597
G1 X159.8760 Y-185.4446
G1 X159.7764 Y-185.3286
G1 X159.6786 Y-185.2112
G1 X159.5821 Y-185.0931
G1 X159.4874 Y-184.9735
G1 X159.3941 Y-184.8531
G1 X159.3024 Y-184.7314
G1 X159.2125 Y-184.6085
G1 X159.1241 Y-184.4848
G1 X159.0375 Y-184.3595
G1 X158.9524 Y-184.2333
G1 X158.8691 Y-184.1061
G1 X158.7876 Y-183.9775
G1 X158.7076 Y-183.8480
G1 X158.6293 Y-183.7172
G1 X158.5529 Y-183.5851
G1 X158.4782 Y-183.4520
G1 X158.4053 Y-183.3176
G1 X158.3342 Y-183.1823
G1 X158.2649 Y-183.0456
G1 X158.1973 Y-182.9077
G1 X158.1315 Y-182.7687
G1 X158.0678 Y-182.6285
G1 X158.0058 Y-182.4871
G1 X157.9456 Y-182.3443
G1 X157.8872 Y-182.2005
G1 X157.8310 Y-182.0555
G1 X157.7764 Y-181.9092
G1 X157.7238 Y-181.7616
G1 X157.6733 Y-181.6128
G1 X157.6245 Y-181.4629
G1 X157.5780 Y-181.3115
G1 X157.5333 Y-181.1591
G1 X157.4904 Y-181.0055
G1 X157.4498 Y-180.8503
G1 X157.4112 Y-180.6941
G1 X157.3743 Y-180.5366
G1 X157.3398 Y-180.3778
G1 X157.3073 Y-180.2178
G1 X157.2768 Y-180.0565
G1 X157.2484 Y-179.8937
G1 X157.2222 Y-179.7299
G1 X157.1981 Y-179.5648
G1 X157.1760 Y-179.3982
G1 X157.1561 Y-179.2303
G1 X157.1384 Y-179.0614
G1 X157.1229 Y-178.8909
G1 X157.1097 Y-178.7190
G1 X157.0985 Y-178.5460
G1 X157.0896 Y-178.3715
G1 X157.0830 Y-178.1960
G1 X157.0784 Y-178.0187
G1 X157.0764 Y-177.8404
G1 X157.0764 Y-177.6606
G1 X157.0787 Y-177.4795
G1 X157.0835 Y-177.2971
G1 X157.0904 Y-177.1132
G1 X157.0998 Y-176.9280
G1 X157.1114 Y-176.7413
G1 X157.1257 Y-176.5534
G1 X157.1419 Y-176.3641
G1 X157.1536 Y-176.2458
G1 X157.1668 Y-176.1259
G1 X157.1818 Y-176.0045
G1 X157.1983 Y-175.8813
G1 X157.2166 Y-175.7563
G1 X157.2362 Y-175.6301
G1 X157.2575 Y-175.5021
G1 X157.2804 Y-175.3725
G1 X157.3047 Y-175.2415
G1 X157.3309 Y-175.1086
G1 X157.3583 Y-174.9745
G1 X157.3873 Y-174.8386
G1 X157.4180 Y-174.7015
G1 X157.4500 Y-174.5628
G1 X157.4836 Y-174.4226
G1 X157.5186 Y-174.2808
G1 X157.5552 Y-174.1376
G1 X157.5933 Y-173.9928
G1 X157.6327 Y-173.8467
G1 X157.6738 Y-173.6992
G1 X157.7160 Y-173.5503
G1 X157.7599 Y-173.4000
G1 X157.8051 Y-173.2483
G1 X157.8519 Y-173.0952
G1 X157.8999 Y-172.9407
G1 X157.9494 Y-172.7848
G1 X158.0002 Y-172.6278
G1 X158.0523 Y-172.4690
G1 X158.1059 Y-172.3093
G1 X158.1607 Y-172.1482
G1 X158.2171 Y-171.9857
G1 X158.3380 Y-171.6446
G1 X158.4361 Y-171.3756
G1 X158.5031 Y-171.1945
G1 X158.6067 Y-170.9202
G1 X158.6776 Y-170.7355
G1 X158.7866 Y-170.4558
G1 X158.8988 Y-170.1731
G1 X159.0144 Y-169.8874
G1 X159.1732 Y-169.5018
G1 X159.2547 Y-169.3070
G1 X159.3375 Y-169.1109
G1 X159.4645 Y-168.8145
G1 X159.5943 Y-168.5153
G1 X159.7271 Y-168.2133
G1 X159.8173 Y-168.0103
G1 X160.0017 Y-167.6009
G1 X160.1909 Y-167.1871
G1 X160.3362 Y-166.8734
G1 X160.5341 Y-166.4518
G1 X160.6857 Y-166.1325
G1 X160.8920 Y-165.7032
G1 X160.9969 Y-165.4868
G1 X161.1564 Y-165.1607
G1 X161.3731 Y-164.7223
G1 X161.5940 Y-164.2798
G1 X161.8193 Y-163.8338
G1 X161.9910 Y-163.4970
G1 X162.2237 Y-163.0446
G1 X162.4604 Y-162.5887
G1 X162.7619 Y-162.0144
G1 X163.1315 Y-161.3187
G1 X163.3195 Y-160.9682
G1 X163.5095 Y-160.6161
G1 X163.7660 Y-160.1445
G1 X164.0258 Y-159.6697
G1 X164.2229 Y-159.3121
G1 X164.4886 Y-158.8333
G1 X164.7576 Y-158.3517
G1 X165.0980 Y-157.7470
G1 X165.4432 Y-157.1386
G1 X165.8630 Y-156.4048
G1 X166.4325 Y-155.4201
G1 X166.9390 Y-154.5532
G1 X167.3789 Y-153.8069
G1 X167.8986 Y-152.9326
G1 X168.1980 Y-152.4320
G1 X168.6512 Y-151.6789
G1 X169.1084 Y-150.9245
G1 X169.4922 Y-150.2948
G1 X170.0334 Y-149.4125
G1 X170.5790 Y-148.5295
G1 X171.0494 Y-147.7729
G1 X171.6804 Y-146.7648
G1 X172.3944 Y-145.6327
G1 X173.1114 Y-144.5044
G1 X173.7507 Y-143.5054
G1 X174.3108 Y-142.6352
G1 X174.7911 Y-141.8928
G1 X175.4312 Y-140.9083
G1 X175.8307 Y-140.2966
G1 X176.3890 Y-139.4455
G1 X177.1835 Y-138.2413
G1 X178.0515 Y-136.9344
G1 X178.9892 Y-135.5329
G1 X179.4535 Y-134.8423
G1 X180.3720 Y-133.4839
G1 X181.1998 Y-132.2675
G1 X182.0121 Y-131.0810
G1 X183.1617 Y-129.4138
G1 X184.2003 Y-127.9197
G1 X184.7370 Y-127.1521
G1 X185.5173 Y-126.0419
G1 X186.0199 Y-125.3305
G1 X187.0375 Y-123.8994
G1 X187.4909 Y-123.2659
G1 X188.0332 Y-122.5123
G1 X188.5965 Y-121.7338
G1 X189.2602 Y-120.8240
G1 X189.5686 Y-120.4041
G1 X190.0974 Y-119.6896
G1 X190.5325 Y-119.1082
G1 X190.8543 Y-118.6833
G1 X194.6303 Y-113.8766
G1 X194.7962 Y-113.6830
G1 X194.9635 Y-113.4849
G1 X195.0471 Y-113.3848
G1 X195.2135 Y-113.1829
G1 X195.3771 Y-112.9807
G1 X195.4573 Y-112.8799
G1 X195.5363 Y-112.7798
G1 X195.6140 Y-112.6802
G1 X195.7642 Y-112.4842
G1 X195.8363 Y-112.3879
G1 X195.9745 Y-112.2009
G1 X196.0438 Y-112.1080
G1 X196.1142 Y-112.0150
G1 X196.1858 Y-111.9215
G1 X196.3321 Y-111.7336
G1 X196.4068 Y-111.6391
G1 X196.5589 Y-111.4496
G1 X196.6364 Y-111.3544
G1 X196.7149 Y-111.2589
G1 X196.7941 Y-111.1634
G1 X196.9552 Y-110.9716
G1 X197.1192 Y-110.7791
G1 X197.2864 Y-110.5860
G1 X197.3710 Y-110.4892
G1 X197.5416 Y-110.2957
G1 X197.7149 Y-110.1021
G1 X197.8899 Y-109.9083
G1 X198.0669 Y-109.7148
G1 X198.2455 Y-109.5212
G1 X198.4253 Y-109.3282
G1 X198.6062 Y-109.1357
G1 X198.8792 Y-108.8481
G1 X199.1533 Y-108.5624
G1 X199.4276 Y-108.2789
G1 X199.7923 Y-107.9055
G1 X200.2445 Y-107.4473
G1 X200.7758 Y-106.9129
G1 X201.3730 Y-106.3155
; Retract
G1 Z2.5400 F2540

; Return to 0,0
G0 X0 Y0 F2540
M2
